{"version": 0.6, "generator": "Overpass API 0.7.61.5 4133829e", "osm3s": {"timestamp_osm_base": "2024-02-26T22:08:15Z", "copyright": "The data included in this document is from www.openstreetmap.org. The data is made available under ODbL."}, "elements": [{"type": "node", "id": 4728302512, "lat": -23.4438276, "lon": -46.9225233}, {"type": "node", "id": 4728302513, "lat": -23.4441339, "lon": -46.9225286}, {"type": "node", "id": 4728302514, "lat": -23.4441167, "lon": -46.9225823}, {"type": "node", "id": 4728302515, "lat": -23.4440638, "lon": -46.9226534}, {"type": "node", "id": 4728302516, "lat": -23.4440527, "lon": -46.9227472}, {"type": "node", "id": 4728302517, "lat": -23.4439863, "lon": -46.9228894}, {"type": "node", "id": 4728302518, "lat": -23.443974, "lon": -46.9229216}, {"type": "node", "id": 4728302519, "lat": -23.4439531, "lon": -46.9229283}, {"type": "node", "id": 4728302520, "lat": -23.4439321, "lon": -46.9229216}, {"type": "node", "id": 4728302521, "lat": -23.4438952, "lon": -46.9227754}, {"type": "node", "id": 5260799492, "lat": -23.4415261, "lon": -46.9251452}, {"type": "node", "id": 5260799493, "lat": -23.4415232, "lon": -46.9249304}, {"type": "node", "id": 5260799494, "lat": -23.4415381, "lon": -46.9245481}, {"type": "node", "id": 5260799496, "lat": -23.441554, "lon": -46.9239695}, {"type": "node", "id": 5260799497, "lat": -23.4415245, "lon": -46.9239426}, {"type": "node", "id": 5260799498, "lat": -23.4414949, "lon": -46.9239265}, {"type": "node", "id": 5260799500, "lat": -23.4410514, "lon": -46.9239406}, {"type": "node", "id": 5260799502, "lat": -23.4410776, "lon": -46.9248167}, {"type": "node", "id": 5260799503, "lat": -23.4411119, "lon": -46.9252089}, {"type": "node", "id": 5303279333, "lat": -23.4410647, "lon": -46.9244785}, {"type": "node", "id": 6255888962, "lat": -23.4425332, "lon": -46.9269386}, {"type": "node", "id": 6255888963, "lat": -23.4424969, "lon": -46.9270986}, {"type": "node", "id": 6255888964, "lat": -23.4427553, "lon": -46.9271451}, {"type": "node", "id": 6255888965, "lat": -23.4427994, "lon": -46.9271529}, {"type": "node", "id": 6255888966, "lat": -23.4428033, "lon": -46.9271275}, {"type": "node", "id": 6255888967, "lat": -23.4428107, "lon": -46.9270629}, {"type": "node", "id": 6255888968, "lat": -23.442739, "lon": -46.9270138}, {"type": "node", "id": 6255913275, "lat": -23.4428098, "lon": -46.9270962}, {"type": "node", "id": 6255913279, "lat": -23.44281, "lon": -46.9270877}, {"type": "node", "id": 6255913280, "lat": -23.4425166, "lon": -46.9270116}, {"type": "node", "id": 6255928135, "lat": -23.4425483, "lon": -46.9261761}, {"type": "node", "id": 6255928136, "lat": -23.4426774, "lon": -46.9262463}, {"type": "node", "id": 6255928137, "lat": -23.4427057, "lon": -46.9261762}, {"type": "node", "id": 6255928138, "lat": -23.4425773, "lon": -46.926121}, {"type": "node", "id": 6256117009, "lat": -23.4414365, "lon": -46.9251402}, {"type": "node", "id": 6311652418, "lat": -23.4417223, "lon": -46.9237798}, {"type": "node", "id": 6311652419, "lat": -23.441716, "lon": -46.9236835}, {"type": "node", "id": 6311652420, "lat": -23.4417917, "lon": -46.9236801}, {"type": "node", "id": 6311652421, "lat": -23.4417917, "lon": -46.9237867}, {"type": "node", "id": 6311652422, "lat": -23.4417633, "lon": -46.9238005}, {"type": "node", "id": 6311881336, "lat": -23.44012, "lon": -46.9242974}, {"type": "node", "id": 6311881337, "lat": -23.4402025, "lon": -46.9242659}, {"type": "node", "id": 6311881338, "lat": -23.440188, "lon": -46.9242165}, {"type": "node", "id": 6311881339, "lat": -23.4401798, "lon": -46.9241918}, {"type": "node", "id": 6311881340, "lat": -23.4400932, "lon": -46.9242255}, {"type": "node", "id": 6311881341, "lat": -23.4400973, "lon": -46.9242637}, {"type": "node", "id": 6419508795, "lat": -23.4426882, "lon": -46.9254938}, {"type": "node", "id": 6419508796, "lat": -23.4428827, "lon": -46.924767}, {"type": "node", "id": 6419508797, "lat": -23.4428236, "lon": -46.924653}, {"type": "node", "id": 6419508798, "lat": -23.4427535, "lon": -46.9246302}, {"type": "node", "id": 6419508799, "lat": -23.4426439, "lon": -46.9246637}, {"type": "node", "id": 6419508800, "lat": -23.4418664, "lon": -46.9251478}, {"type": "node", "id": 6419508801, "lat": -23.4421616, "lon": -46.9248917}, {"type": "node", "id": 6419508802, "lat": -23.44243, "lon": -46.9247853}, {"type": "node", "id": 7131846259, "lat": -23.4420737, "lon": -46.9241757}, {"type": "node", "id": 7131846260, "lat": -23.4421979, "lon": -46.9241798}, {"type": "node", "id": 7131846261, "lat": -23.4422115, "lon": -46.9239733}, {"type": "node", "id": 7131846262, "lat": -23.4420848, "lon": -46.9239693}, {"type": "node", "id": 10900106827, "lat": -23.4415379, "lon": -46.9268086}, {"type": "node", "id": 10900106828, "lat": -23.4416905, "lon": -46.9267415}, {"type": "node", "id": 10900106829, "lat": -23.4415502, "lon": -46.9262399}, {"type": "node", "id": 10900106830, "lat": -23.441394, "lon": -46.9262949}, {"type": "node", "id": 10900106831, "lat": -23.4416954, "lon": -46.9262212}, {"type": "node", "id": 10900106832, "lat": -23.4418185, "lon": -46.9266825}, {"type": "node", "id": 10900106833, "lat": -23.4419981, "lon": -46.9266289}, {"type": "node", "id": 10900106834, "lat": -23.4419415, "lon": -46.926425}, {"type": "node", "id": 10900106835, "lat": -23.4419292, "lon": -46.9264492}, {"type": "node", "id": 10900106836, "lat": -23.4418505, "lon": -46.9261702}, {"type": "node", "id": 10900106837, "lat": -23.44188, "lon": -46.9261675}, {"type": "node", "id": 10900106838, "lat": -23.4418751, "lon": -46.9261112}, {"type": "node", "id": 10900106839, "lat": -23.4418209, "lon": -46.9261219}, {"type": "node", "id": 10900106840, "lat": -23.4418259, "lon": -46.9261648}, {"type": "node", "id": 10900106841, "lat": -23.4419169, "lon": -46.9255989}, {"type": "node", "id": 10900106842, "lat": -23.4422479, "lon": -46.9257303}, {"type": "node", "id": 10900106843, "lat": -23.4423205, "lon": -46.9255184}, {"type": "node", "id": 10900106844, "lat": -23.4419834, "lon": -46.925387}, {"type": "node", "id": 10900536651, "lat": -23.4419317, "lon": -46.9255426}, {"type": "node", "id": 10900536652, "lat": -23.4419588, "lon": -46.9254715}, {"type": "node", "id": 10900536653, "lat": -23.4419243, "lon": -46.9255352}, {"type": "node", "id": 10900536654, "lat": -23.4419452, "lon": -46.9254752}, {"type": "node", "id": 10900536665, "lat": -23.441496, "lon": -46.9258417, "tags": {"addr:housenumber": "868", "addr:street": "Rua Professor Edgar de Moraes", "addr:suburb": "Jardim Frediani", "amenity": "clinic", "healthcare": "clinic", "healthcare:speciality": "general;paediatrics;ginecologia;vaccination", "name": "Unidade B\u00e1sica de Sa\u00fade Doutor \u00c1lvaro Ribeiro", "opening_hours": "Mo-Fr 07:00-17:00; Sa,Su,PH off", "operator": "Secretaria de Sa\u00fade", "operator:type": "government", "ref:CNES": "3005909", "short_name": "UBS Doutor \u00c1lvaro Ribeiro", "source": "CNES"}}, {"type": "node", "id": 10900536666, "lat": -23.4411491, "lon": -46.9258832, "tags": {"addr:housenumber": "868", "addr:street": "Rua Professor Edgar de Moraes", "addr:suburb": "Jardim Frediani", "amenity": "clinic", "government": "administrative", "healthcare": "clinic", "healthcare:speciality": "fisioterapia;fonoaudiologia;terapeuta_ocupacional", "name": "Centro Funcional Integrado em Sa\u00fade", "opening_hours": "Mo-Fr 07:00-19:00; Sa,Su,PH off", "operator": "Secretaria de Sa\u00fade", "phone": "+55 11 4622 8856", "short_name": "CEFIS"}}, {"type": "node", "id": 10900536669, "lat": -23.4420583, "lon": -46.9254756, "tags": {"addr:housenumber": "765", "addr:street": "Rua Professor Edgar de Moraes", "addr:suburb": "Jardim Frediani", "amenity": "hospital", "emergency": "yes", "healthcare": "hospital", "healthcare:speciality": "paediatrics", "name": "Pronto Socorro Infantil", "operator": "Secretaria de Sa\u00fade", "operator:type": "government", "phone": "+55 11 4622 7100"}}, {"type": "node", "id": 10900536670, "lat": -23.4419845, "lon": -46.9255895, "tags": {"addr:street": "Rua Professor Edgar de Moraes", "addr:suburb": "Jardim Frediani", "amenity": "clinic", "healthcare": "clinic", "healthcare:speciality": "alergia_e_imunologia;cardiology;dermatology;endocrinology;fisioterapia_respirat\u00f3ria;fonoaudiologia;gastroenterology;geriatrics;hebiatria;haematology;infectologia;nefrologia_adulto;neurology;nutricionista;ophthalmology;ortopedia;otolaryngology;pneumologia", "name": "Ambulat\u00f3rio M\u00e9dico de Espeicialidades Parna\u00edba", "opening_hours": "Mo-Fr 07:00-19:00; Sa,Su,PH off", "operator": "Secretaria de Sa\u00fade", "operator:type": "government", "phone": "+55 11 4622 7100", "short_name": "AME Parna\u00edba"}}, {"type": "way", "id": 479783118, "nodes": [4728302512, 4728302513, 4728302514, 4728302515, 4728302516, 4728302517, 4728302518, 4728302519, 4728302520, 4728302521, 4728302512], "tags": {"addr:street": "Avenida Brasil", "leisure": "park", "name": "Pra\u00e7a Jo\u00e3o Amaral Camargo"}}, {"type": "way", "id": 544221184, "nodes": [5260799492, 5260799493, 5260799494, 5260799496, 5260799497, 5260799498, 5260799500, 5303279333, 5260799502, 5260799503, 6256117009, 5260799492], "tags": {"addr:city": "Santana de Parna\u00edba", "addr:housenumber": "10", "addr:postcode": "06502-156", "addr:street": "Rua Nelson Piccinini Miguel", "addr:suburb": "Jardim Frediani", "amenity": "school", "contact:phone": "+55 11 4154 2276", "email": "sme.albademello@edu.santanadeparnaiba.sp.gov.br", "name": "Colegio Municipal Professora Alba de Mello Bonilha", "phone": "+55 11 4154 1072", "ref": "35218054"}}, {"type": "way", "id": 668076017, "nodes": [6255888962, 6255913280, 6255888963, 6255888964, 6255888965, 6255888966, 6255913275, 6255913279, 6255888967, 6255888968, 6255888962], "tags": {"addr:city": "Santana de Parna\u00edba", "addr:street": "Rua Espanha", "addr:suburb": "Jardim S\u00e3o Lu\u00eds", "leisure": "park", "name": "Pra\u00e7a S\u00e3o Lu\u00eds", "opening_hours": "24/7"}}, {"type": "way", "id": 668080768, "nodes": [6255928135, 6255928136, 6255928137, 6255928138, 6255928135], "tags": {"addr:city": "Santana de Parna\u00edba", "addr:street": "Rua Espanha", "addr:suburb": "Jardim S\u00e3o Lu\u00eds", "amenity": "place_of_worship", "building": "chapel", "denomination": "roman_catholic", "name": "Capela Nossa Senhora Aparecida", "religion": "christian"}}, {"type": "way", "id": 673970151, "nodes": [6311652418, 6311652419, 6311652420, 6311652421, 6311652422, 6311652418], "tags": {"addr:street": "Rua Alberto Frediani", "amenity": "place_of_worship", "building": "yes", "denomination": "methodist", "name": "Igreja Metodista", "religion": "christian", "service_times": "Su 18:00; We 19:30"}}, {"type": "way", "id": 673996895, "nodes": [6311881336, 6311881337, 6311881338, 6311881339, 6311881340, 6311881341, 6311881336], "tags": {"addr:housenumber": "35", "addr:postcode": "06501-235", "addr:street": "Rua Esperan\u00e7a", "amenity": "place_of_worship", "building": "chapel", "denomination": "roman_catholic", "name": "Comunidade Imaculada Concei\u00e7\u00e3o e Beato Frei Galv\u00e3o", "religion": "christian"}}, {"type": "way", "id": 685107075, "nodes": [6419508795, 6419508796, 6419508797, 6419508798, 6419508799, 6419508802, 6419508801, 6419508800, 6419508795], "tags": {"addr:housenumber": "765", "addr:postcode": "06502-165", "addr:street": "Rua Professor Edgar de Moraes", "addr:suburb": "Jardim Deghi", "amenity": "hospital", "emergency": "yes", "healthcare": "hospital", "healthcare:speciality": "general;ortopedia;gynaecology", "name": "Hospital Municipal  Santa Ana", "operator": "Secretaria de Sa\u00fade", "operator:ref:vatin": "BR46522983000127", "operator:type": "government", "phone": "+55 11 4622 8750", "ref:CNES": "9799265"}}, {"type": "way", "id": 763217718, "nodes": [7131846259, 7131846260, 7131846261, 7131846262, 7131846259], "tags": {"addr:city": "Santana de Parna\u00edba", "addr:housenumber": "858", "addr:street": "Rua Alberto Frediani", "addr:suburb": "Jardim Frediani", "building": "yes"}}, {"type": "way", "id": 1173128877, "nodes": [10900106827, 10900106828, 10900106829, 10900106830, 10900106827], "tags": {"addr:street": "Rua Professor Edgar de Moraes", "building": "yes", "government": "public_service", "name": "Centro de Conviv\u00eancia da Crian\u00e7a e do Adolescente", "office": "government", "short_name": "CCAA"}}, {"type": "way", "id": 1173128878, "nodes": [10900106831, 10900106832, 10900106833, 10900106834, 10900106835, 10900106836, 10900106837, 10900106838, 10900106839, 10900106840, 10900106831], "tags": {"addr:street": "Avenida Esperan\u00e7a", "building": "yes", "government": "administrative", "name": "Secretaria de Educa\u00e7\u00e3o de Santana de Parna\u00edba", "office": "government"}}, {"type": "way", "id": 1173128879, "nodes": [10900106841, 10900106842, 10900106843, 10900106844, 10900536652, 10900536654, 10900536653, 10900536651, 10900106841], "tags": {"addr:street": "Rua Professor Edgar de Moraes", "building": "yes"}}]}