{"version": 0.6, "generator": "Overpass API 0.7.61.5 4133829e", "osm3s": {"timestamp_osm_base": "2024-02-26T22:05:15Z", "copyright": "The data included in this document is from www.openstreetmap.org. The data is made available under ODbL."}, "elements": [{"type": "node", "id": 1492976793, "lat": -23.6118941, "lon": -46.4933166, "tags": {"entrance": "yes"}}, {"type": "node", "id": 2596068687, "lat": -23.6123346, "lon": -46.4930057}, {"type": "node", "id": 3572986197, "lat": -23.6039485, "lon": -46.5096652, "tags": {"addr:city": "S\u00e3o Paulo", "addr:housenumber": "9546", "addr:postcode": "03345-001", "addr:street": "Avenida Sapopemba"}}, {"type": "node", "id": 3971686561, "lat": -23.6125723, "lon": -46.4903287}, {"type": "node", "id": 3971686562, "lat": -23.6126571, "lon": -46.4903256}, {"type": "node", "id": 3971686563, "lat": -23.6126477, "lon": -46.4900212}, {"type": "node", "id": 3971686564, "lat": -23.6125629, "lon": -46.4900244}, {"type": "node", "id": 4234105635, "lat": -23.6125246, "lon": -46.4905937, "tags": {"addr:city": "S\u00e3o Paulo", "addr:housenumber": "12199", "addr:street": "Avenida Sapopemba", "shop": "yes"}}, {"type": "node", "id": 4234105636, "lat": -23.612597, "lon": -46.4910051, "tags": {"addr:city": "S\u00e3o Paulo", "addr:housenumber": "41", "addr:street": "Rua Ant\u00f4nio Leal da Silva", "tourism": "hotel"}}, {"type": "node", "id": 4574238233, "lat": -23.6129877, "lon": -46.4943737, "tags": {"addr:city": "S\u00e3o Paulo", "addr:housenumber": "11810", "addr:street": "Avenida Sapopemba", "bench": "yes", "bus": "yes", "departures_board": "yes", "description": "Ref.: Rua Antonio Adorno/ Avenida Joao Rodrigues Ruiz", "gtfs_id": "780006807", "highway": "bus_stop", "network": "SPTrans", "network:wikidata": "Q7392689", "network:wikipedia": "pt:S\u00e3o Paulo Transporte", "public_transport": "platform", "route_ref": "3141-10;3390-10;4029-10;4030-10;4033-10;425E-10;5110-10;5110-24;5110-25;5110-41;513C-10;513C-31;519M-10;524M-10;573H-10;573T-10;573T-31;574C-10;574W-10;N501-11;N503-11", "shelter": "yes", "wheelchair": "yes"}}, {"type": "node", "id": 4574238848, "lat": -23.6129852, "lon": -46.4908835, "tags": {"addr:city": "S\u00e3o Paulo", "addr:housenumber": "12130", "addr:street": "Avenida Sapopemba", "bench": "yes", "bus": "yes", "departures_board": "yes", "description": "Ref.: Rua Antonio Leal Da Silva/ Rua Padre Antonio", "gtfs_id": "780006808", "highway": "bus_stop", "lit": "yes", "network": "SPTrans", "network:wikidata": "Q7392689", "network:wikipedia": "pt:S\u00e3o Paulo Transporte", "public_transport": "platform", "route_ref": "3141-10;3390-10;4029-10;4030-10;4033-10;425E-10;5110-10;5110-24;5110-25;5110-41;513C-10;513C-31;519M-10;574C-10;574W-10;N501-11;N503-11", "shelter": "yes", "wheelchair": "yes"}}, {"type": "node", "id": 4768901391, "lat": -23.6130183, "lon": -46.4900565}, {"type": "node", "id": 4768901394, "lat": -23.613675, "lon": -46.490147}, {"type": "node", "id": 4768901395, "lat": -23.6131601, "lon": -46.4901916}, {"type": "node", "id": 4768901397, "lat": -23.613107, "lon": -46.4901266}, {"type": "node", "id": 4768901398, "lat": -23.6135782, "lon": -46.4901884}, {"type": "node", "id": 4768901402, "lat": -23.6136298, "lon": -46.4901736}, {"type": "node", "id": 5599501330, "lat": -23.6103002, "lon": -46.4936166}, {"type": "node", "id": 5599501331, "lat": -23.6105264, "lon": -46.4931848}, {"type": "node", "id": 5599501332, "lat": -23.611362, "lon": -46.493732}, {"type": "node", "id": 5599501333, "lat": -23.6113865, "lon": -46.4937883}, {"type": "node", "id": 5599501334, "lat": -23.6113349, "lon": -46.4938312}, {"type": "node", "id": 5599501335, "lat": -23.6106787, "lon": -46.4938151}, {"type": "node", "id": 5599501336, "lat": -23.6105534, "lon": -46.4937883}, {"type": "node", "id": 5599504757, "lat": -23.6096685, "lon": -46.4953452}, {"type": "node", "id": 5599504758, "lat": -23.6104451, "lon": -46.4938941}, {"type": "node", "id": 5599504759, "lat": -23.6094528, "lon": -46.4932188}, {"type": "node", "id": 5599504760, "lat": -23.6093441, "lon": -46.4933013}, {"type": "node", "id": 5599504761, "lat": -23.6092138, "lon": -46.4930841}, {"type": "node", "id": 5599504762, "lat": -23.6091131, "lon": -46.4931136}, {"type": "node", "id": 5599504763, "lat": -23.6087186, "lon": -46.4927729}, {"type": "node", "id": 5599504764, "lat": -23.6090854, "lon": -46.4929808}, {"type": "node", "id": 5599504765, "lat": -23.6087668, "lon": -46.492775}, {"type": "node", "id": 5599504766, "lat": -23.6091204, "lon": -46.4930197, "tags": {"addr:city": "S\u00e3o Paulo", "addr:street": "Rua Vict\u00f3ria Marconato Zonta", "addr:suburb": "Jardim Sapopemba", "amenity": "school", "name": "EMEI Vicente de Carvalho"}}, {"type": "node", "id": 5599504767, "lat": -23.6099905, "lon": -46.4926657}, {"type": "node", "id": 5599504768, "lat": -23.6105164, "lon": -46.4917402}, {"type": "node", "id": 5599504769, "lat": -23.6113136, "lon": -46.4922848}, {"type": "node", "id": 5599504770, "lat": -23.6111578, "lon": -46.4925473}, {"type": "node", "id": 5599504771, "lat": -23.6110967, "lon": -46.4925292}, {"type": "node", "id": 5599504772, "lat": -23.6108297, "lon": -46.4932236}, {"type": "node", "id": 5641479515, "lat": -23.6121754, "lon": -46.4941116, "tags": {"addr:city": "S\u00e3o Paulo", "addr:postcode": "03975-110", "addr:street": "Avenida Jo\u00e3o Rodrigues Ruiz", "addr:suburb": "Jardim Sapopemba", "amenity": "restaurant", "cuisine": "pizza;sandwich", "delivery": "yes", "description": "cozinha \u00e1rabe r\u00e1pida em espa\u00e7o informal", "name": "HABIB'S", "outdoor_seating": "no", "takeaway": "only"}}, {"type": "node", "id": 5889354985, "lat": -23.6119135, "lon": -46.4932819}, {"type": "node", "id": 5889354987, "lat": -23.6118599, "lon": -46.4933778}, {"type": "node", "id": 5889354988, "lat": -23.6118955, "lon": -46.4933142}, {"type": "node", "id": 5889354998, "lat": -23.6110379, "lon": -46.4928542}, {"type": "node", "id": 5889354999, "lat": -23.6108986, "lon": -46.4931025}, {"type": "node", "id": 5889381386, "lat": -23.6126463, "lon": -46.4933344}, {"type": "node", "id": 5889381387, "lat": -23.6126157, "lon": -46.4932971}, {"type": "node", "id": 5889381388, "lat": -23.6125789, "lon": -46.4932672}, {"type": "node", "id": 5889381389, "lat": -23.612446, "lon": -46.493418}, {"type": "node", "id": 6759448592, "lat": -23.6101607, "lon": -46.4925587}, {"type": "node", "id": 6759448593, "lat": -23.6103843, "lon": -46.4921523}, {"type": "node", "id": 6759448594, "lat": -23.6106924, "lon": -46.4923542}, {"type": "node", "id": 6759448595, "lat": -23.6104689, "lon": -46.4927606}, {"type": "node", "id": 9191164335, "lat": -23.6126321, "lon": -46.4934467, "tags": {"addr:city": "S\u00e3o Paulo", "addr:housenumber": "11953", "addr:street": "Avenida Sapopemba"}}, {"type": "node", "id": 9191164336, "lat": -23.6126172, "lon": -46.4935639}, {"type": "node", "id": 9246558775, "lat": -23.5948743, "lon": -46.5254714}, {"type": "node", "id": 9246558778, "lat": -23.5947891, "lon": -46.5258577, "tags": {"addr:city": "S\u00e3o Paulo", "addr:housenumber": "7550", "addr:street": "Avenida Sapopemba"}}, {"type": "node", "id": 9246558780, "lat": -23.595018, "lon": -46.525055}, {"type": "node", "id": 9246558781, "lat": -23.5952149, "lon": -46.5247533}, {"type": "node", "id": 9246558782, "lat": -23.5954129, "lon": -46.5245565}, {"type": "node", "id": 9246558783, "lat": -23.5966805, "lon": -46.5235909}, {"type": "node", "id": 9246558784, "lat": -23.5974348, "lon": -46.5230212}, {"type": "node", "id": 9246558785, "lat": -23.598208, "lon": -46.5225022}, {"type": "node", "id": 9246558786, "lat": -23.5982765, "lon": -46.5224093}, {"type": "node", "id": 9246558787, "lat": -23.5983307, "lon": -46.5223248}, {"type": "node", "id": 9246558788, "lat": -23.5984679, "lon": -46.5219615}, {"type": "node", "id": 9246558789, "lat": -23.5985276, "lon": -46.5216718}, {"type": "node", "id": 9246558790, "lat": -23.5986039, "lon": -46.5204648}, {"type": "node", "id": 9246558791, "lat": -23.5989258, "lon": -46.518052}, {"type": "node", "id": 9246558792, "lat": -23.5990607, "lon": -46.5167931}, {"type": "node", "id": 9246558793, "lat": -23.5991271, "lon": -46.5160605}, {"type": "node", "id": 9246558794, "lat": -23.5992587, "lon": -46.5156199}, {"type": "node", "id": 9246558795, "lat": -23.5994401, "lon": -46.5150864}, {"type": "node", "id": 9246558796, "lat": -23.5999312, "lon": -46.5139036}, {"type": "node", "id": 9246558797, "lat": -23.6004522, "lon": -46.5126833}, {"type": "node", "id": 9246558798, "lat": -23.6007663, "lon": -46.5122331}, {"type": "node", "id": 9246558799, "lat": -23.6009626, "lon": -46.5120004}, {"type": "node", "id": 9246558800, "lat": -23.6022476, "lon": -46.5109879}, {"type": "node", "id": 9246558801, "lat": -23.602862, "lon": -46.5105019}, {"type": "node", "id": 9246558803, "lat": -23.6040951, "lon": -46.5095687}, {"type": "node", "id": 9246558804, "lat": -23.6049327, "lon": -46.5090544}, {"type": "node", "id": 9246558805, "lat": -23.6051904, "lon": -46.5088671}, {"type": "node", "id": 9246558806, "lat": -23.6061526, "lon": -46.5081909}, {"type": "node", "id": 9246558807, "lat": -23.6073597, "lon": -46.507346}, {"type": "node", "id": 9246558808, "lat": -23.6084202, "lon": -46.5066338}, {"type": "node", "id": 9246558809, "lat": -23.6085989, "lon": -46.5064332}, {"type": "node", "id": 9246558810, "lat": -23.6092302, "lon": -46.5055801}, {"type": "node", "id": 9246558811, "lat": -23.6098679, "lon": -46.5047153}, {"type": "node", "id": 9246558812, "lat": -23.6100154, "lon": -46.5045397}, {"type": "node", "id": 9246558813, "lat": -23.6101393, "lon": -46.5044414}, {"type": "node", "id": 9246558814, "lat": -23.6103925, "lon": -46.5043025}, {"type": "node", "id": 9246558815, "lat": -23.6106048, "lon": -46.5042629, "tags": {"addr:city": "S\u00e3o Paulo", "addr:housenumber": "10510", "addr:street": "Avenida Sapopemba"}}, {"type": "node", "id": 9246558816, "lat": -23.6109004, "lon": -46.5042667}, {"type": "node", "id": 9246582217, "lat": -23.6111147, "lon": -46.5043337}, {"type": "node", "id": 9246582218, "lat": -23.6114929, "lon": -46.5044717}, {"type": "node", "id": 9246582219, "lat": -23.6116352, "lon": -46.5045164}, {"type": "node", "id": 9246582220, "lat": -23.6118448, "lon": -46.5045351}, {"type": "node", "id": 9246582221, "lat": -23.6120917, "lon": -46.5045217}, {"type": "node", "id": 9246582222, "lat": -23.6122878, "lon": -46.5044912}, {"type": "node", "id": 9246582223, "lat": -23.6125431, "lon": -46.5043859}, {"type": "node", "id": 9246582224, "lat": -23.6129326, "lon": -46.5041721}, {"type": "node", "id": 9246582225, "lat": -23.6132889, "lon": -46.50399}, {"type": "node", "id": 9246582226, "lat": -23.6136959, "lon": -46.5037737}, {"type": "node", "id": 9246582227, "lat": -23.6145075, "lon": -46.5031039}, {"type": "node", "id": 9246582228, "lat": -23.6148084, "lon": -46.5027173}, {"type": "node", "id": 9246582229, "lat": -23.61502, "lon": -46.5022903}, {"type": "node", "id": 9246582230, "lat": -23.6150588, "lon": -46.502104}, {"type": "node", "id": 9246582231, "lat": -23.614904, "lon": -46.5010201}, {"type": "node", "id": 9246582232, "lat": -23.6146198, "lon": -46.4994981}, {"type": "node", "id": 9246582233, "lat": -23.6143619, "lon": -46.4983678, "tags": {"addr:city": "S\u00e3o Paulo", "addr:housenumber": "11490", "addr:street": "Avenida Sapopemba"}}, {"type": "node", "id": 9246582234, "lat": -23.6143234, "lon": -46.4981037}, {"type": "node", "id": 9246582235, "lat": -23.6143022, "lon": -46.4976197}, {"type": "node", "id": 9246582236, "lat": -23.6143197, "lon": -46.4970841}, {"type": "node", "id": 9246582237, "lat": -23.6143431, "lon": -46.4966839}, {"type": "node", "id": 9246582238, "lat": -23.6143522, "lon": -46.4964118}, {"type": "node", "id": 9246582239, "lat": -23.6142958, "lon": -46.4961414}, {"type": "node", "id": 9246582240, "lat": -23.6141918, "lon": -46.4958759}, {"type": "node", "id": 9246582241, "lat": -23.6140591, "lon": -46.4956634}, {"type": "node", "id": 9246582242, "lat": -23.6137494, "lon": -46.4953146}, {"type": "node", "id": 9246582243, "lat": -23.6135083, "lon": -46.4951456}, {"type": "node", "id": 9246582244, "lat": -23.613254, "lon": -46.4949441}, {"type": "node", "id": 9246582245, "lat": -23.613139, "lon": -46.4948016}, {"type": "node", "id": 9246582246, "lat": -23.613035, "lon": -46.4946194}, {"type": "node", "id": 9246582247, "lat": -23.6129642, "lon": -46.4944069}, {"type": "node", "id": 9246582248, "lat": -23.6129189, "lon": -46.4941221}, {"type": "node", "id": 9246582249, "lat": -23.6130051, "lon": -46.4936779}, {"type": "node", "id": 9246582250, "lat": -23.6131301, "lon": -46.4932494}, {"type": "node", "id": 9246582251, "lat": -23.6132175, "lon": -46.4928282}, {"type": "node", "id": 9246582252, "lat": -23.613244, "lon": -46.4925192}, {"type": "node", "id": 9246582253, "lat": -23.6132307, "lon": -46.4923635}, {"type": "node", "id": 9246582254, "lat": -23.6130228, "lon": -46.4911927}, {"type": "node", "id": 9246582255, "lat": -23.6130228, "lon": -46.4905675}, {"type": "node", "id": 9246582256, "lat": -23.6130814, "lon": -46.4898759}, {"type": "node", "id": 9246582257, "lat": -23.6131002, "lon": -46.4890732}, {"type": "node", "id": 9246582258, "lat": -23.6130206, "lon": -46.488763}, {"type": "node", "id": 9246582259, "lat": -23.6127674, "lon": -46.4883225}, {"type": "node", "id": 9246582260, "lat": -23.6124831, "lon": -46.4879242}, {"type": "node", "id": 9246582261, "lat": -23.6113363, "lon": -46.4866544}, {"type": "node", "id": 9246582262, "lat": -23.6108707, "lon": -46.4861704}, {"type": "node", "id": 9246582263, "lat": -23.6106052, "lon": -46.4858602}, {"type": "node", "id": 9246582264, "lat": -23.6105333, "lon": -46.4856285, "tags": {"addr:city": "S\u00e3o Paulo", "addr:housenumber": "12686", "addr:street": "Avenida Sapopemba"}}, {"type": "node", "id": 9246582265, "lat": -23.6104758, "lon": -46.4852362}, {"type": "node", "id": 9246582266, "lat": -23.6104803, "lon": -46.4851058}, {"type": "node", "id": 9246582267, "lat": -23.6105765, "lon": -46.4847546}, {"type": "node", "id": 9246582268, "lat": -23.6106572, "lon": -46.4844794}, {"type": "node", "id": 9246582269, "lat": -23.6107866, "lon": -46.484232}, {"type": "node", "id": 9246582270, "lat": -23.6109005, "lon": -46.4840654}, {"type": "node", "id": 9246582271, "lat": -23.6111936, "lon": -46.4838192}, {"type": "node", "id": 9246582272, "lat": -23.6115906, "lon": -46.4836345}, {"type": "node", "id": 9246582273, "lat": -23.6119611, "lon": -46.4834921}, {"type": "node", "id": 9246582274, "lat": -23.6121901, "lon": -46.4833328}, {"type": "node", "id": 9246582275, "lat": -23.6123593, "lon": -46.4831795}, {"type": "node", "id": 9246582276, "lat": -23.6125506, "lon": -46.4829151}, {"type": "node", "id": 9246582277, "lat": -23.6126601, "lon": -46.4825736}, {"type": "node", "id": 9246582278, "lat": -23.6126911, "lon": -46.4818735}, {"type": "node", "id": 9246582279, "lat": -23.6127707, "lon": -46.4810708}, {"type": "node", "id": 9246582280, "lat": -23.6128603, "lon": -46.4804867}, {"type": "node", "id": 9246582281, "lat": -23.612931, "lon": -46.4796792}, {"type": "node", "id": 9246582282, "lat": -23.6129642, "lon": -46.4793195}, {"type": "node", "id": 9246582283, "lat": -23.6128923, "lon": -46.4787582}, {"type": "node", "id": 9246582284, "lat": -23.6127972, "lon": -46.4783261}, {"type": "node", "id": 9246582285, "lat": -23.6126446, "lon": -46.4776671, "tags": {"addr:city": "S\u00e3o Paulo", "addr:housenumber": "13522", "addr:street": "Avenida Sapopemba"}}, {"type": "node", "id": 9246587361, "lat": -23.6131142, "lon": -46.4917072, "tags": {"addr:city": "S\u00e3o Paulo", "addr:housenumber": "12060", "addr:street": "Avenida Sapopemba"}}, {"type": "node", "id": 9246647992, "lat": -23.6130464, "lon": -46.4897721}, {"type": "node", "id": 9246647993, "lat": -23.6136992, "lon": -46.4897565}, {"type": "node", "id": 9246648000, "lat": -23.6136989, "lon": -46.4901214}, {"type": "node", "id": 9246648008, "lat": -23.613699, "lon": -46.4899075, "tags": {"addr:city": "S\u00e3o Paulo", "addr:housenumber": "179", "addr:postcode": "03977-414", "addr:street": "Rua Alexandre Groppali", "entrance": "yes"}}, {"type": "node", "id": 9246672140, "lat": -23.6129472, "lon": -46.4943001, "tags": {"addr:city": "S\u00e3o Paulo", "addr:housenumber": "11820", "addr:street": "Avenida Sapopemba"}}, {"type": "node", "id": 9246677102, "lat": -23.6143079, "lon": -46.4972831, "tags": {"addr:city": "S\u00e3o Paulo", "addr:housenumber": "11574", "addr:street": "Avenida Sapopemba"}}, {"type": "node", "id": 9246723588, "lat": -23.6150172, "lon": -46.501813, "tags": {"addr:city": "S\u00e3o Paulo", "addr:housenumber": "11128", "addr:street": "Avenida Sapopemba"}}, {"type": "node", "id": 9246723616, "lat": -23.6146186, "lon": -46.5029835, "tags": {"addr:city": "S\u00e3o Paulo", "addr:housenumber": "11004", "addr:postcode": "03345-001", "addr:street": "Avenida Sapopemba"}}, {"type": "node", "id": 9246743454, "lat": -23.6131788, "lon": -46.5040482, "tags": {"addr:city": "S\u00e3o Paulo", "addr:housenumber": "10810", "addr:postcode": "03345-001", "addr:street": "Avenida Sapopemba"}}, {"type": "node", "id": 9246749215, "lat": -23.6092091, "lon": -46.5056086, "tags": {"addr:city": "S\u00e3o Paulo", "addr:housenumber": "10284", "addr:postcode": "03345-001", "addr:street": "Avenida Sapopemba"}}, {"type": "node", "id": 9246767818, "lat": -23.6086463, "lon": -46.5063685, "tags": {"addr:city": "S\u00e3o Paulo", "addr:housenumber": "10180", "addr:postcode": "03345-001", "addr:street": "Avenida Sapopemba"}}, {"type": "node", "id": 9246767819, "lat": -23.6084445, "lon": -46.5066125, "tags": {"addr:city": "S\u00e3o Paulo", "addr:housenumber": "10146", "addr:postcode": "03345-001", "addr:street": "Avenida Sapopemba"}}, {"type": "node", "id": 9246783785, "lat": -23.6059408, "lon": -46.5083505, "tags": {"addr:city": "S\u00e3o Paulo", "addr:housenumber": "9810", "addr:postcode": "03345-001", "addr:street": "Avenida Sapopemba"}}, {"type": "node", "id": 9246783791, "lat": -23.6036959, "lon": -46.5098409, "tags": {"addr:city": "S\u00e3o Paulo", "addr:housenumber": "9518", "addr:postcode": "03345-001", "addr:street": "Avenida Sapopemba"}}, {"type": "node", "id": 9246791944, "lat": -23.6006611, "lon": -46.5123839, "tags": {"addr:city": "S\u00e3o Paulo", "addr:housenumber": "9114", "addr:postcode": "03345-001", "addr:street": "Avenida Sapopemba"}}, {"type": "node", "id": 9566283166, "lat": -23.5984481, "lon": -46.5220139, "tags": {"addr:city": "S\u00e3o Paulo", "addr:housenumber": "8134", "addr:street": "Avenida Sapopemba"}}, {"type": "node", "id": 9566283167, "lat": -23.5989869, "lon": -46.5174818, "tags": {"addr:city": "S\u00e3o Paulo", "addr:housenumber": "8600", "addr:street": "Avenida Sapopemba"}}, {"type": "node", "id": 9566283176, "lat": -23.5998409, "lon": -46.5141212, "tags": {"addr:city": "S\u00e3o Paulo", "addr:housenumber": "8926", "addr:street": "Avenida Sapopemba"}}, {"type": "node", "id": 9566283181, "lat": -23.6030654, "lon": -46.5103517, "tags": {"addr:city": "S\u00e3o Paulo", "addr:housenumber": "9436", "addr:street": "Avenida Sapopemba"}}, {"type": "node", "id": 9566283191, "lat": -23.6068981, "lon": -46.5076309}, {"type": "node", "id": 9566283207, "lat": -23.6140577, "lon": -46.5035493}, {"type": "node", "id": 9566283208, "lat": -23.614891, "lon": -46.5026139}, {"type": "node", "id": 9566334120, "lat": -23.6146282, "lon": -46.4995432, "tags": {"addr:city": "S\u00e3o Paulo", "addr:housenumber": "11366", "addr:street": "Avenida Sapopemba"}}, {"type": "node", "id": 9566334123, "lat": -23.6144671, "lon": -46.4989071}, {"type": "node", "id": 9566334127, "lat": -23.613212, "lon": -46.494892, "tags": {"addr:city": "S\u00e3o Paulo", "addr:housenumber": "11774", "addr:street": "Avenida Sapopemba"}}, {"type": "node", "id": 9869682549, "lat": -23.61222, "lon": -46.4931093}, {"type": "node", "id": 9869682550, "lat": -23.6122691, "lon": -46.4930664}, {"type": "node", "id": 9869682551, "lat": -23.6115994, "lon": -46.4937041}, {"type": "node", "id": 9869682552, "lat": -23.6110237, "lon": -46.4927695}, {"type": "node", "id": 9869682553, "lat": -23.6110306, "lon": -46.4927098}, {"type": "node", "id": 9869682554, "lat": -23.6110077, "lon": -46.4926936}, {"type": "node", "id": 9869682555, "lat": -23.6110679, "lon": -46.4928005}, {"type": "node", "id": 9869682556, "lat": -23.6121659, "lon": -46.4931495}, {"type": "node", "id": 9869682557, "lat": -23.6115687, "lon": -46.4937245}, {"type": "node", "id": 9886121295, "lat": -23.6145971, "lon": -46.4994104}, {"type": "way", "id": 394145516, "nodes": [3971686561, 3971686562, 3971686563, 3971686564, 3971686561], "tags": {"addr:city": "S\u00e3o Paulo", "addr:housenumber": "12500", "addr:street": "Avenida Sapopemba", "amenity": "fuel", "brand": "Ipiranga"}}, {"type": "way", "id": 484154809, "nodes": [4768901391, 9246647992, 9246647993, 9246648008, 9246648000, 4768901394, 4768901402, 4768901398, 4768901395, 4768901397, 4768901391], "tags": {"addr:city": "S\u00e3o Paulo", "addr:housenumber": "179", "addr:postcode": "03977-414", "addr:street": "Rua Alexandre Groppali", "addr:suburb": "Fazenda da Juta", "amenity": "kindergarten", "barrier": "wall", "name": "EMEI Aparecida Candida dos Santos de Jesus", "phone": "+55 11 2962-4441;+55 11 2011-8238", "short_name": "Escola Municipal de Ensino Infantil Aparecida Candida dos Santos de Jesus"}}, {"type": "way", "id": 585997945, "nodes": [5599504757, 5599504758, 5599504759, 5599504760, 5599504761, 5599504762, 5599504764, 5599504765, 5599504763, 5599504757], "tags": {"addr:city": "S\u00e3o Paulo", "addr:country": "BR", "addr:postcode": "03975-090", "addr:state": "SP", "addr:street": "Rua Manuel Quirino de Mattos", "addr:suburb": "Jardim Sapopemba", "amenity": "school", "loc_name": "CEU Sapopemba", "name": "Centro Educacional Unificado Dora Mancini", "note": "Sem numera\u00e7\u00e3o", "phone": "+55 11 3793-0131"}}, {"type": "way", "id": 585997946, "nodes": [5599504767, 5599504768, 5599504769, 5599504770, 5599504771, 9869682554, 9869682553, 9869682552, 9869682555, 5889354998, 5889354999, 5599504772, 5599504767], "tags": {"addr:city": "S\u00e3o Paulo", "addr:housenumber": "174", "addr:postcode": "03975-130", "addr:street": "Rua Manuel Fran\u00e7a dos Santos", "addr:suburb": "Sapopemba", "amenity": "hospital", "email": "sac@hesap.org.br", "emergency": "yes", "healthcare": "hospital", "healthcare:speciality": "general;orthopaedics;paediatrics;gynaecology;maternity;surgery", "loc_name": "HESAP", "name": "Hospital Estadual de Sapopemba", "operator": "Servi\u00e7o Social da Constru\u00e7\u00e3o Civil do Estado de S\u00e3o Paulo", "operator:ref:vatin": "BR46374500000194", "phone": "+55 11 2014 6000", "ref:CNES": "2091585", "ref:vatin": "BR46374500015116", "start_date": "2003-04-05", "website": "http://www.hesap.org.br/"}}, {"type": "way", "id": 585998314, "nodes": [5599501330, 5599501331, 5599501332, 5599501333, 5599501334, 5599501335, 5599501336, 5599501330], "tags": {"addr:city": "S\u00e3o Paulo", "addr:housenumber": "248", "addr:postcode": "03975-110", "addr:street": "Avenida Jo\u00e3o Rodrigues Ruiz", "addr:suburb": "Jardim Sapopemba", "amenity": "school", "email": "emefcosta@prefeitura.sp.gov.br", "name": "Escola Municipal de Educa\u00e7\u00e3o Fundamental Olival Costa", "phone": "+55 11 2019-4786", "short_name": "EMEF Olival Costa"}}, {"type": "way", "id": 623670628, "nodes": [9191164336, 5889381389, 5889381388, 5889381387, 5889381386, 9191164335, 9191164336], "tags": {"addr:city": "S\u00e3o Paulo", "addr:housenumber": "11953", "addr:street": "Avenida Sapopemba", "building": "yes", "height": "18.948", "name": "P\u00e3es e Do\u00e7es Nova Trivial", "shop": "bakery", "source": "pmsp"}}, {"type": "way", "id": 720205958, "nodes": [6759448595, 6759448592, 6759448593, 6759448594, 6759448595], "tags": {"access": "customers", "amenity": "parking", "parking": "surface", "surface": "asphalt"}}, {"type": "way", "id": 1001813492, "nodes": [9246558778, 9246558775, 9246558780, 9246558781, 9246558782, 9246558783, 9246558784, 9246558785, 9246558786, 9246558787, 9566283166, 9246558788, 9246558789, 9246558790, 9246558791, 9566283167, 9246558792, 9246558793, 9246558794, 9246558795, 9566283176, 9246558796, 9246558797, 9246791944, 9246558798, 9246558799, 9246558800, 9246558801, 9566283181, 9246783791, 3572986197, 9246558803, 9246558804, 9246558805, 9246783785, 9246558806, 9566283191, 9246558807, 9246558808, 9246767819, 9246558809, 9246767818, 9246749215, 9246558810, 9246558811, 9246558812, 9246558813, 9246558814, 9246558815, 9246558816, 9246582217, 9246582218, 9246582219, 9246582220, 9246582221, 9246582222, 9246582223, 9246582224, 9246743454, 9246582225, 9246582226, 9566283207, 9246582227, 9246723616, 9246582228, 9566283208, 9246582229, 9246582230, 9246723588, 9246582231, 9566334120, 9246582232, 9886121295, 9566334123, 9246582233, 9246582234, 9246582235, 9246677102, 9246582236, 9246582237, 9246582238, 9246582239, 9246582240, 9246582241, 9246582242, 9246582243, 9246582244, 9566334127, 9246582245, 9246582246, 9246582247, 9246672140, 9246582248, 9246582249, 9246582250, 9246582251, 9246582252, 9246582253, 9246587361, 9246582254, 9246582255, 9246582256, 9246582257, 9246582258, 9246582259, 9246582260, 9246582261, 9246582262, 9246582263, 9246582264, 9246582265, 9246582266, 9246582267, 9246582268, 9246582269, 9246582270, 9246582271, 9246582272, 9246582273, 9246582274, 9246582275, 9246582276, 9246582277, 9246582278, 9246582279, 9246582280, 9246582281, 9246582282, 9246582283, 9246582284, 9246582285], "tags": {"addr:inclusion": "estimate", "addr:interpolation": "even", "addr:street": "Avenida Sapopemba"}}, {"type": "way", "id": 1076258999, "nodes": [5599504772, 9869682557, 9869682551, 5889354987, 1492976793, 5889354988, 5889354985, 9869682556, 9869682549, 9869682550, 2596068687, 5599504769, 5599504770, 5599504771, 9869682554, 9869682553, 9869682552, 9869682555, 5889354998, 5889354999, 5599504772], "tags": {"amenity": "hospital", "name": "AE / AMA Sapopemba"}}]}