{"version": 0.6, "generator": "Overpass API 0.7.61.5 4133829e", "osm3s": {"timestamp_osm_base": "2024-02-19T19:53:14Z", "copyright": "The data included in this document is from www.openstreetmap.org. The data is made available under ODbL."}, "elements": [{"type": "node", "id": 1899993777, "lat": -23.7135367, "lon": -46.5519403}, {"type": "node", "id": 1899993910, "lat": -23.7134464, "lon": -46.5519376}, {"type": "node", "id": 1899994084, "lat": -23.7169837, "lon": -46.5524256}, {"type": "node", "id": 1899994152, "lat": -23.7135315, "lon": -46.5521505}, {"type": "node", "id": 1899994214, "lat": -23.7169781, "lon": -46.5522432}, {"type": "node", "id": 1899994457, "lat": -23.7134413, "lon": -46.5521478}, {"type": "node", "id": 2591991223, "lat": -23.7173046, "lon": -46.5564153}, {"type": "node", "id": 2591991224, "lat": -23.7172894, "lon": -46.5560314}, {"type": "node", "id": 2591991226, "lat": -23.7174553, "lon": -46.5564082}, {"type": "node", "id": 2951743671, "lat": -23.7162416, "lon": -46.5557123}, {"type": "node", "id": 2951743672, "lat": -23.7161976, "lon": -46.5556204}, {"type": "node", "id": 2951743673, "lat": -23.7164648, "lon": -46.5554678}, {"type": "node", "id": 2951743674, "lat": -23.7164989, "lon": -46.5555546}, {"type": "node", "id": 2951743675, "lat": -23.7164693, "lon": -46.555574}, {"type": "node", "id": 2951743676, "lat": -23.7165068, "lon": -46.5556492}, {"type": "node", "id": 2951743677, "lat": -23.7164258, "lon": -46.5556922}, {"type": "node", "id": 2951743678, "lat": -23.7164019, "lon": -46.5556207}, {"type": "node", "id": 2973315524, "lat": -23.7157306, "lon": -46.552678}, {"type": "node", "id": 2973315525, "lat": -23.7157111, "lon": -46.5523914}, {"type": "node", "id": 2973315526, "lat": -23.7158035, "lon": -46.5523839}, {"type": "node", "id": 2973315527, "lat": -23.715823, "lon": -46.5526705}, {"type": "node", "id": 3040246670, "lat": -23.713176, "lon": -46.5520647, "tags": {"addr:city": "S\u00e3o Bernardo do Campo", "addr:country": "BR", "addr:street": "Avenida Brigadeiro Faria Lima", "addr:suburb": "Vila Gon\u00e7alves J\u00fanior", "amenity": "fast_food", "cuisine": "regional", "name": "Lanchonete e Padaria Nova Faria Lima", "smoking": "outside"}}, {"type": "node", "id": 3052908285, "lat": -23.7171596, "lon": -46.5565032}, {"type": "node", "id": 3052908286, "lat": -23.7171537, "lon": -46.556177}, {"type": "node", "id": 3052908287, "lat": -23.7170499, "lon": -46.5561793}, {"type": "node", "id": 3052908288, "lat": -23.7170722, "lon": -46.5563421}, {"type": "node", "id": 3052908289, "lat": -23.7170342, "lon": -46.556343}, {"type": "node", "id": 3052908290, "lat": -23.7170351, "lon": -46.5563938}, {"type": "node", "id": 3052908291, "lat": -23.7170777, "lon": -46.5563929}, {"type": "node", "id": 3052908292, "lat": -23.7170798, "lon": -46.556505}, {"type": "node", "id": 3052917272, "lat": -23.7163355, "lon": -46.552151}, {"type": "node", "id": 3052917273, "lat": -23.7164482, "lon": -46.5521456}, {"type": "node", "id": 3052917276, "lat": -23.716457, "lon": -46.55243}, {"type": "node", "id": 3052920525, "lat": -23.7163689, "lon": -46.5524345}, {"type": "node", "id": 3052929285, "lat": -23.7170607, "lon": -46.5546401, "tags": {"addr:city": "S\u00e3o Bernardo do Campo", "addr:housenumber": "700", "addr:street": "Rua Frei Gaspar", "amenity": "cafe", "name": "Frei Caf\u00e9"}}, {"type": "node", "id": 3052929286, "lat": -23.7170263, "lon": -46.5544255, "tags": {"addr:city": "S\u00e3o Bernardo do Campo", "addr:street": "Rua Frei Gaspar", "amenity": "restaurant", "cuisine": "regional", "name": "Requinte Caseiro", "phone": "+55 11 4127 7211"}}, {"type": "node", "id": 3052953827, "lat": -23.7146157, "lon": -46.5523104}, {"type": "node", "id": 3052953829, "lat": -23.7147294, "lon": -46.5521207}, {"type": "node", "id": 3052953830, "lat": -23.7147321, "lon": -46.5523148}, {"type": "node", "id": 3075537282, "lat": -23.7172349, "lon": -46.5544406}, {"type": "node", "id": 3075537283, "lat": -23.7172312, "lon": -46.5542843}, {"type": "node", "id": 3075537284, "lat": -23.7172736, "lon": -46.5542497}, {"type": "node", "id": 3075537285, "lat": -23.7174721, "lon": -46.5542441}, {"type": "node", "id": 3075537286, "lat": -23.7174748, "lon": -46.5543553}, {"type": "node", "id": 3075537287, "lat": -23.7174409, "lon": -46.5543563}, {"type": "node", "id": 3683239827, "lat": -23.7170703, "lon": -46.5562376}, {"type": "node", "id": 3774007864, "lat": -23.7160317, "lon": -46.5519967, "tags": {"amenity": "taxi", "capacity": "5"}}, {"type": "node", "id": 4453871617, "lat": -23.7174402, "lon": -46.5560243}, {"type": "node", "id": 4486186222, "lat": -23.7146167, "lon": -46.5521216}, {"type": "node", "id": 4645436608, "lat": -23.7138129, "lon": -46.5530668}, {"type": "node", "id": 4645436609, "lat": -23.71389, "lon": -46.5530875}, {"type": "node", "id": 4645436610, "lat": -23.7139032, "lon": -46.5528308}, {"type": "node", "id": 4645436611, "lat": -23.7138372, "lon": -46.5528438}, {"type": "node", "id": 4740709071, "lat": -23.7150137, "lon": -46.5528586}, {"type": "node", "id": 4740709072, "lat": -23.7150616, "lon": -46.552644}, {"type": "node", "id": 4740709073, "lat": -23.7149816, "lon": -46.5526227}, {"type": "node", "id": 4740709074, "lat": -23.7149457, "lon": -46.5527834}, {"type": "node", "id": 4740709075, "lat": -23.714334, "lon": -46.5537361}, {"type": "node", "id": 4740709076, "lat": -23.7143968, "lon": -46.5535778}, {"type": "node", "id": 4740709077, "lat": -23.7142273, "lon": -46.5534923}, {"type": "node", "id": 4740709078, "lat": -23.7141568, "lon": -46.5536506}, {"type": "node", "id": 4893040824, "lat": -23.7158465, "lon": -46.5558208, "tags": {"addr:city": "S\u00e3o Bernardo do Campo", "addr:housenumber": "490", "addr:street": "Rua Secondo Modolin", "addr:suburb": "Vila Santa Rita de C\u00e1ssia", "amenity": "fast_food", "cuisine": "regional", "delivery": "no", "drive_through": "no", "name": "Lanchonete e Restaurante Que Sabor", "outdoor_seating": "no", "phone": "+55 11 2831 4412", "smoking": "outside", "takeaway": "yes"}}, {"type": "node", "id": 4893040825, "lat": -23.7154404, "lon": -46.5558939, "tags": {"addr:city": "S\u00e3o Bernardo do Campo", "addr:street": "Rua Secondo Modolin", "addr:suburb": "Vila Santa Rita de C\u00e1ssia", "amenity": "restaurant", "cuisine": "regional", "name": "Gran RF Padaria", "opening_hours": "Mo-Fr 06:00-22:50; Su 06:00-21:50", "outdoor_seating": "no", "smoking": "outside", "takeaway": "yes"}}, {"type": "node", "id": 4893040826, "lat": -23.7159883, "lon": -46.5558056, "tags": {"addr:city": "S\u00e3o Bernardo do Campo", "addr:street": "Rua Secondo Modolin", "addr:suburb": "Vila Santa Rita de C\u00e1ssia", "amenity": "fast_food", "cuisine": "burger", "drive_through": "no", "name": "Yasmin Lanches", "outdoor_seating": "no", "phone": "+55 11 4129 2969", "smoking": "outside"}}, {"type": "node", "id": 4893040827, "lat": -23.7158152, "lon": -46.5558947}, {"type": "node", "id": 4893040828, "lat": -23.7158835, "lon": -46.5558949}, {"type": "node", "id": 4893040829, "lat": -23.715884, "lon": -46.5557576}, {"type": "node", "id": 4893040830, "lat": -23.7158156, "lon": -46.5557876}, {"type": "node", "id": 4893040832, "lat": -23.7159845, "lon": -46.5555907, "tags": {"addr:city": "S\u00e3o Bernardo do Campo", "addr:street": "Rua Secondo Modolin", "addr:suburb": "Vila Santa Rita de C\u00e1ssia", "amenity": "place_of_worship", "denomination": "roman_catholic", "name": "Capela Santa Cec\u00edlia", "religion": "christian"}}, {"type": "node", "id": 4893040833, "lat": -23.7157433, "lon": -46.5558449, "tags": {"addr:city": "S\u00e3o Bernardo do Campo", "addr:housenumber": "482", "addr:street": "Rua Secondo Modolin", "addr:suburb": "Vila Santa Rita de C\u00e1ssia", "amenity": "fast_food", "cuisine": "burger", "name": "Sonia Lanches"}}, {"type": "node", "id": 4893058506, "lat": -23.7154238, "lon": -46.5531519, "tags": {"addr:city": "S\u00e3o Bernardo do Campo", "addr:street": "Rua Teresinha Setti", "addr:suburb": "Vila Santa Rita de C\u00e1ssia", "amenity": "restaurant", "cuisine": "steak_house", "name": "Galeteria Brazeiro", "outdoor_seating": "no", "phone": "+55 11 960 203 906", "smoking": "outside"}}, {"type": "node", "id": 4893058508, "lat": -23.7180275, "lon": -46.5554267}, {"type": "node", "id": 4893058509, "lat": -23.7180179, "lon": -46.5550863}, {"type": "node", "id": 4893058513, "lat": -23.7176989, "lon": -46.5550971}, {"type": "node", "id": 4893058514, "lat": -23.7177085, "lon": -46.5554374}, {"type": "node", "id": 4908301050, "lat": -23.715266, "lon": -46.5537035, "tags": {"addr:city": "S\u00e3o Bernardo do Campo", "addr:street": "Rua Joaquim Nabuco", "addr:suburb": "Centro", "amenity": "pharmacy", "dispensing": "yes", "healthcare": "pharmacy", "name": "Droga Coop"}}, {"type": "node", "id": 4908301051, "lat": -23.7151776, "lon": -46.5536928, "tags": {"addr:city": "S\u00e3o Bernardo do Campo", "addr:street": "Rua Joaquim Nabuco", "addr:suburb": "Centro", "amenity": "fast_food", "branch": "Shake", "brand": "Bob's", "brand:wikidata": "Q1392113", "cuisine": "burger", "name": "Bob's", "takeaway": "yes"}}, {"type": "node", "id": 4908301052, "lat": -23.7147061, "lon": -46.5535801, "tags": {"amenity": "atm", "brand": "Banco24Horas", "brand:wikidata": "Q4854069", "name": "Banco24Horas"}}, {"type": "node", "id": 4908301053, "lat": -23.7145931, "lon": -46.5534809, "tags": {"addr:city": "S\u00e3o Bernardo do Campo", "addr:street": "Rua Joaquim Nabuco", "addr:suburb": "Centro", "amenity": "bank", "atm": "yes", "brand": "Bradesco", "brand:wikidata": "Q806181", "brand:wikipedia": "en:Banco Bradesco", "name": "Bradesco"}}, {"type": "node", "id": 4908301065, "lat": -23.7136738, "lon": -46.5521536}, {"type": "node", "id": 4908301066, "lat": -23.7134887, "lon": -46.5524758}, {"type": "node", "id": 5247885831, "lat": -23.7153771, "lon": -46.5520408, "tags": {"addr:city": "S\u00e3o Bernardo do Campo", "addr:street": "Avenida Brigadeiro Faria Lima", "addr:suburb": "Vila Gon\u00e7alves J\u00fanior", "amenity": "place_of_worship", "contact:twitter": "@O2Renascer", "denomination": "neo_pentecostal", "name": "O2 Renascer", "religion": "christian", "website": "http://www.o2church.com.br/site/o2church"}}, {"type": "node", "id": 6155013790, "lat": -23.7157117, "lon": -46.5565237, "tags": {"access": "yes", "addr:housenumber": "113", "addr:street": "Rua dos Lirios", "amenity": "parking", "fee": "yes", "opening_hours": "Mo-Su 06:00-21:00", "park_ride": "no", "parking": "surface", "supervised": "yes"}}, {"type": "node", "id": 6302109248, "lat": -23.7133644, "lon": -46.5573867, "tags": {"amenity": "atm", "brand": "Banco24Horas", "brand:wikidata": "Q4854069", "brand:wikipedia": "pt:Banco24Horas", "currency:BRL": "yes", "drive_through": "no", "name": "Banco24Horas", "operator": "Banco24horas"}}, {"type": "node", "id": 6302109254, "lat": -23.7130436, "lon": -46.5576084}, {"type": "node", "id": 6302109255, "lat": -23.7131679, "lon": -46.5575945}, {"type": "node", "id": 6302109256, "lat": -23.7131679, "lon": -46.557492}, {"type": "node", "id": 6302109257, "lat": -23.712919, "lon": -46.557492}, {"type": "node", "id": 6302109258, "lat": -23.712919, "lon": -46.5576084}, {"type": "node", "id": 6886361326, "lat": -23.7170619, "lon": -46.5563645, "tags": {"addr:street": "Rua Frei Gaspar", "amenity": "car_wash", "name": "Aqua", "self_service": "no"}}, {"type": "node", "id": 6913520458, "lat": -23.7176637, "lon": -46.5560554, "tags": {"addr:street": "Rua Frei Gaspar", "amenity": "fast_food", "name": "Cantina CFC", "opening_hours": "Mo-Fr 09:00-22:00; Sa 08:00-15:00"}}, {"type": "node", "id": 7068418385, "lat": -23.7174428, "lon": -46.5544347}, {"type": "node", "id": 8589484364, "lat": -23.7130436, "lon": -46.5575945}, {"type": "node", "id": 8664460179, "lat": -23.7144755, "lon": -46.5528687}, {"type": "node", "id": 8664460180, "lat": -23.7145004, "lon": -46.5535448}, {"type": "node", "id": 8664460181, "lat": -23.7140564, "lon": -46.5533866}, {"type": "node", "id": 8664460182, "lat": -23.7140935, "lon": -46.5527929}, {"type": "node", "id": 8664460183, "lat": -23.7155441, "lon": -46.5535269}, {"type": "node", "id": 8664460184, "lat": -23.7155487, "lon": -46.5539307}, {"type": "node", "id": 8664460185, "lat": -23.7154171, "lon": -46.5539363}, {"type": "node", "id": 8664460186, "lat": -23.7153324, "lon": -46.5539092}, {"type": "node", "id": 8664460187, "lat": -23.7153402, "lon": -46.5535224}, {"type": "node", "id": 8707576502, "lat": -23.7141463, "lon": -46.5543384}, {"type": "node", "id": 8707576503, "lat": -23.7144692, "lon": -46.5545883}, {"type": "node", "id": 8707576504, "lat": -23.7145755, "lon": -46.5544509}, {"type": "node", "id": 8707576505, "lat": -23.7145654, "lon": -46.554013}, {"type": "node", "id": 8707576506, "lat": -23.7145546, "lon": -46.5539657}, {"type": "node", "id": 8707576507, "lat": -23.7145131, "lon": -46.5539363}, {"type": "node", "id": 8707576508, "lat": -23.7144688, "lon": -46.5539229}, {"type": "node", "id": 8707576509, "lat": -23.714417, "lon": -46.5539212}, {"type": "node", "id": 8707576510, "lat": -23.7143742, "lon": -46.5539507}, {"type": "node", "id": 8722997177, "lat": -23.7136775, "lon": -46.5524745}, {"type": "node", "id": 8722997178, "lat": -23.7136765, "lon": -46.5522819}, {"type": "node", "id": 8722997179, "lat": -23.7134877, "lon": -46.5522832}, {"type": "node", "id": 8722997180, "lat": -23.7136736, "lon": -46.5522765}, {"type": "node", "id": 8722997181, "lat": -23.7135435, "lon": -46.5522762}, {"type": "node", "id": 8722997182, "lat": -23.7135436, "lon": -46.5522392}, {"type": "node", "id": 8722997183, "lat": -23.7135288, "lon": -46.5522391}, {"type": "node", "id": 8722997184, "lat": -23.713529, "lon": -46.5521533}, {"type": "node", "id": 11016985086, "lat": -23.717051, "lon": -46.556238}, {"type": "node", "id": 11055515505, "lat": -23.7149583, "lon": -46.5528439}, {"type": "node", "id": 11055515506, "lat": -23.7149703, "lon": -46.55279}, {"type": "node", "id": 11055515856, "lat": -23.7176999, "lon": -46.5551311}, {"type": "node", "id": 11055552649, "lat": -23.7183096, "lon": -46.5523573}, {"type": "node", "id": 11055552650, "lat": -23.718312, "lon": -46.5524354}, {"type": "node", "id": 11055552651, "lat": -23.7183872, "lon": -46.5524327}, {"type": "node", "id": 11055552652, "lat": -23.7183891, "lon": -46.5524952}, {"type": "node", "id": 11055552653, "lat": -23.7187067, "lon": -46.552836}, {"type": "node", "id": 11055552654, "lat": -23.7181885, "lon": -46.5528548}, {"type": "node", "id": 11055552655, "lat": -23.7181736, "lon": -46.5523622}, {"type": "node", "id": 11055552656, "lat": -23.718696, "lon": -46.552484}, {"type": "node", "id": 11060135821, "lat": -23.7181829, "lon": -46.5526701}, {"type": "node", "id": 11148819249, "lat": -23.7172454, "lon": -46.5544403}, {"type": "node", "id": 11148819252, "lat": -23.7174073, "lon": -46.5544357}, {"type": "node", "id": 11148880887, "lat": -23.7164541, "lon": -46.5523603}, {"type": "node", "id": 11148880888, "lat": -23.7164412, "lon": -46.5523609}, {"type": "node", "id": 11148880889, "lat": -23.7164356, "lon": -46.5522257}, {"type": "node", "id": 11148880890, "lat": -23.7164514, "lon": -46.5522249}, {"type": "node", "id": 11148880891, "lat": -23.7163435, "lon": -46.5522188}, {"type": "node", "id": 11148880892, "lat": -23.7163497, "lon": -46.5522193}, {"type": "node", "id": 11148880893, "lat": -23.7163697, "lon": -46.5523787}, {"type": "node", "id": 11148880894, "lat": -23.7163624, "lon": -46.552379}, {"type": "node", "id": 11148880899, "lat": -23.7167771, "lon": -46.5524332}, {"type": "node", "id": 11148880900, "lat": -23.7167715, "lon": -46.5522508}, {"type": "node", "id": 11542180171, "lat": -23.7163595, "lon": -46.5555279}, {"type": "node", "id": 11589069452, "lat": -23.715011, "lon": -46.553627, "tags": {"amenity": "cafe", "name": "Coop Cafeteria"}}, {"type": "node", "id": 11589069453, "lat": -23.7165738, "lon": -46.5572229}, {"type": "node", "id": 11589069454, "lat": -23.7167765, "lon": -46.5572261}, {"type": "node", "id": 11589069455, "lat": -23.7167616, "lon": -46.5567571}, {"type": "node", "id": 11589069456, "lat": -23.7163949, "lon": -46.556425}, {"type": "node", "id": 11589069457, "lat": -23.7161388, "lon": -46.5564505}, {"type": "node", "id": 11589069458, "lat": -23.7161504, "lon": -46.5565422}, {"type": "node", "id": 11589069459, "lat": -23.716371, "lon": -46.5564999}, {"type": "node", "id": 11589069460, "lat": -23.7164038, "lon": -46.5568776}, {"type": "node", "id": 11589069461, "lat": -23.7165708, "lon": -46.5568907}, {"type": "node", "id": 11589645785, "lat": -23.7153093, "lon": -46.5559912, "tags": {"addr:street": "Rua Secondo Modolin", "addr:suburb": "Vila Santa Rita de C\u00e1ssia", "amenity": "veterinary"}}, {"type": "way", "id": 179598544, "nodes": [1899994084, 1899994214, 11148880900, 11148880899, 1899994084], "tags": {"addr:city": "S\u00e3o Bernardo do Campo", "addr:housenumber": "480", "addr:postcode": "09720-440", "addr:street": "Rua Frei Gaspar", "addr:suburb": "Vila Santa Rita de C\u00e1ssia", "amenity": "language_school", "building": "yes", "building:levels": "1", "email": "saobernardodocampocentro@ccaa.com.br", "language:en": "yes", "language:es": "yes", "name": "CCAA", "office": "educational_institution", "operator": "CCAA", "operator:type": "private", "phone": "+55 11 4339 6777", "website": "https://www.ccaa.com.br/unidade/saobernardodocampocentro/"}}, {"type": "way", "id": 179598579, "nodes": [1899993777, 1899993910, 1899994457, 1899994152, 1899993777], "tags": {"addr:city": "S\u00e3o Bernardo do Campo", "addr:country": "BR", "addr:housenumber": "1706", "addr:postcode": "09720-000", "addr:street": "Avenida Brigadeiro Faria Lima", "addr:suburb": "Vila Gon\u00e7alves J\u00fanior", "amenity": "fuel", "brand": "Agrisal", "building": "roof", "fuel:etanol_comum": "yes", "name": "Agrisal", "opening_hours": "06:00-22:00", "payment:cash": "yes", "payment:coins": "yes", "payment:credit_cards": "yes", "payment:debit_cards": "yes", "payment:notes": "yes", "self_service": "no"}}, {"type": "way", "id": 253243800, "nodes": [2591991223, 2591991224, 4453871617, 2591991226, 2591991223], "tags": {"addr:city": "S\u00e3o Bernardo do Campo", "addr:housename": "CFC-A S\u00e3o Bernardo", "addr:housenumber": "909", "addr:postcode": "09720-440", "addr:street": "Rua Frei Gaspar", "addr:suburb": "Centro", "amenity": "driving_school", "name": "CFC-A", "office": "educational_institution", "opening_hours": "Mo-Fr 07:00-21:30; Sa 07:00-13:30; Su,PH off", "phone": "+55 11 4338 0101", "ref": "IdCFC-730507", "source": "relatorioListaCFCCredenciados.csv", "website": "http://cfcsaobernardo.com/index.asp"}}, {"type": "way", "id": 291702558, "nodes": [2951743671, 2951743672, 11542180171, 2951743673, 2951743674, 2951743675, 2951743676, 2951743677, 2951743678, 2951743671], "tags": {"addr:city": "S\u00e3o Bernardo do Campo", "addr:housenumber": "506", "addr:street": "Rua Joaquim Nabuco", "addr:suburb": "Vila Santa Rita de C\u00e1ssia", "amenity": "fuel", "brand": "Shell", "brand:wikidata": "Q110716465", "brand:wikipedia": "en:Royal Dutch Shell", "building": "yes", "fuel:diesel": "yes", "fuel:ethanol": "yes", "fuel:gasoline_87": "yes", "name": "Posto de Servi\u00e7os Automobil\u00edstico Ja\u00fa", "opening_hours": "24/7", "payment:cash": "yes", "payment:coins": "yes", "payment:credit_cards": "yes", "payment:debit_cards": "yes", "payment:notes": "yes", "self_service": "no"}}, {"type": "way", "id": 293742998, "nodes": [2973315524, 2973315525, 2973315526, 2973315527, 2973315524], "tags": {"addr:city": "S\u00e3o Bernardo do Campo", "addr:housenumber": "2080", "addr:street": "Rua Jurubatuba", "addr:suburb": "Vila Cassetari", "amenity": "nightclub", "building": "yes", "contact:mobile": "+55 11 94944 3795;+55 11  96184 8105", "name": "Ly Liberty Club", "opening_hours": "Mo-Su, PH 18:00-04:00", "payment:american_express": "yes", "payment:diners_club": "yes", "payment:mastercard": "yes", "payment:visa": "yes", "website": "https://lyclub.com.br/"}}, {"type": "way", "id": 301184230, "nodes": [3052908285, 3052908286, 3052908287, 11016985086, 3683239827, 3052908288, 3052908289, 3052908290, 3052908291, 3052908292, 3052908285], "tags": {"addr:city": "S\u00e3o Bernardo do Campo", "addr:housenumber": "910", "addr:street": "Rua Frei Gaspar", "addr:suburb": "Vila Santa Rita de C\u00e1ssia", "amenity": "fuel", "brand": "Ipiranga", "brand:wikidata": "Q2081136", "brand:wikipedia": "pt:Ipiranga (empresa)", "building": "roof", "fuel:octane_87": "yes", "layer": "-1", "name": "Ipiranga", "operator": "Everest", "self_service": "no"}}, {"type": "way", "id": 301184498, "nodes": [3052917272, 3052917273, 11148880890, 11148880889, 11148880888, 11148880887, 3052917276, 3052920525, 11148880894, 11148880893, 11148880892, 11148880891, 3052917272], "tags": {"addr:city": "S\u00e3o Bernardo do Campo", "addr:street": "Rua Dario Lu\u00eds Setti", "amenity": "place_of_worship", "building": "church", "name": "Seicho-No-Ie do Brasil", "religion": "christian", "website": "http://www.sni.org.br/"}}, {"type": "way", "id": 301186623, "nodes": [3052953827, 4486186222, 3052953829, 3052953830, 3052953827], "tags": {"addr:city": "S\u00e3o Bernardo do Campo", "addr:country": "BR", "addr:housenumber": "1830", "addr:street": "Avenida Brigadeiro Faria Lima", "addr:suburb": "Vila Gon\u00e7alves J\u00fanior", "amenity": "clinic", "building": "yes", "contact:facebook": "https://www.facebook.com/OncologiaDOr", "healthcare": "clinic", "healthcare:speciality": "oncology;Hematology;Immunotherapy", "name": "Central Clinic", "opening_hours": "Mo-Th 08:00-18:00; Fr 08:00-17:00; PH off", "operator": "Grupo Oncologia D'Or", "phone": "+55 11 4335 5466", "website": "https://www.oncologiador.com.br/centralclinic/"}}, {"type": "way", "id": 303214260, "nodes": [3075537284, 3075537285, 3075537286, 3075537287, 7068418385, 11148819252, 11148819249, 3075537282, 3075537283, 3075537284], "tags": {"addr:city": "S\u00e3o Bernardo do Campo", "addr:street": "Rua Frei Gaspar", "addr:suburb": "Vila Santa Rita de C\u00e1ssia", "amenity": "fuel", "building": "yes", "fuel:etanol_comum": "yes", "fuel:octane_87": "yes", "name": "A45", "payment:coins": "yes", "payment:debit_cards": "yes", "payment:notes": "yes", "payment:pix": "yes", "payment:qrcodepay": "yes", "self_service": "no"}}, {"type": "way", "id": 470340435, "nodes": [4645436608, 4645436609, 4645436610, 4645436611, 4645436608], "tags": {"addr:city": "S\u00e3o Bernardo do Campo", "addr:country": "BR", "addr:housenumber": "1850", "addr:street": "Rua Jurubatuba", "amenity": "place_of_worship", "building": "yes", "denomination": "pentecostal", "name": "O Brasil Para Cristo", "religion": "christian"}}, {"type": "way", "id": 481125585, "nodes": [4740709071, 4740709072, 4740709073, 4740709074, 11055515506, 11055515505, 4740709071], "tags": {"addr:city": "S\u00e3o Bernardo do Campo", "addr:street": "Rua Jurubatuba", "addr:suburb": "Vila Cassetari", "amenity": "restaurant", "building": "yes", "cuisine": "regional", "name": "Restaurante e Lanchonete Rondhella", "outdoor_seating": "no", "phone": "+55 11 4339 1935", "phone_1": "+55 11 947 571 979", "smoking": "outside"}}, {"type": "way", "id": 481125586, "nodes": [4740709075, 4740709076, 4740709077, 4740709078, 4740709075], "tags": {"addr:city": "S\u00e3o Bernardo do Campo", "addr:country": "BR", "addr:housenumber": "165", "addr:postcode": "09720-375", "addr:street": "Rua Joaquim Nabuco", "addr:suburb": "Vila Cassetari", "amenity": "fuel", "brand": "BR", "brand:wikidata": "Q4836468", "brand:wikipedia": "pt:Vibra Energia", "building": "roof", "fuel:ethanol": "yes", "fuel:gasolina_C_comum": "yes", "name": "Coop Joaquim Nabuco", "opening_hours": "08:00-22:00", "operator": "Coop", "payment:cash": "yes", "payment:coins": "yes", "payment:credit_cards": "yes", "payment:debit_cards": "yes", "payment:notes": "yes", "phone": "+55 11 4339 3211"}}, {"type": "way", "id": 497789611, "nodes": [4893040827, 4893040828, 4893040829, 4893040830, 4893040827], "tags": {"addr:city": "S\u00e3o Bernardo do Campo", "addr:housenumber": "494", "addr:street": "Rua Secondo Modolin", "addr:suburb": "Vila Santa Rita de C\u00e1ssia", "amenity": "fast_food", "building": "yes"}}, {"type": "way", "id": 497790855, "nodes": [4893058508, 4893058509, 4893058513, 11055515856, 4893058514, 4893058508], "tags": {"addr:city": "S\u00e3o Bernardo do Campo", "addr:housenumber": "93", "addr:street": "Rua Ant\u00f4nio Lu\u00eds Val\u00e9rio", "addr:suburb": "Vila Santa Rita de C\u00e1ssia", "amenity": "place_of_worship", "building": "yes", "denomination": "neo-pentecostal", "name": "Bola de Neve Church", "religion": "christian", "service_times": "Sa16:00", "website": "http://www.boladeneve.com/igrejas/s%C3%A3o-bernardo-do-campo"}}, {"type": "way", "id": 672971845, "nodes": [6302109254, 8589484364, 6302109255, 6302109256, 6302109257, 6302109258, 6302109254], "tags": {"addr:street": "Rua Secondo Modolin", "amenity": "childcare", "building": "yes", "email": "frutodaterra@frutodaterra.com.br", "name": "Centro Educacional Fruto da Terra", "ref": "35499122"}}, {"type": "way", "id": 934991449, "nodes": [8664460179, 8664460180, 8664460181, 8664460182, 8664460179], "tags": {"access": "customers", "amenity": "parking", "operator": "Coop", "parking": "surface", "surface": "asphalt"}}, {"type": "way", "id": 934991450, "nodes": [8664460183, 8664460184, 8664460185, 8664460186, 8664460187, 8664460183], "tags": {"access": "customers", "amenity": "parking", "operator": "Coop", "parking": "surface", "surface": "asphalt"}}, {"type": "way", "id": 940170417, "nodes": [8707576502, 8707576503, 8707576504, 8707576505, 8707576506, 8707576507, 8707576508, 8707576509, 8707576510, 8707576502], "tags": {"amenity": "parking"}}, {"type": "way", "id": 941970772, "nodes": [4908301066, 8722997177, 8722997178, 8722997179, 4908301066], "tags": {"addr:city": "S\u00e3o Bernardo do Campo", "addr:street": "Rua \u00cdtalo Setti", "addr:suburb": "Centro", "amenity": "place_of_worship", "building": "yes", "denomination": "neo-pentecostal", "name": "Gl\u00f3ria Eterna", "religion": "christian", "service_times": "Su 18:00; Th 20:00"}}, {"type": "way", "id": 941970773, "nodes": [4908301065, 8722997180, 8722997181, 8722997182, 8722997183, 8722997184, 4908301065], "tags": {"addr:city": "S\u00e3o Bernardo do Campo", "addr:country": "BR", "addr:housenumber": "130", "addr:street": "Rua \u00cdtalo Setti", "addr:suburb": "Centro", "amenity": "restaurant", "building": "yes", "cuisine": "regional", "name": "Franko's Restaurante"}}, {"type": "way", "id": 1190686085, "nodes": [11055552656, 11055552653, 11055552654, 11060135821, 11055552655, 11055552649, 11055552650, 11055552651, 11055552652, 11055552656], "tags": {"amenity": "parking", "building": "parking", "parking": "multi-storey"}}, {"type": "way", "id": 1246470454, "nodes": [11589069453, 11589069454, 11589069455, 11589069456, 11589069457, 11589069458, 11589069459, 11589069460, 11589069461, 11589069453], "tags": {"access": "yes", "amenity": "parking", "fee": "yes", "opening_hours": "24/7", "parking": "surface", "payment:cash": "yes", "payment:credit_cards": "yes", "payment:debit_cards": "yes", "payment:sem_parar": "yes", "surface": "gravel"}}]}