{"version": 0.6, "generator": "Overpass API 0.7.61.5 4133829e", "osm3s": {"timestamp_osm_base": "2024-02-26T22:10:13Z", "copyright": "The data included in this document is from www.openstreetmap.org. The data is made available under ODbL."}, "elements": [{"type": "node", "id": 3402587413, "lat": -23.5413073, "lon": -46.5051327}, {"type": "node", "id": 3402587414, "lat": -23.5408028, "lon": -46.5044461}, {"type": "node", "id": 3402587415, "lat": -23.5411521, "lon": -46.5041106}, {"type": "node", "id": 3402587416, "lat": -23.5416649, "lon": -46.5047988}, {"type": "node", "id": 4404582069, "lat": -23.5416128, "lon": -46.5020714}, {"type": "node", "id": 4404582070, "lat": -23.5419594, "lon": -46.5017646}, {"type": "node", "id": 4404582071, "lat": -23.5414875, "lon": -46.5010585}, {"type": "node", "id": 4404582072, "lat": -23.5410803, "lon": -46.501491}, {"type": "node", "id": 4404607493, "lat": -23.5437112, "lon": -46.5029082}, {"type": "node", "id": 4404607494, "lat": -23.541687, "lon": -46.5009333}, {"type": "node", "id": 4404607495, "lat": -23.5418897, "lon": -46.5007085}, {"type": "node", "id": 4404607496, "lat": -23.5438924, "lon": -46.5023648}, {"type": "node", "id": 4404607497, "lat": -23.5429104, "lon": -46.502591}, {"type": "node", "id": 6727829060, "lat": -23.5415015, "lon": -46.5010811}, {"type": "node", "id": 6727829074, "lat": -23.5413589, "lon": -46.501194}, {"type": "node", "id": 6727829740, "lat": -23.5414638, "lon": -46.5050067}, {"type": "node", "id": 6727829741, "lat": -23.5415561, "lon": -46.5049236}, {"type": "node", "id": 6727829835, "lat": -23.5399875, "lon": -46.5051755}, {"type": "node", "id": 6727830704, "lat": -23.5401111, "lon": -46.5049473}, {"type": "node", "id": 6727830717, "lat": -23.5399208, "lon": -46.5050961}, {"type": "node", "id": 6727832942, "lat": -23.5400562, "lon": -46.5053291}, {"type": "node", "id": 6727833481, "lat": -23.5418244, "lon": -46.5018851}, {"type": "node", "id": 6727836704, "lat": -23.5405747, "lon": -46.5059537}, {"type": "node", "id": 6943382189, "lat": -23.5436153, "lon": -46.5022341}, {"type": "node", "id": 6943419972, "lat": -23.5407345, "lon": -46.5056863}, {"type": "node", "id": 6943419973, "lat": -23.5401751, "lon": -46.5048952}, {"type": "node", "id": 6943419976, "lat": -23.540019, "lon": -46.5052147}, {"type": "node", "id": 10943423932, "lat": -23.5399822, "lon": -46.5052464}, {"type": "node", "id": 10943423934, "lat": -23.5405359, "lon": -46.5054054, "tags": {"addr:city": "S\u00e3o Paulo", "addr:housenumber": "540", "addr:postcode": "03557-010", "addr:street": "Rua Coroat\u00e1", "entrance": "yes"}}, {"type": "node", "id": 10943433487, "lat": -23.5415196, "lon": -46.5045818, "tags": {"addr:city": "S\u00e3o Paulo", "addr:housenumber": "244", "addr:postcode": "03557-040", "addr:street": "Rua Leonor Domingues", "entrance": "yes"}}, {"type": "node", "id": 10943433488, "lat": -23.541553, "lon": -46.504627}, {"type": "node", "id": 10943433489, "lat": -23.5414904, "lon": -46.5045424}, {"type": "node", "id": 10943433490, "lat": -23.5408234, "lon": -46.5044075}, {"type": "node", "id": 10943433491, "lat": -23.5408063, "lon": -46.5044769}, {"type": "node", "id": 10943433492, "lat": -23.541123, "lon": -46.50412}, {"type": "node", "id": 10943433493, "lat": -23.5411798, "lon": -46.5041229}, {"type": "node", "id": 10943433494, "lat": -23.5412806, "lon": -46.5051122}, {"type": "node", "id": 10943433495, "lat": -23.5413338, "lon": -46.505124}, {"type": "node", "id": 10943433496, "lat": -23.5416391, "lon": -46.5048487}, {"type": "node", "id": 10943433497, "lat": -23.5416558, "lon": -46.5047658}, {"type": "node", "id": 11477160205, "lat": -23.5415452, "lon": -46.5021333}, {"type": "node", "id": 11477160206, "lat": -23.5413997, "lon": -46.5019323, "tags": {"addr:city": "S\u00e3o Paulo", "addr:housenumber": "189", "addr:street": "Rua Palmeirina", "entrance": "yes"}}, {"type": "way", "id": 333145714, "nodes": [10943433488, 10943433497, 3402587416, 10943433496, 6727829741, 6727829740, 10943433495, 3402587413, 10943433494, 10943433491, 3402587414]}, {"type": "way", "id": 442801005, "nodes": [4404582069, 11477160205, 11477160206, 4404582072, 6727829074, 4404582071, 6727829060, 4404582070, 6727833481, 4404582069], "tags": {"addr:city": "S\u00e3o Paulo", "addr:housenumber": "189", "addr:postcode": "03556-010", "addr:street": "Rua Palmeirina", "addr:suburb": "Cidade Patriarca", "alt_name": "Escola Estadual Professor Jamil Pedro Sawaya", "amenity": "school", "barrier": "wall", "email": "e002434a@educacao.sp.gov.br", "name": "E.E Professor Jamil Pedro Sawaya", "phone": "+55 11 2749-0957;+55 11 2749-4365", "ref": "35002434"}}, {"type": "way", "id": 442804134, "nodes": [4404607493, 4404607497, 4404607494, 4404607495, 6943382189, 4404607496, 4404607493], "tags": {"addr:housenumber": "128", "addr:street": "Rua Alves Maldonado", "addr:suburb": "Vila Nhocun\u00e9", "alt_name": "Hospital Nhocun\u00e9", "amenity": "hospital", "name": "Hospital Municipal Doutor Alexandre Zaio", "phone": "+55 11 3394-9210"}}, {"type": "way", "id": 741713345, "nodes": [6727836704, 6727832942, 10943423932, 6943419976, 6727829835, 6727830717, 6727830704, 6943419973, 10943423934, 6943419972, 6727836704], "tags": {"addr:city": "S\u00e3o Paulo", "addr:housenumber": "540", "addr:postcode": "03557-010", "addr:street": "Rua Coroat\u00e1", "addr:suburb": "Jardim Herc\u00edlia", "alt_name": "Escola Estadual Poeta Menotti Del Picchia", "amenity": "school", "barrier": "wall", "email": "e908997a@educacao.sp.gov.br", "name": "E.E Poeta Menotti Del Picchia", "phone": "+55 11 2685-4819;+55 11 2958-2952", "ref": "35908997"}}, {"type": "way", "id": 1178005974, "nodes": [3402587414, 10943433490, 10943433492, 3402587415, 10943433493, 10943433489]}, {"type": "way", "id": 1178005975, "nodes": [10943433489, 10943433487, 10943433488], "tags": {"barrier": "gate"}}, {"type": "relation", "id": 15926343, "members": [{"type": "way", "ref": 333145714, "role": "outer"}, {"type": "way", "ref": 1178005974, "role": "outer"}, {"type": "way", "ref": 1178005975, "role": "outer"}], "tags": {"addr:city": "S\u00e3o Paulo", "addr:housenumber": "244", "addr:postcode": "03557-040", "addr:street": "Rua Leonor Domingues", "addr:suburb": "Jardim Hercilia", "amenity": "school", "barrier": "wall", "leisure": "sports_centre", "name": "EMEI Engenheiro Luiz Gomes Cardim Sangirardi", "type": "multipolygon"}}]}