{"version": 0.6, "generator": "Overpass API 0.7.61.5 4133829e", "osm3s": {"timestamp_osm_base": "2024-02-26T22:07:13Z", "copyright": "The data included in this document is from www.openstreetmap.org. The data is made available under ODbL."}, "elements": [{"type": "node", "id": 6379856764, "lat": -23.3940126, "lon": -46.3149506}, {"type": "node", "id": 6379856765, "lat": -23.394015, "lon": -46.3148782}, {"type": "node", "id": 6379856766, "lat": -23.3940433, "lon": -46.3148527}, {"type": "node", "id": 6379856767, "lat": -23.394084, "lon": -46.3148366}, {"type": "node", "id": 6379856768, "lat": -23.394127, "lon": -46.3148487}, {"type": "node", "id": 6379856769, "lat": -23.3941627, "lon": -46.3148809}, {"type": "node", "id": 6379856770, "lat": -23.3941701, "lon": -46.3149037}, {"type": "node", "id": 6379856771, "lat": -23.3941344, "lon": -46.3149466}, {"type": "node", "id": 6379856772, "lat": -23.3940901, "lon": -46.3149734}, {"type": "node", "id": 6379856773, "lat": -23.394036, "lon": -46.3149761}, {"type": "node", "id": 6383103121, "lat": -23.3956543, "lon": -46.3168347}, {"type": "node", "id": 6406754126, "lat": -23.3952144, "lon": -46.3172573}, {"type": "node", "id": 6406754127, "lat": -23.3951463, "lon": -46.3172002}, {"type": "node", "id": 6406754128, "lat": -23.394988, "lon": -46.3168161}, {"type": "node", "id": 6451214693, "lat": -23.3916718, "lon": -46.3146683}, {"type": "node", "id": 6451214694, "lat": -23.3919352, "lon": -46.3150626}, {"type": "node", "id": 6451214695, "lat": -23.392014, "lon": -46.3150331}, {"type": "node", "id": 6451214696, "lat": -23.3922761, "lon": -46.3144484}, {"type": "node", "id": 6451214697, "lat": -23.3918195, "lon": -46.3142928}, {"type": "node", "id": 6451214698, "lat": -23.3917924, "lon": -46.3146362}, {"type": "node", "id": 6451214699, "lat": -23.3916349, "lon": -46.3146093}, {"type": "node", "id": 6718701944, "lat": -23.3952772, "lon": -46.316828}, {"type": "node", "id": 6718701974, "lat": -23.3953252, "lon": -46.3172204}, {"type": "node", "id": 6718701976, "lat": -23.3956539, "lon": -46.3168088}, {"type": "node", "id": 6718727309, "lat": -23.3940913, "lon": -46.3149546}, {"type": "node", "id": 6887363975, "lat": -23.3929687, "lon": -46.3136762}, {"type": "node", "id": 6887363976, "lat": -23.3930398, "lon": -46.3137192}, {"type": "node", "id": 6887363977, "lat": -23.3929366, "lon": -46.3138833}, {"type": "node", "id": 6887363978, "lat": -23.3928844, "lon": -46.3138496}, {"type": "node", "id": 7560324020, "lat": -23.3950255, "lon": -46.3173881, "tags": {"amenity": "bench"}}, {"type": "node", "id": 7560324021, "lat": -23.3949602, "lon": -46.3172272, "tags": {"amenity": "bench"}}, {"type": "node", "id": 7560324022, "lat": -23.3948974, "lon": -46.3170756, "tags": {"amenity": "bench"}}, {"type": "node", "id": 7560324023, "lat": -23.3950255, "lon": -46.3175383, "tags": {"amenity": "bench"}}, {"type": "node", "id": 7560324024, "lat": -23.3949713, "lon": -46.317427, "tags": {"amenity": "bench"}}, {"type": "node", "id": 7560324025, "lat": -23.3949319, "lon": -46.3173318, "tags": {"amenity": "bench"}}, {"type": "node", "id": 7560324026, "lat": -23.3948704, "lon": -46.3172111, "tags": {"amenity": "bench"}}, {"type": "node", "id": 7560324050, "lat": -23.3948797, "lon": -46.3167226, "tags": {"amenity": "bench"}}, {"type": "node", "id": 7560324051, "lat": -23.3948988, "lon": -46.316105, "tags": {"amenity": "bench"}}, {"type": "node", "id": 7560324053, "lat": -23.3947496, "lon": -46.3157393, "tags": {"amenity": "bench"}}, {"type": "node", "id": 7560324054, "lat": -23.3947864, "lon": -46.3167468, "tags": {"amenity": "bench"}}, {"type": "node", "id": 7560324055, "lat": -23.3947864, "lon": -46.3162785, "tags": {"amenity": "bench"}}, {"type": "node", "id": 7560324056, "lat": -23.3947387, "lon": -46.3158012, "tags": {"amenity": "bench"}}, {"type": "node", "id": 8883653004, "lat": -23.3895932, "lon": -46.3175992}, {"type": "node", "id": 8883653005, "lat": -23.3896571, "lon": -46.3175483}, {"type": "node", "id": 8883653006, "lat": -23.3895513, "lon": -46.3173659}, {"type": "node", "id": 8883653007, "lat": -23.3894898, "lon": -46.3174115}, {"type": "node", "id": 8883950045, "lat": -23.3899354, "lon": -46.3150061}, {"type": "node", "id": 8883950046, "lat": -23.3897902, "lon": -46.3149283}, {"type": "node", "id": 8883950047, "lat": -23.3898123, "lon": -46.3148424}, {"type": "node", "id": 8883950048, "lat": -23.3895711, "lon": -46.3147325}, {"type": "node", "id": 8883950049, "lat": -23.3897582, "lon": -46.3143033}, {"type": "node", "id": 8883950050, "lat": -23.3896006, "lon": -46.3142094}, {"type": "node", "id": 8883950051, "lat": -23.389192, "lon": -46.315049}, {"type": "node", "id": 8883950052, "lat": -23.389315, "lon": -46.3151777}, {"type": "node", "id": 8883950053, "lat": -23.3896572, "lon": -46.3153092}, {"type": "node", "id": 8883950054, "lat": -23.3898197, "lon": -46.3153494}, {"type": "node", "id": 8920179763, "lat": -23.3949933, "lon": -46.3168175}, {"type": "node", "id": 8920179764, "lat": -23.3949971, "lon": -46.3158309}, {"type": "node", "id": 8920179765, "lat": -23.3949499, "lon": -46.3157281}, {"type": "node", "id": 8920179766, "lat": -23.3956362, "lon": -46.3157669}, {"type": "node", "id": 8920300544, "lat": -23.3930069, "lon": -46.3137476}, {"type": "node", "id": 8920300545, "lat": -23.3929622, "lon": -46.3137204}, {"type": "node", "id": 8920300546, "lat": -23.3929516, "lon": -46.3137132}, {"type": "node", "id": 8920300547, "lat": -23.392607, "lon": -46.3140878}, {"type": "node", "id": 8920300548, "lat": -23.3927343, "lon": -46.3141507}, {"type": "node", "id": 8920300549, "lat": -23.3927954, "lon": -46.314036}, {"type": "node", "id": 8920300550, "lat": -23.3926783, "lon": -46.3139639}, {"type": "node", "id": 8920318094, "lat": -23.3920501, "lon": -46.3150682}, {"type": "node", "id": 8920318095, "lat": -23.3922453, "lon": -46.3147038}, {"type": "node", "id": 8920318096, "lat": -23.3923421, "lon": -46.3146261}, {"type": "node", "id": 8920318097, "lat": -23.3924372, "lon": -46.3145373}, {"type": "node", "id": 8920318098, "lat": -23.3925442, "lon": -46.3145336}, {"type": "node", "id": 8920318099, "lat": -23.3928192, "lon": -46.3147149}, {"type": "node", "id": 8920318100, "lat": -23.3927021, "lon": -46.314972}, {"type": "node", "id": 8920318101, "lat": -23.3925594, "lon": -46.3149369}, {"type": "node", "id": 8920318102, "lat": -23.3924983, "lon": -46.3150997}, {"type": "node", "id": 8920318103, "lat": -23.3922929, "lon": -46.3152107}, {"type": "node", "id": 8920318104, "lat": -23.3921265, "lon": -46.3151894}, {"type": "node", "id": 11262672834, "lat": -23.3911564, "lon": -46.3170105}, {"type": "node", "id": 11262672835, "lat": -23.3912629, "lon": -46.3168992}, {"type": "node", "id": 11262672836, "lat": -23.3913585, "lon": -46.3170318}, {"type": "node", "id": 11262680537, "lat": -23.3913346, "lon": -46.3170578}, {"type": "node", "id": 11262680538, "lat": -23.391591, "lon": -46.3173467}, {"type": "node", "id": 11262680539, "lat": -23.3915084, "lon": -46.3174343}, {"type": "way", "id": 681284491, "nodes": [6379856764, 6379856765, 6379856766, 6379856767, 6379856768, 6379856769, 6379856770, 6379856771, 6718727309, 6379856772, 6379856773, 6379856764], "tags": {"addr:city": "aruja", "addr:postcode": "07402085", "addr:street": "Avenida Amazonas", "fitness_station": "fitness_station", "leisure": "fitness_station", "name": "Espa\u00e7o Fernanda Muraca dos Reis", "sport": "fitness"}}, {"type": "way", "id": 683928662, "nodes": [6718701944, 6718701974, 6406754126, 6406754127, 6406754128, 6718701944], "tags": {"addr:housenumber": "290", "addr:postcode": "07400-000", "addr:street": "Avenida Amazonas", "addr:suburb": "Barbosas", "amenity": "kindergarten", "email": "emeia1.planalto@aruja.sp.gov.br", "name": "Escola Municipal de Educa\u00e7\u00e3i Infantil Aruj\u00e1 Unidade I", "phone": "+55 11 4652 1007", "preschool": "yes", "ref": "INEP-35050210", "short_name": "EMEI  Aruj\u00e1 Unidade I"}}, {"type": "way", "id": 688086206, "nodes": [6451214693, 6451214694, 6451214695, 6451214696, 6451214697, 6451214698, 6451214699, 6451214693], "tags": {"addr:housenumber": "150", "addr:postcode": "07402-015", "addr:street": "Rua Maria de Lourdes M\u00e1ximo", "addr:suburb": "Jardim Renata", "amenity": "school", "email": "e921051a@educacao.sp.gov.br", "name": "Escola Estadual Professora Maria Isabel Neves Bastos", "operator": "Secretaria da Educa\u00e7\u00e3o do Estado de S\u00e3o Paulo", "operator:type": "government", "phone": "+55 11 4655 2799", "ref": "INEP-35921051"}}, {"type": "way", "id": 735354405, "nodes": [6887363975, 6887363976, 8920300544, 6887363977, 6887363978, 8920300545, 8920300546, 6887363975], "tags": {"addr:street": "Avenida Amazonas", "amenity": "place_of_worship", "building": "yes", "denomination": "pentecostal", "name": "Assembl\u00e9ia de Deus", "religion": "christian"}}, {"type": "way", "id": 960165941, "nodes": [8883653004, 8883653005, 8883653006, 8883653007, 8883653004], "tags": {"addr:housenumber": "2123", "addr:street": "Rua Iraci Pinto Ferreira Br\u00e1z", "amenity": "place_of_worship", "building": "yes", "denomination": "presbyterian", "name": "Primeira Igreja Presbiteriana de Aruj\u00e1", "religion": "christian"}}, {"type": "way", "id": 960200356, "nodes": [8883950045, 8883950046, 8883950047, 8883950048, 8883950049, 8883950050, 8883950051, 8883950052, 8883950053, 8883950054, 8883950045], "tags": {"addr:postcode": "07401-795", "addr:street": "Pra\u00e7a Narciso Jos\u00e9 Lopes", "addr:suburb": "Jardim Renata", "contact:phone": "+55 11 4655 3635", "name": "Athenas Instituto de Educa\u00e7\u00e3o", "office": "educational_institution", "phone": "+55 11 4653 5059", "ref": "INEP-35268586", "source": "CADMEC 2017;INEP"}}, {"type": "way", "id": 964378609, "nodes": [8920179763, 8920179764, 8920179765, 8920179766, 6718701976, 6383103121, 8920179763], "tags": {"addr:street": "Rua Rio de Janeiro", "leisure": "stadium", "name": "Est\u00e1dio Municipal Armando Maiolino", "sport": "soccer"}}, {"type": "way", "id": 964389212, "nodes": [8920300547, 8920300548, 8920300549, 8920300550, 8920300547], "tags": {"addr:housenumber": "743", "addr:street": "Avenida Amazonas", "building": "yes", "government": "administrative", "name": "Fundo Social de Solidariedade", "office": "government"}}, {"type": "way", "id": 964390812, "nodes": [8920318094, 8920318095, 8920318096, 8920318097, 8920318098, 8920318099, 8920318100, 8920318101, 8920318102, 8920318103, 8920318104, 8920318094], "tags": {"addr:housenumber": "400", "addr:postcode": "07402-015", "addr:street": "Rua Diomar Fernandes Negretti", "addr:suburb": "Jardim Renata", "amenity": "hospital", "contact:email": "saude.depto@aruja.sp.gov.br", "contact:phone": "+55 11  4655 2931", "description": "Realiza partos de baixo risco", "email": "saude@aruja.sp.gov.br", "emergency": "yes", "healthcare": "hospital", "healthcare:speciality": "maternity", "name": "Maternidade Municipal Dalila Ferreira Barbosa", "operator": "Secretaria Municipal de Sa\u00fade", "operator:type": "government", "phone": "+55 11 4655 0838", "ref": "CNES-6451098", "website": "http://governoeletronico.aruja.sp.gov.br/saude/ubs/maternidademunicipal.php"}}, {"type": "way", "id": 1215576780, "nodes": [11262672834, 11262672835, 11262672836, 11262680537, 11262680538, 11262680539, 11262672834], "tags": {"addr:street": "Avenida dos Expedicion\u00e1rios", "amenity": "social_facility", "name": "Centro de Refer\u00eancia de Assist\u00eancia Social Centro"}}]}