{"version": 0.6, "generator": "Overpass API 0.7.61.5 4133829e", "osm3s": {"timestamp_osm_base": "2024-02-26T22:08:15Z", "copyright": "The data included in this document is from www.openstreetmap.org. The data is made available under ODbL."}, "elements": [{"type": "node", "id": 5981550539, "lat": -23.5430592, "lon": -47.4501325, "tags": {"addr:housenumber": "297", "addr:street": "Rua Monte Alegre", "amenity": "fast_food", "contact:facebook": "https://www.facebook.com/veganheartburger/", "contact:instagram": "https://www.instagram.com/veganheartburger/", "cuisine": "burger", "delivery": "Tu-Th 18:30-23:00", "diet:vegan": "only", "fixme": "Localiza\u00e7\u00e3o aproximada. Verificar se a building est\u00e1 correta.", "name": "Vegan Heart", "opening_hours": "Tu-Su 18:30-23:00"}}, {"type": "node", "id": 6311743857, "lat": -23.5446052, "lon": -47.4501493}, {"type": "node", "id": 6311743859, "lat": -23.5447339, "lon": -47.4501516}, {"type": "node", "id": 6311743860, "lat": -23.5447343, "lon": -47.4498868}, {"type": "node", "id": 6311743861, "lat": -23.5444282, "lon": -47.4498869}, {"type": "node", "id": 6311743862, "lat": -23.5444305, "lon": -47.4491633}, {"type": "node", "id": 6311743864, "lat": -23.5445686, "lon": -47.4491585}, {"type": "node", "id": 6311743865, "lat": -23.5447338, "lon": -47.4492698}, {"type": "node", "id": 8076412536, "lat": -23.544333, "lon": -47.4466505}, {"type": "node", "id": 8076412537, "lat": -23.5441195, "lon": -47.4460149}, {"type": "node", "id": 8076412538, "lat": -23.543859, "lon": -47.4460751}, {"type": "node", "id": 8076412539, "lat": -23.5439838, "lon": -47.4467261}, {"type": "node", "id": 8076412540, "lat": -23.5443683, "lon": -47.4472636}, {"type": "node", "id": 8076412541, "lat": -23.5442697, "lon": -47.4474697}, {"type": "node", "id": 8076412542, "lat": -23.5441234, "lon": -47.4473864}, {"type": "node", "id": 8076412543, "lat": -23.544222, "lon": -47.4471803}, {"type": "node", "id": 8076412544, "lat": -23.544868, "lon": -47.4481314, "tags": {"amenity": "fuel", "brand": "BR", "brand:wikidata": "Q4836468", "brand:wikipedia": "pt:Petrobras Distribuidora", "name": "BR"}}, {"type": "node", "id": 8076412549, "lat": -23.5447588, "lon": -47.4482401}, {"type": "node", "id": 8076412550, "lat": -23.5448639, "lon": -47.4482997}, {"type": "node", "id": 8076412551, "lat": -23.5448931, "lon": -47.4482384}, {"type": "node", "id": 8076412552, "lat": -23.544788, "lon": -47.4481788}, {"type": "node", "id": 8076412553, "lat": -23.5445738, "lon": -47.448464}, {"type": "node", "id": 8076412554, "lat": -23.5447421, "lon": -47.4485626}, {"type": "node", "id": 8076412555, "lat": -23.5448037, "lon": -47.4484377}, {"type": "node", "id": 8076412556, "lat": -23.5446354, "lon": -47.448339}, {"type": "node", "id": 8076412565, "lat": -23.5455117, "lon": -47.4484774}, {"type": "node", "id": 8076412569, "lat": -23.5455766, "lon": -47.4485125}, {"type": "node", "id": 8076412570, "lat": -23.5455135, "lon": -47.4486513}, {"type": "node", "id": 8076412571, "lat": -23.5454487, "lon": -47.4486162}, {"type": "node", "id": 8076412572, "lat": -23.5458021, "lon": -47.4480042}, {"type": "node", "id": 8076412573, "lat": -23.5456892, "lon": -47.4482469}, {"type": "node", "id": 8076412574, "lat": -23.5456161, "lon": -47.4482065}, {"type": "node", "id": 8076412575, "lat": -23.545729, "lon": -47.4479637}, {"type": "node", "id": 8076412577, "lat": -23.5424776, "lon": -47.4476111}, {"type": "node", "id": 8076412578, "lat": -23.5424807, "lon": -47.4478792}, {"type": "node", "id": 8076412579, "lat": -23.5423485, "lon": -47.4478811}, {"type": "node", "id": 8076412580, "lat": -23.5423454, "lon": -47.4476129}, {"type": "node", "id": 8076412581, "lat": -23.542584, "lon": -47.4475796}, {"type": "node", "id": 8076412582, "lat": -23.5425833, "lon": -47.4479149}, {"type": "node", "id": 8076412583, "lat": -23.5424915, "lon": -47.4479147}, {"type": "node", "id": 8076412584, "lat": -23.5424923, "lon": -47.4475794}, {"type": "node", "id": 8447007705, "lat": -23.5441451, "lon": -47.4461543}, {"type": "node", "id": 8447007706, "lat": -23.5442296, "lon": -47.4461346}, {"type": "node", "id": 8447007707, "lat": -23.5442972, "lon": -47.4464745}, {"type": "node", "id": 8447007708, "lat": -23.5444197, "lon": -47.4464445}, {"type": "node", "id": 8447007709, "lat": -23.5442708, "lon": -47.4463309}, {"type": "node", "id": 8447007710, "lat": -23.5443559, "lon": -47.4463076}, {"type": "node", "id": 8447007711, "lat": -23.5439508, "lon": -47.446554}, {"type": "node", "id": 8447007712, "lat": -23.5439422, "lon": -47.4465094}, {"type": "node", "id": 8447007713, "lat": -23.5438988, "lon": -47.4465213}, {"type": "node", "id": 8447007714, "lat": -23.5439081, "lon": -47.4465657}, {"type": "node", "id": 8447007736, "lat": -23.5445695, "lon": -47.4492726}, {"type": "node", "id": 8447007737, "lat": -23.5446058, "lon": -47.4500968}, {"type": "node", "id": 8447007738, "lat": -23.5445506, "lon": -47.4500966}, {"type": "node", "id": 8447007739, "lat": -23.5445501, "lon": -47.4501176}, {"type": "node", "id": 8447007740, "lat": -23.544425, "lon": -47.4501157}, {"type": "node", "id": 8447007759, "lat": -23.5466766, "lon": -47.4487848}, {"type": "node", "id": 8447007760, "lat": -23.5465586, "lon": -47.4487254}, {"type": "node", "id": 8447007761, "lat": -23.5466293, "lon": -47.4485583}, {"type": "node", "id": 8447007762, "lat": -23.5467473, "lon": -47.4486178}, {"type": "node", "id": 9902660161, "lat": -23.5433688, "lon": -47.4477758}, {"type": "node", "id": 9902660162, "lat": -23.5432589, "lon": -47.4477741}, {"type": "node", "id": 9902660163, "lat": -23.5432615, "lon": -47.4475699}, {"type": "node", "id": 9902660164, "lat": -23.5433714, "lon": -47.4475716}, {"type": "node", "id": 9902660165, "lat": -23.5435612, "lon": -47.4477142}, {"type": "node", "id": 9902660166, "lat": -23.5434755, "lon": -47.4477131}, {"type": "node", "id": 9902660167, "lat": -23.5434769, "lon": -47.4475782}, {"type": "node", "id": 9902660168, "lat": -23.5435626, "lon": -47.4475792}, {"type": "node", "id": 9902660169, "lat": -23.542659, "lon": -47.4475733, "tags": {"amenity": "pharmacy", "dispensing": "yes", "healthcare": "pharmacy", "name": "Farmamed"}}, {"type": "way", "id": 673981988, "nodes": [6311743857, 6311743859, 6311743860, 6311743861, 8447007740, 8447007739, 8447007738, 8447007737, 6311743857], "tags": {"addr:city": "Votorantim", "addr:housenumber": "181", "addr:street": "Rua Jo\u00e3o Walter", "amenity": "hospital", "healthcare": "hospital", "name": "Pronto Socorro"}}, {"type": "way", "id": 673981991, "nodes": [6311743861, 6311743862, 6311743864, 8447007736, 6311743865, 6311743860, 6311743861], "tags": {"addr:city": "Votorantim", "addr:housenumber": "181", "addr:postcode": "18110-020", "addr:street": "Rua Jo\u00e3o Walter", "amenity": "hospital", "healthcare": "hospital", "name": "Hospital Municipal Doutor Lauro Roberto Foga\u00e7a", "operator:ref:vatin": "BR46634051000176", "ref:CNES": "2087618"}}, {"type": "way", "id": 866504263, "nodes": [8076412536, 8447007707, 8447007708, 8447007710, 8447007709, 8447007706, 8447007705, 8076412537, 8076412538, 8447007712, 8447007713, 8447007714, 8447007711, 8076412539, 8076412536], "tags": {"amenity": "bus_station", "building": "roof", "bus": "yes", "name": "Terminal Urbano Jo\u00e3o Souto", "public_transport": "station"}}, {"type": "way", "id": 866504264, "nodes": [8076412540, 8076412541, 8076412542, 8076412543, 8076412540], "tags": {"addr:city": "Votorantim", "addr:housenumber": "675", "addr:street": "Avenida 31 de Mar\u00e7o", "amenity": "bank", "atm": "yes", "brand": "Caixa Econ\u00f4mica Federal", "brand:wikidata": "Q835283", "brand:wikipedia": "pt:Caixa Econ\u00f4mica Federal", "building": "yes", "drive_through": "no", "name": "Caixa Econ\u00f4mica Federal"}}, {"type": "way", "id": 866504266, "nodes": [8076412549, 8076412550, 8076412551, 8076412552, 8076412549], "tags": {"addr:city": "Votorantim", "addr:housenumber": "724", "addr:street": "Avenida 31 de Mar\u00e7o", "amenity": "pharmacy", "brand": "Drogasil", "brand:wikidata": "Q5308185", "brand:wikipedia": "pt:Drogasil", "building": "yes", "dispensing": "yes", "healthcare": "pharmacy", "name": "Drogasil", "wheelchair": "yes"}}, {"type": "way", "id": 866504267, "nodes": [8076412553, 8076412554, 8076412555, 8076412556, 8076412553], "tags": {"addr:city": "Votorantim", "addr:housenumber": "51", "addr:street": "Rua Jo\u00e3o Walter", "amenity": "post_office", "brand": "Empresa Brasileira de Correios e Tel\u00e9grafos", "brand:short": "Correios", "brand:wikidata": "Q3375004", "brand:wikipedia": "en:Correios", "building": "yes", "name": "Correios"}}, {"type": "way", "id": 866504271, "nodes": [8076412569, 8076412570, 8076412571, 8076412565, 8076412569], "tags": {"addr:city": "Votorantim", "addr:housenumber": "810", "addr:street": "Avenida 31 de Mar\u00e7o", "amenity": "bank", "brand": "Ita\u00fa Unibanco", "brand:wikidata": "Q1424293", "brand:wikipedia": "pt:Ita\u00fa Unibanco", "building": "yes", "name": "Ita\u00fa"}}, {"type": "way", "id": 866504272, "nodes": [8076412572, 8076412573, 8076412574, 8076412575, 8076412572], "tags": {"addr:city": "Votorantim", "addr:housenumber": "805", "addr:street": "Avenida 31 de Mar\u00e7o", "amenity": "bank", "brand": "Bradesco", "brand:wikidata": "Q806181", "brand:wikipedia": "en:Banco Bradesco", "building": "yes", "name": "Bradesco"}}, {"type": "way", "id": 866504273, "nodes": [8076412577, 8076412578, 8076412579, 8076412580, 8076412577], "tags": {"addr:city": "Votorantim", "addr:housenumber": "442", "addr:street": "Avenida 31 de Mar\u00e7o", "amenity": "bank", "brand": "Ita\u00fa Unibanco", "brand:wikidata": "Q1424293", "brand:wikipedia": "pt:Ita\u00fa Unibanco", "building": "yes", "name": "Ita\u00fa"}}, {"type": "way", "id": 866504274, "nodes": [8076412581, 8076412582, 8076412583, 8076412584, 8076412581], "tags": {"addr:city": "Votorantim", "addr:housenumber": "454", "addr:street": "Avenida 31 de Mar\u00e7o", "amenity": "bank", "brand": "Banco Santander", "brand:wikidata": "Q6496310", "brand:wikipedia": "en:Santander Bank", "building": "yes", "name": "Banco Santander", "official_name": "Santander Group"}}, {"type": "way", "id": 909756457, "nodes": [8447007759, 8447007760, 8447007761, 8447007762, 8447007759], "tags": {"addr:city": "Votorantim", "addr:housenumber": "913", "addr:postcode": "18110-005", "addr:street": "Avenida 31 de Mar\u00e7o", "addr:suburb": "Centro", "amenity": "fuel", "building": "roof", "name": "Auto Posto Santa Isabel", "opening_hours": "24/7", "phone": "+55 15 3247-1580"}}, {"type": "way", "id": 1080375366, "nodes": [9902660161, 9902660162, 9902660163, 9902660164, 9902660161], "tags": {"amenity": "pharmacy", "building": "yes", "dispensing": "yes", "healthcare": "pharmacy", "name": "Farma Ponte"}}, {"type": "way", "id": 1080375367, "nodes": [9902660165, 9902660166, 9902660167, 9902660168, 9902660165], "tags": {"amenity": "pharmacy", "brand": "Farma Conde", "brand:wikidata": "Q100492677", "building": "yes", "dispensing": "yes", "healthcare": "pharmacy", "name": "Farma Conde"}}]}