{"version": 0.6, "generator": "Overpass API 0.7.61.5 4133829e", "osm3s": {"timestamp_osm_base": "2024-02-26T22:08:15Z", "copyright": "The data included in this document is from www.openstreetmap.org. The data is made available under ODbL."}, "elements": [{"type": "node", "id": 3025167614, "lat": -23.4667289, "lon": -46.5294272}, {"type": "node", "id": 3025167615, "lat": -23.4670449, "lon": -46.5290964}, {"type": "node", "id": 4341921391, "lat": -23.4675757, "lon": -46.5313078, "tags": {"addr:street": "Rua Nove de Julho", "amenity": "restaurant", "name": "Mc Donalds"}}, {"type": "node", "id": 4341923491, "lat": -23.4652671, "lon": -46.5307893, "tags": {"addr:street": "Pra\u00e7a Get\u00falio Vargas", "amenity": "post_office", "name": "Correios", "operator": "Correios", "operator:wikidata": "Q3375004"}}, {"type": "node", "id": 4341923590, "lat": -23.4652861, "lon": -46.532109, "tags": {"addr:street": "Avenida Tiradentes", "amenity": "courthouse", "name": "F\u00f3rum Trabalhista de Guarulhos"}}, {"type": "node", "id": 4341923591, "lat": -23.4667044, "lon": -46.5302098, "tags": {"addr:street": "Rua Felicio Marcondes", "amenity": "bank", "brand": "Banco do Brasil", "brand:wikidata": "Q610817", "name": "Banco do Brasil"}}, {"type": "node", "id": 4341926690, "lat": -23.4665209, "lon": -46.5301998, "tags": {"addr:street": "Rua Felicio Marcondes", "amenity": "bank", "brand": "Santander", "brand:wikidata": "Q5835668", "name": "Santander"}}, {"type": "node", "id": 4341926691, "lat": -23.4666806, "lon": -46.5300231, "tags": {"addr:street": "Rua Felicio Marcondes", "amenity": "bank", "brand": "Bradesco", "brand:wikidata": "Q806181", "name": "Bradesco"}}, {"type": "node", "id": 4341926791, "lat": -23.4673421, "lon": -46.5324169}, {"type": "node", "id": 4341926890, "lat": -23.4665389, "lon": -46.5306747, "tags": {"addr:street": "Pra\u00e7a Get\u00falio Vargas", "amenity": "bank", "brand": "Caixa Econ\u00f4mica Federal", "brand:wikidata": "Q835283", "name": "Caixa Econ\u00f4mica Federal"}}, {"type": "node", "id": 4341926891, "lat": -23.4691459, "lon": -46.5305778, "tags": {"addr:street": "Rua Sete de Setembro", "amenity": "bank", "brand": "Ita\u00fa Unibanco", "brand:wikidata": "Q1424293", "name": "Ita\u00fa"}}, {"type": "node", "id": 4341927289, "lat": -23.4695668, "lon": -46.5309642, "tags": {"addr:street": "Rua Capit\u00e3o Gabriel", "amenity": "bank", "brand": "Bradesco", "brand:wikidata": "Q806181", "name": "Bradesco"}}, {"type": "node", "id": 4343597289, "lat": -23.4644675, "lon": -46.5313931, "tags": {"amenity": "fuel"}}, {"type": "node", "id": 4345133292, "lat": -23.46916, "lon": -46.5299506, "tags": {"addr:street": "Rua Sete de Setembro", "amenity": "police", "name": "GCM Guarulhos"}}, {"type": "node", "id": 4346687534, "lat": -23.4671866, "lon": -46.530782}, {"type": "node", "id": 4346691016, "lat": -23.4674752, "lon": -46.5309277}, {"type": "node", "id": 4346691017, "lat": -23.4674425, "lon": -46.530109}, {"type": "node", "id": 4346691018, "lat": -23.4675783, "lon": -46.5301026}, {"type": "node", "id": 4346691020, "lat": -23.467645, "lon": -46.5309196}, {"type": "node", "id": 5157445395, "lat": -23.4642865, "lon": -46.5296238}, {"type": "node", "id": 5157445396, "lat": -23.4643336, "lon": -46.5297351}, {"type": "node", "id": 5157445397, "lat": -23.4645002, "lon": -46.5296597}, {"type": "node", "id": 5157445398, "lat": -23.4645176, "lon": -46.529508}, {"type": "node", "id": 5157445400, "lat": -23.4642547, "lon": -46.5301196, "tags": {"addr:city": "Guarulhos", "addr:street": "Avenida Salgado Filho", "addr:suburb": "Centro", "amenity": "bank", "atm": "yes", "brand": "Caixa Econ\u00f4mica Federal", "brand:wikidata": "Q835283", "name": "Caixa Econ\u00f4mica Federal"}}, {"type": "node", "id": 5256798039, "lat": -23.4660204, "lon": -46.5310058}, {"type": "node", "id": 5256800495, "lat": -23.4660013, "lon": -46.5310353}, {"type": "node", "id": 5256800496, "lat": -23.4660542, "lon": -46.530987}, {"type": "node", "id": 5256800497, "lat": -23.4661059, "lon": -46.5309977}, {"type": "node", "id": 5256800498, "lat": -23.4661625, "lon": -46.5309669}, {"type": "node", "id": 5256800499, "lat": -23.4661797, "lon": -46.5309749}, {"type": "node", "id": 5256800500, "lat": -23.4661785, "lon": -46.5310232}, {"type": "node", "id": 5256800501, "lat": -23.4662228, "lon": -46.5310286}, {"type": "node", "id": 5256800502, "lat": -23.4662228, "lon": -46.5310447}, {"type": "node", "id": 5256800503, "lat": -23.4661895, "lon": -46.5310701}, {"type": "node", "id": 5256800504, "lat": -23.4661268, "lon": -46.5310581}, {"type": "node", "id": 5256800505, "lat": -23.4660764, "lon": -46.5310876}, {"type": "node", "id": 5256800506, "lat": -23.4660173, "lon": -46.5310701}, {"type": "node", "id": 5854258444, "lat": -23.4669402, "lon": -46.5290345}, {"type": "node", "id": 5854258445, "lat": -23.4667074, "lon": -46.5293281}, {"type": "node", "id": 5854258446, "lat": -23.4667008, "lon": -46.5292658}, {"type": "node", "id": 5854258447, "lat": -23.4670073, "lon": -46.5290534}, {"type": "node", "id": 5854514584, "lat": -23.466682, "lon": -46.5327277}, {"type": "node", "id": 5854521785, "lat": -23.4666155, "lon": -46.532277}, {"type": "node", "id": 5854521786, "lat": -23.4666426, "lon": -46.5322395}, {"type": "node", "id": 5854521787, "lat": -23.4670953, "lon": -46.5321322}, {"type": "node", "id": 5854521788, "lat": -23.4671359, "lon": -46.532142}, {"type": "node", "id": 5854521789, "lat": -23.4672137, "lon": -46.5326069}, {"type": "node", "id": 5854538878, "lat": -23.4676376, "lon": -46.530734}, {"type": "node", "id": 5854538879, "lat": -23.4676035, "lon": -46.5307356}, {"type": "node", "id": 8755801659, "lat": -23.4673104, "lon": -46.532254}, {"type": "node", "id": 8755801660, "lat": -23.4678217, "lon": -46.5321358}, {"type": "node", "id": 8755801661, "lat": -23.4678534, "lon": -46.5322988}, {"type": "node", "id": 8755801663, "lat": -23.4675039, "lon": -46.5323795}, {"type": "node", "id": 8755801664, "lat": -23.4677082, "lon": -46.5323323}, {"type": "node", "id": 8755801673, "lat": -23.4675601, "lon": -46.5309236, "tags": {"addr:city": "Guarulhos", "addr:housenumber": "262", "addr:postcode": "07011-010", "addr:street": "Rua Capit\u00e3o Gabriel", "entrance": "yes"}}, {"type": "node", "id": 8755801680, "lat": -23.4673581, "lon": -46.5307747}, {"type": "node", "id": 8755801681, "lat": -23.4673445, "lon": -46.5305316}, {"type": "node", "id": 8755801682, "lat": -23.4671701, "lon": -46.5305435}, {"type": "node", "id": 8755801683, "lat": -23.4673513, "lon": -46.5306531, "tags": {"addr:city": "Guarulhos", "addr:housenumber": "72", "addr:postcode": "07010-040", "addr:street": "Rua Nove de Julho"}}, {"type": "node", "id": 8755801684, "lat": -23.467213, "lon": -46.5303237}, {"type": "node", "id": 8755801685, "lat": -23.4673311, "lon": -46.530316}, {"type": "node", "id": 8755801691, "lat": -23.4671553, "lon": -46.5303283}, {"type": "node", "id": 8786526678, "lat": -23.4695735, "lon": -46.5322442, "tags": {"addr:city": "Guarulhos", "addr:housenumber": "56", "addr:postcode": "07023-070", "addr:street": "Rua Doutor Nilo Pe\u00e7anha", "addr:suburb": "Centro", "amenity": "clinic", "healthcare": "clinic", "healthcare:speciality": "endocrinology", "name": "Endocrinologia Metabologia Paulista"}}, {"type": "node", "id": 8786533371, "lat": -23.4696542, "lon": -46.5322777}, {"type": "node", "id": 8786533372, "lat": -23.4696335, "lon": -46.5321839}, {"type": "node", "id": 8786533373, "lat": -23.4694564, "lon": -46.5322596}, {"type": "node", "id": 8786533374, "lat": -23.4694709, "lon": -46.5323522, "tags": {"addr:city": "Guarulhos", "addr:housenumber": "56", "addr:postcode": "07023-070", "addr:street": "Rua Doutor Nilo Pe\u00e7anha", "addr:suburb": "Centro"}}, {"type": "node", "id": 9267650389, "lat": -23.4659969, "lon": -46.5307529}, {"type": "node", "id": 9267650390, "lat": -23.4659542, "lon": -46.5305405}, {"type": "node", "id": 9267650391, "lat": -23.4658359, "lon": -46.5305595}, {"type": "node", "id": 9267650392, "lat": -23.4657938, "lon": -46.5304471}, {"type": "node", "id": 9267650393, "lat": -23.4661921, "lon": -46.5303457}, {"type": "node", "id": 9267650394, "lat": -23.4662136, "lon": -46.5304642}, {"type": "node", "id": 9267650395, "lat": -23.4660491, "lon": -46.5305165}, {"type": "node", "id": 9267650396, "lat": -23.4660965, "lon": -46.5307323}, {"type": "node", "id": 9828449888, "lat": -23.4645173, "lon": -46.5296924}, {"type": "node", "id": 9828449889, "lat": -23.4645883, "lon": -46.5296535}, {"type": "node", "id": 9828449890, "lat": -23.4660909, "lon": -46.5304784}, {"type": "node", "id": 9828449891, "lat": -23.4660893, "lon": -46.5305155}, {"type": "node", "id": 9828449892, "lat": -23.4660698, "lon": -46.5305273}, {"type": "way", "id": 298623922, "nodes": [3025167614, 3025167615, 5854258447, 5854258444, 5854258446, 5854258445, 3025167614], "tags": {"addr:city": "Guarulhos", "addr:housenumber": "439", "addr:street": "Rua Jo\u00e3o Gon\u00e7alves", "addr:suburb": "Centro", "amenity": "library", "building": "yes", "name": "Biblioteca Monteiro Lobato", "opening_hours": "Mo-Fr 09:00-19:00; Sa 09:00-18:00", "phone": "+55 11 2087-6900", "wikidata": "Q63256637", "wikimedia_commons": "Category:Biblioteca Monteiro Lobato (Guarulhos)"}}, {"type": "way", "id": 436806355, "nodes": [4346691016, 4346691017, 4346691018, 5854538879, 5854538878, 4346691020, 8755801673, 4346691016], "tags": {"addr:city": "Guarulhos", "addr:housenumber": "262", "addr:postcode": "07011-010", "addr:street": "Rua Capit\u00e3o Gabriel", "addr:suburb": "Centro", "amenity": "bank", "brand": "Santander", "brand:wikidata": "Q5835668", "brand:wikipedia": "en:Santander Bank", "building": "yes", "name": "Santander"}}, {"type": "way", "id": 531287542, "nodes": [5157445395, 5157445396, 5157445397, 9828449888, 9828449889, 5157445398, 5157445395], "tags": {"addr:city": "Guarulhos", "addr:housenumber": "1425", "addr:street": "Avenida Tiradentes", "addr:suburb": "Centro", "amenity": "school", "name": "Col\u00e9gio Objetivo"}}, {"type": "way", "id": 543795935, "nodes": [5256800495, 5256798039, 5256800496, 5256800497, 5256800498, 5256800499, 5256800500, 5256800501, 5256800502, 5256800503, 5256800504, 5256800505, 5256800506, 5256800495], "tags": {"amenity": "fountain", "natural": "water"}}, {"type": "way", "id": 619540617, "nodes": [5854514584, 5854521785, 5854521786, 5854521787, 5854521788, 5854521789, 5854514584], "tags": {"addr:city": "Guarulhos", "addr:housenumber": "191", "addr:postcode": "07090-230", "addr:street": "Rua Jos\u00e9 Maur\u00edcio de Oliveira", "addr:suburb": "Centro", "amenity": "hospital", "emergency": "yes", "healthcare": "hospital", "healthcare:speciality": "paediatrics;surgery;gynaecology;general;maternity", "name": "Hospital Municipal da Crian\u00e7a e do Adolescente", "phone": "+55 11 2475 9690", "website": "http://www.redededefesadedireitos.com.br/assistencia-a-saude/hospital-municipal-da-crianca-e-do-adolescente/"}}, {"type": "way", "id": 945792271, "nodes": [4341926791, 8755801659, 8755801660, 8755801661, 8755801664, 8755801663, 4341926791], "tags": {"addr:city": "Guarulhos", "addr:housenumber": "103", "addr:postcode": "07011-060", "addr:street": "Rua Jos\u00e9 Maur\u00edcio de Oliveira", "addr:suburb": "Centro", "amenity": "courthouse", "building": "yes", "height": "14", "name": "F\u00f3rum Civel de Guarulhos"}}, {"type": "way", "id": 945792275, "nodes": [4346687534, 8755801680, 8755801683, 8755801681, 8755801682, 4346687534], "tags": {"addr:city": "Guarulhos", "addr:housenumber": "72", "addr:postcode": "07010-040", "addr:street": "Rua Nove de Julho", "addr:suburb": "Centro", "amenity": "bank", "atm": "yes", "brand": "Bradesco", "brand:wikidata": "Q806181", "brand:wikipedia": "en:Banco Bradesco", "building": "yes", "height": "6", "name": "Bradesco", "opening_hours": "Mo-Fr 10:00-16:00", "roof:colour": "silver"}}, {"type": "way", "id": 945792277, "nodes": [8755801691, 8755801684, 8755801685, 8755801681, 8755801682, 8755801691], "tags": {"amenity": "parking", "operator": "Bradesco", "parking": "surface"}}, {"type": "way", "id": 949145506, "nodes": [8786533371, 8786533372, 8786533373, 8786533374, 8786533371], "tags": {"addr:city": "Guarulhos", "addr:housenumber": "56", "addr:postcode": "07023-070", "addr:street": "Rua Doutor Nilo Pe\u00e7anha", "addr:suburb": "Centro", "amenity": "clinic", "building": "yes", "healthcare": "clinic", "name": "Endocrinologia Metab\u00f3lica Paulista"}}, {"type": "way", "id": 1004443941, "nodes": [9267650389, 9267650390, 9267650391, 9267650392, 9267650393, 9267650394, 9828449890, 9828449891, 9828449892, 9267650395, 9267650396, 9267650389], "tags": {"addr:street": "Pra\u00e7a Presidente Get\u00falio Vargas", "amenity": "police", "building": "yes", "name": "Guarda Civil Municipal de Guarulhos"}}]}