{"version": 0.6, "generator": "Overpass API 0.7.61.5 4133829e", "osm3s": {"timestamp_osm_base": "2024-02-19T19:54:15Z", "copyright": "The data included in this document is from www.openstreetmap.org. The data is made available under ODbL."}, "elements": [{"type": "node", "id": 2906986766, "lat": -23.6487269, "lon": -46.8487654}, {"type": "node", "id": 2906986767, "lat": -23.6487495, "lon": -46.8494519}, {"type": "node", "id": 2906986770, "lat": -23.6489161, "lon": -46.8497128}, {"type": "node", "id": 2906986772, "lat": -23.6491924, "lon": -46.8486129}, {"type": "node", "id": 2906986774, "lat": -23.6492168, "lon": -46.849612}, {"type": "node", "id": 2906986778, "lat": -23.6496277, "lon": -46.8484252}, {"type": "node", "id": 2906986780, "lat": -23.6495619, "lon": -46.8492247}, {"type": "node", "id": 2906986786, "lat": -23.6500499, "lon": -46.8481079}, {"type": "node", "id": 2906986792, "lat": -23.6500562, "lon": -46.848969}, {"type": "node", "id": 2906999103, "lat": -23.6503353, "lon": -46.8489381}, {"type": "node", "id": 2995188489, "lat": -23.6469896, "lon": -46.8464388}, {"type": "node", "id": 2995188490, "lat": -23.6470187, "lon": -46.8463368}, {"type": "node", "id": 2995188495, "lat": -23.6471811, "lon": -46.8463845}, {"type": "node", "id": 2995188496, "lat": -23.6472131, "lon": -46.8463005}, {"type": "node", "id": 2995188499, "lat": -23.6472612, "lon": -46.8465341}, {"type": "node", "id": 2995188500, "lat": -23.6473203, "lon": -46.8463325}, {"type": "node", "id": 3246172578, "lat": -23.6511562, "lon": -46.8507578}, {"type": "node", "id": 3246172583, "lat": -23.6513403, "lon": -46.8505528}, {"type": "node", "id": 3246172589, "lat": -23.6514983, "lon": -46.8503767}, {"type": "node", "id": 3246172590, "lat": -23.6514889, "lon": -46.8511077}, {"type": "node", "id": 3246172593, "lat": -23.6515485, "lon": -46.8503205}, {"type": "node", "id": 3246172608, "lat": -23.6518808, "lon": -46.8506708}, {"type": "node", "id": 5103667428, "lat": -23.6496104, "lon": -46.8483362}, {"type": "node", "id": 5103667429, "lat": -23.6501433, "lon": -46.8485087}, {"type": "node", "id": 5103667430, "lat": -23.6500547, "lon": -46.8482832}, {"type": "node", "id": 6153267790, "lat": -23.6509837, "lon": -46.8494446}, {"type": "node", "id": 6153267791, "lat": -23.651098, "lon": -46.8495361}, {"type": "node", "id": 6153267792, "lat": -23.6511858, "lon": -46.8494315}, {"type": "node", "id": 6153267793, "lat": -23.6512061, "lon": -46.8494514}, {"type": "node", "id": 6153267794, "lat": -23.6511008, "lon": -46.8495619}, {"type": "node", "id": 6153267795, "lat": -23.6511804, "lon": -46.8496144}, {"type": "node", "id": 6153267796, "lat": -23.6513757, "lon": -46.8492881}, {"type": "node", "id": 6153267797, "lat": -23.6513504, "lon": -46.8492701}, {"type": "node", "id": 6153267798, "lat": -23.6512798, "lon": -46.8493883}, {"type": "node", "id": 6153267799, "lat": -23.6512267, "lon": -46.8493504}, {"type": "node", "id": 6153267800, "lat": -23.6513237, "lon": -46.8491883}, {"type": "node", "id": 6153267801, "lat": -23.6512166, "lon": -46.8491119}, {"type": "node", "id": 7011740635, "lat": -23.6487404, "lon": -46.8475953}, {"type": "node", "id": 7011740636, "lat": -23.6487296, "lon": -46.8473571}, {"type": "node", "id": 7011740637, "lat": -23.6488902, "lon": -46.847329}, {"type": "node", "id": 7011740638, "lat": -23.6493112, "lon": -46.8473227}, {"type": "node", "id": 7011740639, "lat": -23.6493399, "lon": -46.8475785}, {"type": "node", "id": 7011740640, "lat": -23.6489241, "lon": -46.8475944}, {"type": "node", "id": 7011740646, "lat": -23.6486876, "lon": -46.8474779, "tags": {"addr:city": "Embu das Artes", "addr:street": "Avenida Elias Yazbek", "entrance": "yes"}}, {"type": "node", "id": 10030243183, "lat": -23.6469042, "lon": -46.8460078}, {"type": "node", "id": 10030243184, "lat": -23.646974, "lon": -46.8460369}, {"type": "node", "id": 10030243185, "lat": -23.6470725, "lon": -46.8457681}, {"type": "node", "id": 10030243186, "lat": -23.6469925, "lon": -46.845739}, {"type": "node", "id": 10034698856, "lat": -23.6490867, "lon": -46.8496827}, {"type": "node", "id": 10034698869, "lat": -23.6508751, "lon": -46.8499324}, {"type": "node", "id": 10034698870, "lat": -23.6509728, "lon": -46.8498634}, {"type": "node", "id": 10034698871, "lat": -23.6509077, "lon": -46.8497903}, {"type": "node", "id": 10034698872, "lat": -23.6508522, "lon": -46.8499032}, {"type": "node", "id": 10034732823, "lat": -23.6510111, "lon": -46.8504695}, {"type": "node", "id": 10034732824, "lat": -23.6511068, "lon": -46.8503232}, {"type": "node", "id": 10034732825, "lat": -23.6508732, "lon": -46.8500954}, {"type": "node", "id": 10034732826, "lat": -23.650766, "lon": -46.850225}, {"type": "node", "id": 10034732827, "lat": -23.6506799, "lon": -46.8501414}, {"type": "node", "id": 10034732828, "lat": -23.6508254, "lon": -46.8500306}, {"type": "node", "id": 10034732829, "lat": -23.6507545, "lon": -46.8502104}, {"type": "node", "id": 10034732830, "lat": -23.6510819, "lon": -46.8501602}, {"type": "node", "id": 10034732831, "lat": -23.651203, "lon": -46.8499993}, {"type": "node", "id": 10034732832, "lat": -23.6512657, "lon": -46.8500578}, {"type": "node", "id": 10034732833, "lat": -23.651147, "lon": -46.8502145}, {"type": "node", "id": 10034732834, "lat": -23.6510417, "lon": -46.8502334}, {"type": "node", "id": 10034732835, "lat": -23.6510838, "lon": -46.8501832}, {"type": "node", "id": 10034732836, "lat": -23.651147, "lon": -46.8502396}, {"type": "node", "id": 10034732837, "lat": -23.6511029, "lon": -46.8502981}, {"type": "node", "id": 10034732838, "lat": -23.651101, "lon": -46.8500703}, {"type": "node", "id": 10034732839, "lat": -23.6511738, "lon": -46.8499679}, {"type": "node", "id": 10034732840, "lat": -23.651124, "lon": -46.850085}, {"type": "node", "id": 10039577278, "lat": -23.6488903, "lon": -46.8473431}, {"type": "node", "id": 10039577279, "lat": -23.6489133, "lon": -46.847576}, {"type": "node", "id": 10039577280, "lat": -23.6487326, "lon": -46.8475008}, {"type": "node", "id": 10039577281, "lat": -23.6486999, "lon": -46.8474418}, {"type": "node", "id": 10039577282, "lat": -23.6487296, "lon": -46.847444}, {"type": "node", "id": 10039591534, "lat": -23.648611, "lon": -46.8467597}, {"type": "node", "id": 10039591535, "lat": -23.6500638, "lon": -46.8466395}, {"type": "node", "id": 10039591536, "lat": -23.6501249, "lon": -46.8471979}, {"type": "node", "id": 10039591537, "lat": -23.6489186, "lon": -46.8472524}, {"type": "node", "id": 10039591538, "lat": -23.6487383, "lon": -46.846857}, {"type": "node", "id": 10039591539, "lat": -23.648642, "lon": -46.8468506}, {"type": "node", "id": 10039591540, "lat": -23.6502247, "lon": -46.8469009}, {"type": "node", "id": 10039591541, "lat": -23.6501708, "lon": -46.8467124}, {"type": "node", "id": 10039591542, "lat": -23.6501315, "lon": -46.8466737}, {"type": "node", "id": 10039591543, "lat": -23.6502197, "lon": -46.847105}, {"type": "node", "id": 10039591544, "lat": -23.6501764, "lon": -46.8471625}, {"type": "node", "id": 10039613235, "lat": -23.6483104, "lon": -46.8488275}, {"type": "node", "id": 10039613236, "lat": -23.6483426, "lon": -46.8488305}, {"type": "node", "id": 10039613237, "lat": -23.6483539, "lon": -46.8487479}, {"type": "node", "id": 10039613238, "lat": -23.6482922, "lon": -46.8487663}, {"type": "node", "id": 10039613239, "lat": -23.6482726, "lon": -46.8487846}, {"type": "node", "id": 10039621011, "lat": -23.6483479, "lon": -46.8482196, "tags": {"addr:housenumber": "1871", "addr:postcode": "06803-000", "addr:street": "Avenida Elias Yazbek", "addr:suburb": "Cercado Grande", "amenity": "pharmacy", "dispensing": "yes", "drive_through": "no", "healthcare": "pharmacy", "name": "Prazeres Drogaria", "website": "https://prazeresdrogaria.com.br/home"}}, {"type": "node", "id": 10039621012, "lat": -23.6483409, "lon": -46.8481584, "tags": {"addr:housenumber": "1516", "addr:street": "Avenida Elias Yazbek", "amenity": "driving_school", "name": "Centro de Forma\u00e7\u00e3o de Condutores Marka"}}, {"type": "node", "id": 10039627962, "lat": -23.6483521, "lon": -46.8480957, "tags": {"addr:street": "Avenida Elias Yazbek", "name": "\u00d3tica Roge", "shop": "optician"}}, {"type": "node", "id": 10039627963, "lat": -23.6484025, "lon": -46.847779, "tags": {"addr:street": "Avenida Elias Yazbek", "contact:phone": "+55 11 )4241 5813", "name": "Tip Top Outlet", "phone": "+55 11 4241 5813", "shop": "baby_goods"}}, {"type": "node", "id": 10039627964, "lat": -23.6483927, "lon": -46.8478494, "tags": {"addr:housenumber": "1414", "addr:postcode": "06803-002", "addr:street": "Avenida Elias Yazbek", "clothes": "women;children;men", "contact:mobile": "+55 11 99176 1421", "name": "Puket Outlet", "phone": "+55 11 4385 1777", "shop": "clothes", "website": "https://www.puket.com.br/"}}, {"type": "way", "id": 287036937, "nodes": [2906986770, 2906986767, 2906986766, 2906986772, 2906986778, 5103667428, 2906986786, 5103667430, 5103667429, 2906999103, 2906986792, 2906986780, 2906986774, 10034698856, 2906986770], "tags": {"addr:city": "Embu das Artes", "addr:country": "BR", "addr:housenumber": "1173", "addr:street": "Avenida Elias Yazbek", "addr:suburb": "Centro", "denomination": "roman_catholic", "landuse": "cemetery", "name": "Cemit\u00e9rio do Ros\u00e1rio", "religion": "christian"}}, {"type": "way", "id": 295759216, "nodes": [2995188489, 2995188490, 2995188495, 2995188496, 2995188500, 2995188499, 2995188489], "tags": {"amenity": "fuel", "brand": "Ipiranga", "brand:wikidata": "Q2081136", "brand:wikipedia": "pt:Ipiranga (empresa)", "building": "roof", "layer": "1", "name": "Ipiranga", "self_service": "no"}}, {"type": "way", "id": 318221341, "nodes": [3246172590, 3246172578, 3246172583, 3246172589, 3246172593, 3246172608, 3246172590], "tags": {"addr:city": "Embu das Artes", "addr:country": "BR", "addr:housenumber": "1183", "addr:postcode": "06803-002", "addr:street": "Avenida Elias Yazbek", "addr:suburb": "Embuema", "branch": "149", "brand": "Assa\u00ed Atacadista", "brand:wikidata": "Q28679415", "brand:wikipedia": "pt:Assa\u00ed Atacadista", "building": "yes", "contact:phone": "+55 11 4778 9601", "email": "loja149.televendas@assai.com.br", "name": "Assa\u00ed Atacadista", "opening_hours": "Mo-Sa 07:00-22:00; Su,PH 08:00-18:00", "operator": "Extra", "payment:cash": "yes", "payment:coins": "yes", "payment:credit_cards": "yes", "payment:debit_cards": "yes", "payment:notes": "yes", "phone": "+55 11 4778 9600", "shop": "supermarket", "website": "https://www.assai.com.br/"}}, {"type": "way", "id": 656935735, "nodes": [6153267790, 6153267791, 6153267792, 6153267793, 6153267794, 6153267795, 6153267796, 6153267797, 6153267798, 6153267799, 6153267800, 6153267801, 6153267790], "tags": {"addr:housenumber": "1388", "addr:street": "Avenida Elias Yazbek", "amenity": "place_of_worship", "building": "chapel", "contact:mobile": "+55 11 99146 6348", "denomination": "mormon", "name": "A Igreja de Jesus Cristo dos Santos dos \u00daltimos Dias", "religion": "christian", "service_times": "Su 10:20"}}, {"type": "way", "id": 749831140, "nodes": [7011740635, 10039577280, 7011740646, 10039577281, 10039577282, 7011740636, 10039577278, 7011740637, 7011740638, 7011740639, 7011740640, 10039577279, 7011740635], "tags": {"addr:housenumber": "1415", "addr:street": "Avenida Elias Yazbek", "addr:suburb": "Cercado Grande", "amenity": "hospital", "building": "yes", "healthcare": "hospital", "healthcare:speciality": "maternity", "name": "Maternidade Municipal Alice Campos Mendes Machado", "operator": "Prefeitura", "operator:type": "government", "phone": "+55 11 4785 0155"}}, {"type": "way", "id": 1095232249, "nodes": [10030243183, 10030243184, 10030243185, 10030243186, 10030243183], "tags": {"addr:housenumber": "2218", "addr:postcode": "06803-135", "addr:street": "Avenida Elias Yazbek", "addr:suburb": "Embuema", "building": "yes", "contact:mobile": "+55 11 98351 6060", "name": "Use Tintas", "phone": "+55 11 4704 3977", "shop": "paint", "website": "https://www.usetintas.com.br/"}}, {"type": "way", "id": 1095698199, "nodes": [10034698869, 10034698870, 10034698871, 10034698872, 10034698869], "tags": {"addr:street": "Avenida Elias Yazbek", "building": "yes", "government": "administrative", "name": "Secretaria Ind\u00fastria , Com\u00e9rcio e Servi\u00e7os", "office": "government"}}, {"type": "way", "id": 1095704495, "nodes": [10034732823, 10034732824, 10034732825, 10034732826, 10034732823], "tags": {"addr:housenumber": "1335", "addr:street": "Avenida Elias Yazbek", "building": "yes", "name": "Outlet Calcci", "shop": "mall"}}, {"type": "way", "id": 1095704496, "nodes": [10034732827, 10034732828, 10034732825, 10034732829, 10034732827], "tags": {"addr:housenumber": "1335", "addr:street": "Avenida Elias Yazbek", "amenity": "university", "name": "Espa\u00e7o Colaborativo Educacional", "operator": "Universidade Cruzeiro do Sul", "phone": "+55 11 98995 0225"}}, {"type": "way", "id": 1095704497, "nodes": [10034732830, 10034732831, 10034732832, 10034732833, 10034732830], "tags": {"addr:housenumber": "2040", "addr:street": "Avenida Elias Yazbek", "addr:suburb": "Embuema", "building": "yes", "name": "Tecn e Luz", "shop": "general"}}, {"type": "way", "id": 1095704498, "nodes": [10034732834, 10034732835, 10034732836, 10034732837, 10034732834], "tags": {"amenity": "fast_food", "building": "yes"}}, {"type": "way", "id": 1095704499, "nodes": [10034732838, 10034732839, 10034732831, 10034732840, 10034732838], "tags": {"addr:housenumber": "1135", "addr:street": "Avenida Elias Yazbek", "contact:instagram": "https://www.instagram.com/mj_naturais/", "email": "mjnaturais78@gmail.com", "healthcare": "alternative", "name": "MJ Naturais"}}, {"type": "way", "id": 1096312693, "nodes": [10039591534, 10039591535, 10039591542, 10039591541, 10039591540, 10039591543, 10039591544, 10039591536, 10039591537, 10039591538, 10039591539, 10039591534], "tags": {"addr:street": "Avenida Elias Yazbek", "addr:suburb": "Cercado Grande", "club": "sport", "contact:facebook": "https://www.facebook.com/esporteclubecg/", "name": "Esporte Clube Cercado Grande", "phone": "+55 11 97595 2474", "sport": "soccer"}}, {"type": "way", "id": 1096316551, "nodes": [10039613235, 10039613236, 10039613237, 10039613238, 10039613239, 10039613235], "tags": {"addr:housenumber": "1817", "addr:street": "Avenida Elias Yazbek", "building": "yes", "name": "Barril Vinhos & Cia", "phone": "55 11 4241 6512", "shop": "wine"}}]}