{"version": 0.6, "generator": "Overpass API 0.7.61.5 4133829e", "osm3s": {"timestamp_osm_base": "2024-02-26T22:05:15Z", "copyright": "The data included in this document is from www.openstreetmap.org. The data is made available under ODbL."}, "elements": [{"type": "node", "id": 2523170868, "lat": -23.0313459, "lon": -45.5655244, "tags": {"addr:city": "Taubat\u00e9", "addr:housenumber": "520", "addr:postcode": "12030-180", "addr:street": "Avenida Tiradentes", "amenity": "townhall", "name": "Prefeitura de Taubat\u00e9 - Sede Administrativa", "phone": "+55 12 3625-5000", "website": "https://taubate.sp.gov.br/"}}, {"type": "node", "id": 2523170874, "lat": -23.0299158, "lon": -45.5676057}, {"type": "node", "id": 2523170876, "lat": -23.030328, "lon": -45.5673487}, {"type": "node", "id": 2523170878, "lat": -23.0302037, "lon": -45.5670393}, {"type": "node", "id": 2523170880, "lat": -23.0297482, "lon": -45.5673236}, {"type": "node", "id": 2523170882, "lat": -23.0304365, "lon": -45.5684534}, {"type": "node", "id": 2523170884, "lat": -23.0303762, "lon": -45.5683601}, {"type": "node", "id": 2523170886, "lat": -23.0307977, "lon": -45.5680854}, {"type": "node", "id": 2523170888, "lat": -23.0308346, "lon": -45.568174}, {"type": "node", "id": 2523194587, "lat": -23.026308, "lon": -45.5649566}, {"type": "node", "id": 2523194588, "lat": -23.0268182, "lon": -45.5650587}, {"type": "node", "id": 2523194589, "lat": -23.0268402, "lon": -45.5648724}, {"type": "node", "id": 2523194590, "lat": -23.0263195, "lon": -45.564853}, {"type": "node", "id": 3225864895, "lat": -23.0270676, "lon": -45.5699862}, {"type": "node", "id": 3225864896, "lat": -23.0259697, "lon": -45.5698072}, {"type": "node", "id": 3225864897, "lat": -23.0260166, "lon": -45.5693378}, {"type": "node", "id": 3225864898, "lat": -23.0261228, "lon": -45.5693539}, {"type": "node", "id": 3225864899, "lat": -23.0261721, "lon": -45.568957}, {"type": "node", "id": 3225864900, "lat": -23.0272361, "lon": -45.5691796}, {"type": "node", "id": 3225864901, "lat": -23.0274632, "lon": -45.5697107}, {"type": "node", "id": 4286932155, "lat": -23.029195, "lon": -45.5662126, "tags": {"amenity": "pharmacy", "brand": "Droga Quinze", "brand:wikidata": "Q100491051", "healthcare": "pharmacy", "name": "Droga Quinze"}}, {"type": "node", "id": 4729706689, "lat": -23.0291641, "lon": -45.5675623}, {"type": "node", "id": 4729706691, "lat": -23.0297146, "lon": -45.566175}, {"type": "node", "id": 4729706692, "lat": -23.0299785, "lon": -45.5666028}, {"type": "node", "id": 4729706694, "lat": -23.0298957, "lon": -45.5660695}, {"type": "node", "id": 4729706695, "lat": -23.0305893, "lon": -45.5656202}, {"type": "node", "id": 4729706696, "lat": -23.0307571, "lon": -45.5659126}, {"type": "node", "id": 4729706697, "lat": -23.0310434, "lon": -45.5657033}, {"type": "node", "id": 4729706698, "lat": -23.0313224, "lon": -45.5661252}, {"type": "node", "id": 4729706699, "lat": -23.0318853, "lon": -45.5657128}, {"type": "node", "id": 4729706700, "lat": -23.0324323, "lon": -45.5666424}, {"type": "node", "id": 4729706701, "lat": -23.0312041, "lon": -45.5684553}, {"type": "node", "id": 5257889327, "lat": -23.026314, "lon": -45.5665776}, {"type": "node", "id": 5257889328, "lat": -23.0264784, "lon": -45.5662819}, {"type": "node", "id": 5257889329, "lat": -23.0270002, "lon": -45.566288}, {"type": "node", "id": 5257889330, "lat": -23.0272213, "lon": -45.5662572}, {"type": "node", "id": 5257889331, "lat": -23.0272724, "lon": -45.5662202}, {"type": "node", "id": 5257889332, "lat": -23.0274142, "lon": -45.5661833}, {"type": "node", "id": 5257889333, "lat": -23.0274368, "lon": -45.566251}, {"type": "node", "id": 5257889334, "lat": -23.0271873, "lon": -45.5663496}, {"type": "node", "id": 5257889335, "lat": -23.0272043, "lon": -45.5664046}, {"type": "node", "id": 5257889337, "lat": -23.0273234, "lon": -45.5666824}, {"type": "node", "id": 5257889339, "lat": -23.0275673, "lon": -45.5672123}, {"type": "node", "id": 5257889340, "lat": -23.0274364, "lon": -45.5673072}, {"type": "node", "id": 5257889342, "lat": -23.026864, "lon": -45.5676427}, {"type": "node", "id": 5262771593, "lat": -23.0282914, "lon": -45.5639221, "tags": {"addr:street": "Rua Armando Sales de Oliveira", "amenity": "place_of_worship", "denomination": "kardecista", "name": "Centro Esp\u00edrita Santa Isabel", "religion": "christian"}}, {"type": "node", "id": 5995783631, "lat": -23.0302568, "lon": -45.5667981}, {"type": "node", "id": 5995783632, "lat": -23.030429, "lon": -45.5671021}, {"type": "node", "id": 5995783633, "lat": -23.0306092, "lon": -45.5674267}, {"type": "node", "id": 6074299610, "lat": -23.0273787, "lon": -45.5717518}, {"type": "node", "id": 6074299611, "lat": -23.0291461, "lon": -45.5706145}, {"type": "node", "id": 6074299612, "lat": -23.0286426, "lon": -45.5696489}, {"type": "node", "id": 6074299613, "lat": -23.0279909, "lon": -45.5696436}, {"type": "node", "id": 6074299614, "lat": -23.0276206, "lon": -45.5698689}, {"type": "node", "id": 6074299615, "lat": -23.0268603, "lon": -45.5703409}, {"type": "node", "id": 6074299616, "lat": -23.0268307, "lon": -45.5708613}, {"type": "node", "id": 6074299617, "lat": -23.0267739, "lon": -45.5706253}, {"type": "node", "id": 6074299618, "lat": -23.0267801, "lon": -45.570746}, {"type": "node", "id": 6074299619, "lat": -23.0268023, "lon": -45.5704938}, {"type": "node", "id": 6074351635, "lat": -23.0299405, "lon": -45.5662427}, {"type": "node", "id": 6074351636, "lat": -23.0298996, "lon": -45.5661594}, {"type": "node", "id": 6074351638, "lat": -23.0303017, "lon": -45.5672087}, {"type": "node", "id": 6074351639, "lat": -23.030305, "lon": -45.5673002}, {"type": "node", "id": 6074351640, "lat": -23.0303351, "lon": -45.5672786}, {"type": "node", "id": 6074351641, "lat": -23.0302638, "lon": -45.5672434}, {"type": "node", "id": 6074351642, "lat": -23.0302523, "lon": -45.5671239}, {"type": "node", "id": 6074351643, "lat": -23.0302284, "lon": -45.5671514}, {"type": "node", "id": 6074761414, "lat": -23.026656, "lon": -45.5647965}, {"type": "node", "id": 6074761415, "lat": -23.0267887, "lon": -45.5648179}, {"type": "node", "id": 6074761416, "lat": -23.0266501, "lon": -45.5648606}, {"type": "node", "id": 6074761417, "lat": -23.026764, "lon": -45.5648899}, {"type": "node", "id": 6074761418, "lat": -23.0267473, "lon": -45.5649596}, {"type": "node", "id": 6074761419, "lat": -23.0265841, "lon": -45.5649422}, {"type": "node", "id": 6074761420, "lat": -23.0265965, "lon": -45.564881}, {"type": "node", "id": 7760541190, "lat": -23.0317002, "lon": -45.5653989}, {"type": "node", "id": 7760541191, "lat": -23.0315472, "lon": -45.5654955}, {"type": "node", "id": 7760541192, "lat": -23.0317397, "lon": -45.5657932}, {"type": "node", "id": 7760541193, "lat": -23.0312343, "lon": -45.5685083}, {"type": "node", "id": 7760541194, "lat": -23.0317934, "lon": -45.5676185}, {"type": "node", "id": 8042342494, "lat": -23.0270435, "lon": -45.5681116}, {"type": "node", "id": 8042342495, "lat": -23.0269388, "lon": -45.5678889}, {"type": "node", "id": 8042342496, "lat": -23.0269999, "lon": -45.5678771}, {"type": "node", "id": 8042342497, "lat": -23.0270413, "lon": -45.5678416}, {"type": "node", "id": 8042342498, "lat": -23.027135, "lon": -45.5680595}, {"type": "node", "id": 8042397419, "lat": -23.027044, "lon": -45.5687551, "tags": {"addr:housenumber": "70", "addr:postcode": "12030-170", "addr:street": "Avenida Benjamin Constant", "addr:suburb": "Jardim das Na\u00e7\u00f5es", "amenity": "theatre", "name": "Audit\u00f3rio J\u00falia Bastos"}}, {"type": "node", "id": 8042406399, "lat": -23.0272396, "lon": -45.5689085}, {"type": "node", "id": 8042406400, "lat": -23.0269658, "lon": -45.5682563}, {"type": "node", "id": 8042406401, "lat": -23.0265612, "lon": -45.5682563}, {"type": "node", "id": 8042406402, "lat": -23.0265578, "lon": -45.568454}, {"type": "node", "id": 8042406403, "lat": -23.0268111, "lon": -45.5684873}, {"type": "node", "id": 8042406404, "lat": -23.0267635, "lon": -45.5688531}, {"type": "node", "id": 8042406405, "lat": -23.0272107, "lon": -45.5689454}, {"type": "node", "id": 8042406406, "lat": -23.0274659, "lon": -45.5690997}, {"type": "node", "id": 8042406407, "lat": -23.0278638, "lon": -45.568902}, {"type": "node", "id": 8042406408, "lat": -23.0274667, "lon": -45.5679631}, {"type": "node", "id": 8042406409, "lat": -23.0270375, "lon": -45.5681722}, {"type": "node", "id": 8042406410, "lat": -23.0270392, "lon": -45.5677427}, {"type": "node", "id": 8042406411, "lat": -23.0268972, "lon": -45.5678485}, {"type": "node", "id": 8042406412, "lat": -23.027617, "lon": -45.5693888}, {"type": "node", "id": 8042406413, "lat": -23.0285029, "lon": -45.569387}, {"type": "node", "id": 8042406414, "lat": -23.0281611, "lon": -45.5686562}, {"type": "node", "id": 8042406415, "lat": -23.0274929, "lon": -45.5691671}, {"type": "node", "id": 8042406416, "lat": -23.0283822, "lon": -45.5690766}, {"type": "node", "id": 8042406417, "lat": -23.0285165, "lon": -45.5693408}, {"type": "node", "id": 8346952462, "lat": -23.0272197, "lon": -45.5681023}, {"type": "node", "id": 8346952463, "lat": -23.0275346, "lon": -45.5680069}, {"type": "node", "id": 8346952464, "lat": -23.0277124, "lon": -45.5678996}, {"type": "node", "id": 8346952465, "lat": -23.0276852, "lon": -45.5678352}, {"type": "node", "id": 8346952466, "lat": -23.0274976, "lon": -45.5679318}, {"type": "node", "id": 8346952467, "lat": -23.0279062, "lon": -45.5682141}, {"type": "node", "id": 8346952468, "lat": -23.027611, "lon": -45.5683998}, {"type": "node", "id": 8346952469, "lat": -23.0277642, "lon": -45.567925}, {"type": "node", "id": 8346952470, "lat": -23.0275131, "lon": -45.5680607}, {"type": "node", "id": 8346952471, "lat": -23.0280357, "lon": -45.5684333}, {"type": "node", "id": 8346952472, "lat": -23.027749, "lon": -45.5686219}, {"type": "node", "id": 8346952473, "lat": -23.0276553, "lon": -45.5684197}, {"type": "node", "id": 8346952474, "lat": -23.027937, "lon": -45.5682322}, {"type": "node", "id": 8347098304, "lat": -23.0278321, "lon": -45.568839}, {"type": "node", "id": 8369736085, "lat": -23.0289326, "lon": -45.566676}, {"type": "node", "id": 8369736086, "lat": -23.0289735, "lon": -45.5671801}, {"type": "node", "id": 8369736087, "lat": -23.0291265, "lon": -45.5670666}, {"type": "node", "id": 8369736088, "lat": -23.0288896, "lon": -45.5668434, "tags": {"addr:housenumber": "202", "addr:postcode": "12030-180", "addr:street": "Avenida Tiradentes", "addr:suburb": "Jardim das Na\u00e7\u00f5es", "amenity": "school", "email": "fegocamargo@educacaotaubate.sp.gov.br", "name": "Escola Municipal de Artes Maestro Fego Camargo"}}, {"type": "node", "id": 9064877803, "lat": -23.0303003, "lon": -45.5676628}, {"type": "node", "id": 9064877804, "lat": -23.0302336, "lon": -45.5675517}, {"type": "node", "id": 9064877805, "lat": -23.0303669, "lon": -45.5674721}, {"type": "node", "id": 9064877806, "lat": -23.0304247, "lon": -45.5675855}, {"type": "node", "id": 9064893750, "lat": -23.0298213, "lon": -45.5671923}, {"type": "node", "id": 9064893751, "lat": -23.0297966, "lon": -45.567081}, {"type": "node", "id": 9064893752, "lat": -23.0300403, "lon": -45.5669072}, {"type": "node", "id": 9064893753, "lat": -23.0299248, "lon": -45.5666924}, {"type": "node", "id": 9064893754, "lat": -23.0300026, "lon": -45.5666393}, {"type": "node", "id": 9064893755, "lat": -23.0301136, "lon": -45.5668662}, {"type": "node", "id": 9064893756, "lat": -23.030012, "lon": -45.5669506}, {"type": "node", "id": 9064893757, "lat": -23.029862, "lon": -45.5666886}, {"type": "node", "id": 9064914557, "lat": -23.0306268, "lon": -45.5687901}, {"type": "node", "id": 9064914558, "lat": -23.0310201, "lon": -45.5685487}, {"type": "node", "id": 9064914559, "lat": -23.030949, "lon": -45.5684256}, {"type": "node", "id": 9064914560, "lat": -23.030558, "lon": -45.5686694}, {"type": "node", "id": 9064930141, "lat": -23.0303225, "lon": -45.5683001}, {"type": "node", "id": 9064930142, "lat": -23.0307224, "lon": -45.5680466}, {"type": "node", "id": 9064930143, "lat": -23.0306757, "lon": -45.5679573}, {"type": "node", "id": 9064930144, "lat": -23.0302692, "lon": -45.5682096}, {"type": "node", "id": 10868946099, "lat": -23.0296442, "lon": -45.5686468, "tags": {"addr:housenumber": "222", "addr:street": "Rua Portugal", "amenity": "clinic", "name": "Spx diagn\u00f3stico de imagem"}}, {"type": "way", "id": 245060615, "nodes": [2523170874, 2523170876, 6074351639, 6074351640, 6074351638, 6074351641, 6074351643, 6074351642, 2523170878, 2523170880, 2523170874], "tags": {"addr:housenumber": "101", "addr:postcode": "12030-190", "addr:street": "Rua Doutor Benedito Cursino dos Santos", "addr:suburb": "Jardim das Na\u00e7\u00f5es", "amenity": "hospital", "building": "yes", "emergency": "yes", "healthcare": "hospital", "healthcare:speciality": "general", "name": "Unidade de Pronto Atendimento Central", "operator:ref:vatin": "BR45176005000108", "phone": "+55 12 3621 3800", "ref": "CNES-4050665", "ref:CNES": "4050665", "short_name": "UPA Central", "source": "CNES"}}, {"type": "way", "id": 245060616, "nodes": [2523170882, 2523170884, 2523170886, 2523170888, 2523170882], "tags": {"addr:postcode": "12030-190", "addr:street": "Rua Doutor Benedito Cursino dos Santos", "addr:suburb": "Jardim das Na\u00e7\u00f5es", "amenity": "clinic", "building": "yes", "healthcare": "clinic", "name": "Centro de Especialidades"}}, {"type": "way", "id": 245064624, "nodes": [2523194587, 2523194588, 2523194589, 6074761415, 6074761414, 6074761416, 6074761417, 6074761418, 6074761419, 6074761420, 2523194590, 2523194587], "tags": {"addr:city": "Taubat\u00e9", "addr:street": "Rua dos Oper\u00e1rios", "building": "public", "name": "Secretaria de Sa\u00fade"}}, {"type": "way", "id": 316466803, "nodes": [3225864895, 3225864896, 3225864897, 3225864898, 3225864899, 3225864900, 3225864901, 3225864895], "tags": {"addr:housenumber": "10", "addr:street": "Avenida Benjamin Constant", "addr:suburb": "Jardim das Na\u00e7\u00f5es", "email": "contato@ectaubate.com.br", "fee": "yes", "leisure": "sports_centre", "name": "Esporte Clube Taubat\u00e9", "phone": "+55 12 3633 2345", "sport": "multi", "website": "https://esporteclubetaubate.com.br/"}}, {"type": "way", "id": 479940223, "nodes": [4729706689, 8369736086, 8369736087, 8369736085, 4729706691, 4729706692, 9064893757, 9064893756, 9064893751, 9064893750, 4729706689], "tags": {"addr:city": "Taubat\u00e9", "addr:housenumber": "280", "addr:postcode": "12030-180", "addr:street": "Avenida Tiradentes", "addr:suburb": "Jardim das Na\u00e7\u00f5es", "amenity": "hospital", "email": "ouvidoria@hospitalregional.org.br", "healthcare": "hospital", "healthcare:speciality": "oncology;ophthalmology;cardiology;surgery;hemodialysis;nephrology", "name": "Hospital Regional do Vale do Para\u00edba", "operator": "Sociedade Beneficente S\u00e3o Camilo", "operator:type": "public", "phone": "+55 12 3634 2000", "ref:CNES": "3126838", "ref:vatin": "BR60975737007245", "start_date": "2004-05", "website": "http://hospitalregional.org.br/"}}, {"type": "way", "id": 479940224, "nodes": [4729706694, 4729706695, 4729706696, 4729706697, 4729706698, 7760541192, 7760541191, 7760541190, 4729706699, 4729706700, 7760541194, 7760541193, 4729706701, 5995783633, 5995783632, 5995783631, 6074351635, 6074351636, 4729706694], "tags": {"addr:city": "Taubat\u00e9", "addr:housenumber": "500", "addr:postcode": "12030-180", "addr:street": "Avenida Tiradentes", "addr:suburb": "Bom Conselho", "amenity": "university", "email": "institutobio@unitau.br", "name": "Universidade de Taubat\u00e9 - UNITAU", "phone": "+55 12 3629 7909"}}, {"type": "way", "id": 543912605, "nodes": [5257889327, 5257889328, 5257889329, 5257889330, 5257889331, 5257889332, 5257889333, 5257889334, 5257889335, 5257889337, 5257889339, 5257889340, 5257889342, 5257889327], "tags": {"addr:housenumber": "117", "addr:street": "Pra\u00e7a F\u00e9lix Guisard", "building": "industrial", "name": "Companhia Taubat\u00e9 Industrial"}}, {"type": "way", "id": 646501864, "nodes": [6074299610, 6074299611, 6074299612, 6074299613, 6074299614, 6074299615, 6074299619, 6074299617, 6074299618, 6074299616, 6074299610], "tags": {"addr:housenumber": "250", "addr:street": "Avenida John Fitzgerald Kennedy", "capacity": "20.000", "leisure": "stadium", "name": "Est\u00e1dio Joaquim de Moraes Filho (Joaquinz\u00e3o)", "sport": "soccer"}}, {"type": "way", "id": 863319472, "nodes": [8042342494, 8042342495, 8042342496, 8042342497, 8042342498, 8042342494], "tags": {"addr:street": "Avenida Benjamin Constant", "addr:suburb": "Jardim das Na\u00e7\u00f5es", "building": "school"}}, {"type": "way", "id": 863327212, "nodes": [8042406399, 8042406400, 8042406401, 8042406402, 8042406403, 8042406404, 8042406405, 8042406399], "tags": {"addr:housenumber": "70", "addr:postcode": "12030-170", "addr:street": "Avenida Benjamin Constant", "addr:suburb": "Jardim das Na\u00e7\u00f5es", "name": "Col\u00e9gio Jardim das Na\u00e7\u00f5es", "office": "educational_institution", "phone": "+55 12 3624 7456", "ref": "INEP-35151282", "website": "https://www.jardimdasnacoes.com.br/"}}, {"type": "way", "id": 863327213, "nodes": [8042406406, 8042406407, 8347098304, 8346952468, 8346952467, 8346952469, 8346952470, 8042406408, 8346952462, 8042406410, 8042406411, 8042406409, 8042406406], "tags": {"addr:housenumber": "79", "addr:postcode": "12030-170", "addr:street": "Avenida Benjamin Constant", "addr:suburb": "Jardim das Na\u00e7\u00f5es", "name": "Escola Jardim das Na\u00e7\u00f5es", "office": "educational_institution", "phone": "+55 12 2125 2900", "ref": "INEP-35111302", "website": "https://www.jardimdasnacoes.com.br/"}}, {"type": "way", "id": 863327214, "nodes": [8042406412, 8042406413, 8042406417, 8042406416, 8042406414, 8347098304, 8042406407, 8042406415, 8042406412], "tags": {"addr:housenumber": "155", "addr:postcode": "12030-170", "addr:street": "Rua Benjamin Constant", "addr:suburb": "Jardim das Na\u00e7\u00f5es", "name": "Escola Dinamica Alice Narder Zarzur", "office": "educational_institution", "phone": "+55 12 3632 7722", "ref": "INEP-35111223", "website": "http://www.edinamica.com/conheca-a-escola.html"}}, {"type": "way", "id": 898165786, "nodes": [8346952463, 8346952464, 8346952465, 8346952466, 8346952463], "tags": {"addr:housenumber": "50", "addr:street": "Avenida John Fitzgerald Kennedy", "addr:suburb": "Jardim das Na\u00e7\u00f5es", "building": "yes", "contact:mobile": "+55 12 99145 4562", "email": "taubate@supergeeks.email", "name": "Super Geeks", "office": "educational_institution", "phone": "+55 12 3512 7439", "website": "https://supergeeks.com.br/"}}, {"type": "way", "id": 898165787, "nodes": [8346952471, 8346952472, 8346952473, 8346952474, 8346952471], "tags": {"addr:housenumber": "88", "addr:postcode": "12030-200", "addr:street": "Avenida John Fitzgerald Kennedy", "addr:suburb": "Jardim das Na\u00e7\u00f5es", "amenity": "place_of_worship", "name": "Johrei Center", "phone": "+55 12 3621 1565", "website": "https://www.messianica.org.br/home"}}, {"type": "way", "id": 979908643, "nodes": [9064877803, 9064877804, 9064877805, 9064877806, 9064877803], "tags": {"addr:postcode": "12030-190", "addr:street": "Rua Doutor Benedito Cursino dos Santos", "addr:suburb": "Jardim das Na\u00e7\u00f5es", "building": "residential", "building:levels": "2"}}, {"type": "way", "id": 979908647, "nodes": [9064930141, 9064930142, 9064930143, 9064930144, 9064930141], "tags": {"addr:housenumber": "202", "addr:postcode": "12030-190", "addr:street": "Rua Doutor Benedito Cursino dos Santos", "addr:suburb": "Jardim das Na\u00e7\u00f5es", "amenity": "clinic", "building": "yes", "healthcare": "clinic", "healthcare:speciality": "gynaecology;maternity", "name": "Centro da Mulher Casa da M\u00e3e Taubetana", "opening_hours": "Mo-Fr  07:00-17:00; Sa,Su,PH off", "operator:ref:vatin": "BR45176005000108", "phone": "+55 12 3625 5084", "ref": "CNES-2749300", "ref:CNES": "2749300", "source": "CNES"}}, {"type": "way", "id": 979909238, "nodes": [9064914557, 9064914558, 9064914559, 9064914560, 9064914557], "tags": {"addr:housenumber": "220", "addr:postcode": "12030-190", "addr:street": "Rua Doutor Benedito Cursino dos Santos", "addr:suburb": "Jardim das Na\u00e7\u00f5es", "amenity": "clinic", "building": "yes", "healthcare": "clinic", "healthcare:speciality": "paediatrics", "name": "Policl\u00edca Infantil", "opening_hours": "Mo-Fr  07:00-17:00; Sa,Su,PH off", "operator:ref:vatin": "BR45176005000108", "phone": "+55 12 3633 6759", "ref:CNES": "9279679"}}, {"type": "way", "id": 979910188, "nodes": [9064893752, 9064893753, 9064893754, 9064893755, 9064893752], "tags": {"addr:postcode": "12030-190", "addr:street": "Rua Doutor Benedito Cursino dos Santos", "addr:suburb": "Jardim das Na\u00e7\u00f5es", "amenity": "clinic", "building": "yes", "healthcare": "clinic", "healthcare:speciality": "dialysis", "name": "Unidade de Dialise", "operator": "Secretaria de sa\u00fade do Estado de S\u00e3o Paulo", "operator:type": "government"}}]}