{"version": 0.6, "generator": "Overpass API 0.7.61.5 4133829e", "osm3s": {"timestamp_osm_base": "2024-02-26T22:02:15Z", "copyright": "The data included in this document is from www.openstreetmap.org. The data is made available under ODbL."}, "elements": [{"type": "node", "id": 745741443, "lat": -23.5360409, "lon": -46.586934, "tags": {"amenity": "telephone"}}, {"type": "node", "id": 745741469, "lat": -23.5358634, "lon": -46.5861658, "tags": {"addr:city": "S\u00e3o Paulo", "addr:housenumber": "2725", "addr:postcode": "03063-000", "addr:street": "Avenida Celso Garcia", "amenity": "fire_station", "name": "3\u00ba Grupamento de Bombeiros"}}, {"type": "node", "id": 745741489, "lat": -23.5363847, "lon": -46.5881544, "tags": {"addr:city": "S\u00e3o Paulo", "addr:housenumber": "2477", "addr:postcode": "03015-000", "addr:street": "Avenida Celso Garcia"}}, {"type": "node", "id": 1972465032, "lat": -23.5365598, "lon": -46.5893489}, {"type": "node", "id": 1972465034, "lat": -23.5353171, "lon": -46.5886306}, {"type": "node", "id": 1972465036, "lat": -23.5355032, "lon": -46.5896675}, {"type": "node", "id": 1972465044, "lat": -23.5340897, "lon": -46.5849782}, {"type": "node", "id": 1972465046, "lat": -23.5322404, "lon": -46.5883431}, {"type": "node", "id": 1972465047, "lat": -23.5341839, "lon": -46.5916644}, {"type": "node", "id": 1972465049, "lat": -23.531698, "lon": -46.5858009}, {"type": "node", "id": 1972465056, "lat": -23.5321254, "lon": -46.5874}, {"type": "node", "id": 1972465082, "lat": -23.5351088, "lon": -46.588681}, {"type": "node", "id": 1972465084, "lat": -23.5346481, "lon": -46.5863191}, {"type": "node", "id": 1972465090, "lat": -23.5367826, "lon": -46.5902606}, {"type": "node", "id": 1972465091, "lat": -23.536881, "lon": -46.5914086}, {"type": "node", "id": 1972465100, "lat": -23.5320615, "lon": -46.5855474}, {"type": "node", "id": 2389076230, "lat": -23.5351184, "lon": -46.5881021}, {"type": "node", "id": 2389076234, "lat": -23.533996, "lon": -46.5910473}, {"type": "node", "id": 2389076247, "lat": -23.5341123, "lon": -46.5913817}, {"type": "node", "id": 2389076250, "lat": -23.534437, "lon": -46.5863847}, {"type": "node", "id": 2389076314, "lat": -23.5318343, "lon": -46.5856833}, {"type": "node", "id": 2389076320, "lat": -23.5350377, "lon": -46.5882542}, {"type": "node", "id": 2389076325, "lat": -23.5338665, "lon": -46.5907721}, {"type": "node", "id": 2389076328, "lat": -23.5350711, "lon": -46.5879735}, {"type": "node", "id": 2625097488, "lat": -23.5361675, "lon": -46.5858329, "tags": {"addr:city": "S\u00e3o Paulo", "addr:housenumber": "44", "addr:postcode": "03060-020", "addr:street": "Rua Marqu\u00eas de Abrantes"}}, {"type": "node", "id": 2625097490, "lat": -23.5367653, "lon": -46.5856781, "tags": {"addr:city": "S\u00e3o Paulo", "addr:housenumber": "90", "addr:postcode": "03060-020", "addr:street": "Rua Marqu\u00eas de Abrantes", "building": "residential", "building:levels": "18"}}, {"type": "node", "id": 2625097494, "lat": -23.5372475, "lon": -46.5855532, "tags": {"addr:city": "S\u00e3o Paulo", "addr:housename": "Sociedade Brasileira Psican\u00e1lise Hol\u00edstica", "addr:housenumber": "150", "addr:postcode": "03060-020", "addr:street": "Rua Marqu\u00eas de Abrantes"}}, {"type": "node", "id": 2625097495, "lat": -23.5371683, "lon": -46.5855737, "tags": {"addr:city": "S\u00e3o Paulo", "addr:housenumber": "144", "addr:postcode": "03060-020", "addr:street": "Rua Marqu\u00eas de Abrantes"}}, {"type": "node", "id": 2839446950, "lat": -23.5383191, "lon": -46.5893133, "tags": {"addr:city": "S\u00e3o Paulo", "addr:housenumber": "25", "addr:postcode": "03058-060", "addr:street": "Avenida \u00c1lvaro Ramos"}}, {"type": "node", "id": 2934463204, "lat": -23.536099, "lon": -46.5871781, "tags": {"addr:city": "S\u00e3o Paulo", "addr:housenumber": "2593", "addr:postcode": "03063-000", "addr:street": "Avenida Celso Garcia", "name": "Funda\u00e7\u00e3o Casa", "office": "ngo"}}, {"type": "node", "id": 2934463205, "lat": -23.5366472, "lon": -46.5897065}, {"type": "node", "id": 3380500779, "lat": -23.5306827, "lon": -46.5927467}, {"type": "node", "id": 3380500780, "lat": -23.5308067, "lon": -46.5905143}, {"type": "node", "id": 3380500781, "lat": -23.5331134, "lon": -46.5897365}, {"type": "node", "id": 3380500782, "lat": -23.5339897, "lon": -46.5918157}, {"type": "node", "id": 3380500783, "lat": -23.5339396, "lon": -46.5927995}, {"type": "node", "id": 3380508898, "lat": -23.5322773, "lon": -46.5927191}, {"type": "node", "id": 3500114674, "lat": -23.5382079, "lon": -46.5857785, "tags": {"addr:city": "S\u00e3o Paulo", "addr:housenumber": "53", "addr:postcode": "03060-027", "addr:street": "Rua Pedro Vicente M\u00e1rio Galo", "building": "house"}}, {"type": "node", "id": 3940801064, "lat": -23.5365137, "lon": -46.5881312, "tags": {"addr:city": "S\u00e3o Paulo", "addr:housenumber": "2500", "addr:postcode": "03064-100", "addr:street": "Avenida Celso Garcia", "amenity": "pub"}}, {"type": "node", "id": 3940801065, "lat": -23.5366157, "lon": -46.5884723, "tags": {"addr:city": "S\u00e3o Paulo", "addr:housenumber": "2470", "addr:postcode": "03014-000", "addr:street": "Avenida Celso Garcia"}}, {"type": "node", "id": 3944912688, "lat": -23.5371085, "lon": -46.5921213, "tags": {"addr:city": "S\u00e3o Paulo", "addr:housenumber": "2086", "addr:postcode": "03014-000", "addr:street": "Avenida Celso Garcia", "shop": "yes"}}, {"type": "node", "id": 3944912689, "lat": -23.5359991, "lon": -46.5859345, "tags": {"addr:city": "S\u00e3o Paulo", "addr:housenumber": "2724", "addr:postcode": "03064-100", "addr:street": "Avenida Celso Garcia", "amenity": "pub"}}, {"type": "node", "id": 3944912734, "lat": -23.536786, "lon": -46.590215}, {"type": "node", "id": 3944912755, "lat": -23.5370448, "lon": -46.5913869}, {"type": "node", "id": 3944912756, "lat": -23.5369552, "lon": -46.5905285}, {"type": "node", "id": 3944913557, "lat": -23.5369142, "lon": -46.5901931}, {"type": "node", "id": 3944913558, "lat": -23.5367841, "lon": -46.5893806}, {"type": "node", "id": 4356503875, "lat": -23.5306936, "lon": -46.5908952}, {"type": "node", "id": 4356503876, "lat": -23.5307447, "lon": -46.5917985}, {"type": "node", "id": 4360228668, "lat": -23.5306469, "lon": -46.5906028}, {"type": "node", "id": 4360228669, "lat": -23.5341512, "lon": -46.591732}, {"type": "node", "id": 4360228670, "lat": -23.5337847, "lon": -46.5907557}, {"type": "node", "id": 4360228671, "lat": -23.5339827, "lon": -46.5911795}, {"type": "node", "id": 4360228672, "lat": -23.534011, "lon": -46.592078}, {"type": "node", "id": 4588753690, "lat": -23.5380418, "lon": -46.5893972}, {"type": "node", "id": 4588753691, "lat": -23.5381693, "lon": -46.590758}, {"type": "node", "id": 4588770951, "lat": -23.5355144, "lon": -46.5896561}, {"type": "node", "id": 4588770952, "lat": -23.5352205, "lon": -46.5880119}, {"type": "node", "id": 4588770953, "lat": -23.5362919, "lon": -46.5878076}, {"type": "node", "id": 4588770954, "lat": -23.5365735, "lon": -46.5893136}, {"type": "node", "id": 4594917652, "lat": -23.5369251, "lon": -46.590374}, {"type": "node", "id": 4594917653, "lat": -23.5370901, "lon": -46.5905344}, {"type": "node", "id": 4594917654, "lat": -23.5375187, "lon": -46.5904932}, {"type": "node", "id": 4594917655, "lat": -23.5375574, "lon": -46.5904895}, {"type": "node", "id": 4594917657, "lat": -23.5374761, "lon": -46.5904973}, {"type": "node", "id": 4594938758, "lat": -23.5384392, "lon": -46.5875332}, {"type": "node", "id": 4594938759, "lat": -23.5384254, "lon": -46.5874646}, {"type": "node", "id": 4594938760, "lat": -23.5384135, "lon": -46.5874056}, {"type": "node", "id": 4594938761, "lat": -23.538399, "lon": -46.5876267}, {"type": "node", "id": 4594938762, "lat": -23.5383864, "lon": -46.5875641}, {"type": "node", "id": 4594938763, "lat": -23.5384427, "lon": -46.5875507}, {"type": "node", "id": 4594941693, "lat": -23.5384004, "lon": -46.5873408}, {"type": "node", "id": 4594942898, "lat": -23.538385, "lon": -46.5872647}, {"type": "node", "id": 4594969256, "lat": -23.5382776, "lon": -46.5874625}, {"type": "node", "id": 4594969263, "lat": -23.5383148, "lon": -46.5876467}, {"type": "node", "id": 4594985100, "lat": -23.5382487, "lon": -46.5873193}, {"type": "node", "id": 4594985103, "lat": -23.5382577, "lon": -46.5873639}, {"type": "node", "id": 4594985104, "lat": -23.5382513, "lon": -46.5873324}, {"type": "node", "id": 4594985141, "lat": -23.5382374, "lon": -46.5872634}, {"type": "node", "id": 4594985142, "lat": -23.538204, "lon": -46.5870982}, {"type": "node", "id": 4594985143, "lat": -23.5383444, "lon": -46.5870637}, {"type": "node", "id": 4594986520, "lat": -23.538864, "lon": -46.5917841}, {"type": "node", "id": 4594986521, "lat": -23.5389094, "lon": -46.5917803}, {"type": "node", "id": 4594986522, "lat": -23.5389892, "lon": -46.5917737}, {"type": "node", "id": 4594986523, "lat": -23.5390134, "lon": -46.5920063}, {"type": "node", "id": 4594986524, "lat": -23.5390325, "lon": -46.5920049}, {"type": "node", "id": 4594986525, "lat": -23.5390406, "lon": -46.5919967}, {"type": "node", "id": 4594986526, "lat": -23.5391979, "lon": -46.5919829}, {"type": "node", "id": 4594986527, "lat": -23.5391845, "lon": -46.5918596}, {"type": "node", "id": 4594986528, "lat": -23.5385687, "lon": -46.5914141}, {"type": "node", "id": 4594986529, "lat": -23.5383805, "lon": -46.5914308}, {"type": "node", "id": 4594986530, "lat": -23.538388, "lon": -46.5915122}, {"type": "node", "id": 4594986531, "lat": -23.538405, "lon": -46.5917012}, {"type": "node", "id": 4594986532, "lat": -23.5386286, "lon": -46.5916807}, {"type": "node", "id": 4594986533, "lat": -23.5386322, "lon": -46.5917284}, {"type": "node", "id": 4594986534, "lat": -23.5386351, "lon": -46.5917669}, {"type": "node", "id": 4594986535, "lat": -23.5386378, "lon": -46.591803}, {"type": "node", "id": 4594986536, "lat": -23.5386435, "lon": -46.5918025}, {"type": "node", "id": 4594986537, "lat": -23.5386844, "lon": -46.5917991}, {"type": "node", "id": 4594986538, "lat": -23.5387316, "lon": -46.5917952}, {"type": "node", "id": 4594986539, "lat": -23.5387761, "lon": -46.5917915}, {"type": "node", "id": 4594986540, "lat": -23.538818, "lon": -46.591788}, {"type": "node", "id": 4594990669, "lat": -23.5382421, "lon": -46.5899232}, {"type": "node", "id": 4594990670, "lat": -23.5383792, "lon": -46.5914166}, {"type": "node", "id": 4594990671, "lat": -23.5385675, "lon": -46.5913987}, {"type": "node", "id": 4595023525, "lat": -23.5376866, "lon": -46.5894009}, {"type": "node", "id": 4595023526, "lat": -23.5372651, "lon": -46.5894064}, {"type": "node", "id": 4595034378, "lat": -23.5377595, "lon": -46.5907409}, {"type": "node", "id": 4595034384, "lat": -23.5377602, "lon": -46.5907492}, {"type": "node", "id": 4595034385, "lat": -23.537764, "lon": -46.5907963}, {"type": "node", "id": 4595034386, "lat": -23.5379926, "lon": -46.5907737}, {"type": "node", "id": 4595035446, "lat": -23.5381356, "lon": -46.590391}, {"type": "node", "id": 4595039092, "lat": -23.5381534, "lon": -46.5905905}, {"type": "node", "id": 4595049066, "lat": -23.5376973, "lon": -46.5904761}, {"type": "node", "id": 4595049068, "lat": -23.5377424, "lon": -46.590536}, {"type": "node", "id": 4595049069, "lat": -23.5377368, "lon": -46.5904723}, {"type": "node", "id": 4595049077, "lat": -23.5369341, "lon": -46.5894108}, {"type": "node", "id": 4595049078, "lat": -23.5369094, "lon": -46.5894111}, {"type": "node", "id": 4595077230, "lat": -23.5391387, "lon": -46.5913447}, {"type": "node", "id": 4595077237, "lat": -23.538944, "lon": -46.5905065}, {"type": "node", "id": 4595077238, "lat": -23.5389539, "lon": -46.5906204}, {"type": "node", "id": 4595077240, "lat": -23.5387297, "lon": -46.5898412}, {"type": "node", "id": 4595077244, "lat": -23.5390018, "lon": -46.5898125}, {"type": "node", "id": 4595077502, "lat": -23.5385972, "lon": -46.589882}, {"type": "node", "id": 4595077503, "lat": -23.5387325, "lon": -46.5898663}, {"type": "node", "id": 4595077506, "lat": -23.5389898, "lon": -46.5896784}, {"type": "node", "id": 4595077507, "lat": -23.5389643, "lon": -46.5894077}, {"type": "node", "id": 4595077508, "lat": -23.5389393, "lon": -46.5893798}, {"type": "node", "id": 4595077509, "lat": -23.5389138, "lon": -46.5893805}, {"type": "node", "id": 4595077510, "lat": -23.5389179, "lon": -46.5894245}, {"type": "node", "id": 4595077511, "lat": -23.5386136, "lon": -46.589453}, {"type": "node", "id": 4595077512, "lat": -23.5385585, "lon": -46.5894589}, {"type": "node", "id": 4595081271, "lat": -23.538789, "lon": -46.5913778}, {"type": "node", "id": 4595081272, "lat": -23.5390046, "lon": -46.5913574}, {"type": "node", "id": 4595095770, "lat": -23.5372017, "lon": -46.5878429}, {"type": "node", "id": 4595095771, "lat": -23.5371126, "lon": -46.5873783}, {"type": "node", "id": 4595095772, "lat": -23.53702, "lon": -46.5874016}, {"type": "node", "id": 4595095773, "lat": -23.5369561, "lon": -46.5874176}, {"type": "node", "id": 4595095774, "lat": -23.5369419, "lon": -46.5874211}, {"type": "node", "id": 4595095775, "lat": -23.5369476, "lon": -46.5874478}, {"type": "node", "id": 4595095776, "lat": -23.5369228, "lon": -46.5874538}, {"type": "node", "id": 4595095777, "lat": -23.5368585, "lon": -46.5874694}, {"type": "node", "id": 4595095778, "lat": -23.5368751, "lon": -46.5875609}, {"type": "node", "id": 4595095779, "lat": -23.5368926, "lon": -46.5876578}, {"type": "node", "id": 4595095780, "lat": -23.5369095, "lon": -46.587751}, {"type": "node", "id": 4595095781, "lat": -23.5369229, "lon": -46.587825}, {"type": "node", "id": 4595095782, "lat": -23.5369358, "lon": -46.5878963}, {"type": "node", "id": 4595095783, "lat": -23.5369613, "lon": -46.588037}, {"type": "node", "id": 4595095784, "lat": -23.5370086, "lon": -46.5880258}, {"type": "node", "id": 4595095785, "lat": -23.5372265, "lon": -46.5879722}, {"type": "node", "id": 4595096183, "lat": -23.5369448, "lon": -46.5905484}, {"type": "node", "id": 4595096188, "lat": -23.5370328, "lon": -46.5905399}, {"type": "node", "id": 4595097012, "lat": -23.5377504, "lon": -46.5906284}, {"type": "node", "id": 4595097013, "lat": -23.5377468, "lon": -46.5905874}, {"type": "node", "id": 4595097067, "lat": -23.5377585, "lon": -46.5907277}, {"type": "node", "id": 4595097068, "lat": -23.5377534, "lon": -46.5906652}, {"type": "node", "id": 4728839794, "lat": -23.5373118, "lon": -46.5863726, "tags": {"amenity": "drinking_water", "name:en": "Portugu\u00eas"}}, {"type": "node", "id": 5109992351, "lat": -23.5363778, "lon": -46.588323}, {"type": "node", "id": 5109992352, "lat": -23.5363083, "lon": -46.58794}, {"type": "node", "id": 5109992353, "lat": -23.5362794, "lon": -46.5879463}, {"type": "node", "id": 5109992354, "lat": -23.5363489, "lon": -46.5883292}, {"type": "node", "id": 5109992375, "lat": -23.5364866, "lon": -46.588914}, {"type": "node", "id": 5109992376, "lat": -23.5364079, "lon": -46.5884804}, {"type": "node", "id": 5109992377, "lat": -23.536379, "lon": -46.5884866}, {"type": "node", "id": 5109992378, "lat": -23.5364577, "lon": -46.5889202}, {"type": "node", "id": 5124727259, "lat": -23.5366612, "lon": -46.5887113, "tags": {"amenity": "parking", "fee": "yes", "note": "Ajustar a posi\u00e7\u00e3o.", "parking": "surface"}}, {"type": "node", "id": 5258200322, "lat": -23.5366903, "lon": -46.5897086}, {"type": "node", "id": 5300015219, "lat": -23.5368294, "lon": -46.5907515}, {"type": "node", "id": 5306767562, "lat": -23.5370047, "lon": -46.593289, "tags": {"addr:city": "S\u00e3o Paulo", "addr:housenumber": "1907", "addr:postcode": "03015-000", "addr:street": "Avenida Celso Garcia", "surface": "paved"}}, {"type": "node", "id": 5306767575, "lat": -23.5369281, "lon": -46.5925601, "tags": {"addr:city": "S\u00e3o Paulo", "addr:housenumber": "2043", "addr:postcode": "03015-000", "addr:street": "Avenida Celso Garcia", "bench": "yes", "bus": "yes", "gtfs_id": "80014479", "gtfs_stop_desc": "Avenida Celso Garcia, 2065 Ref.: R Doutor Clementino/ Vl Roberto", "highway": "bus_stop", "lit": "yes", "name": "Parada 1/2/3 - F\u00e1brica de Cultura Parque Bel\u00e9m", "network": "SPTrans", "network:wikidata": "Q7392689", "operator": "SPTrans", "public_transport": "platform", "route_ref": "N301-11;208V-10;2290-10;2290-21;2363-10;2551-10;2552-10;2552-41;2582-10;2582-21;2590-10;2626-10;2666-10;2666-21;2678-10;2678-41;271P-10;274P-10;278A-10;3301-10;390E-10;4210-10", "shelter": "yes", "trolleybus": "yes", "website": "https://www.sptrans.com.br/"}}, {"type": "node", "id": 5306767577, "lat": -23.5368794, "lon": -46.592046, "tags": {"addr:city": "S\u00e3o Paulo", "addr:housenumber": "2099", "addr:postcode": "03015-000", "addr:street": "Avenida Celso Garcia", "bench": "no", "bus": "yes", "highway": "bus_stop", "name": "Parada 1/3 Febem", "network": "SPTrans", "network:wikidata": "Q7392689", "operator": "SPTrans", "public_transport": "platform", "shelter": "no", "trolleybus": "yes"}}, {"type": "node", "id": 5306767581, "lat": -23.5369894, "lon": -46.5908998, "tags": {"addr:city": "S\u00e3o Paulo", "addr:housenumber": "2212", "addr:postcode": "03015-000", "addr:street": "Avenida Celso Garcia", "bench": "no", "bus": "yes", "departures_board": "yes", "highway": "bus_stop", "name": "Parada 1", "network": "SPTrans", "network:wikidata": "Q7392689", "operator": "SPTrans", "public_transport": "platform", "shelter": "no", "trolleybus": "yes"}}, {"type": "node", "id": 6163698763, "lat": -23.5383745, "lon": -46.5893854, "tags": {"addr:city": "S\u00e3o Paulo", "addr:housenumber": "30", "addr:postcode": "03058-060", "addr:street": "Avenida \u00c1lvaro Ramos"}}, {"type": "node", "id": 8223105933, "lat": -23.5368398, "lon": -46.5898363, "tags": {"addr:city": "S\u00e3o Paulo", "addr:housenumber": "2284", "addr:postcode": "03014-000", "addr:street": "Avenida Celso Garcia", "bench": "yes", "bus": "yes", "departures_board": "yes", "description": "Avenida Celso Garcia, 2294 Ref.: Rua Nelson Cruz/ P\u00e7a Major Guilherme Rudge", "gtfs_id": "80014475", "highway": "bus_stop", "lit": "yes", "name": "Parada 1/2/3 - Hosp. Santa Virg\u00ednia", "operator": "SPTrans", "public_transport": "platform", "route_ref": "513L-10;N301-11;208V-10;213E-10;2290-10;2363-10;2551-10;2552-10;2552-41;2582-10;2590-10;2626-10;2666-10;2678-10;271P-10;274P-10;278A-10;3301-10;390E-10;4210-10", "shelter": "yes", "wheelchair": "yes"}}, {"type": "node", "id": 8223105934, "lat": -23.5365295, "lon": -46.5890781, "tags": {"addr:city": "S\u00e3o Paulo", "addr:housenumber": "2439", "addr:postcode": "03015-000", "addr:street": "Avenida Celso Garcia", "bench": "yes", "bus": "yes", "departures_board": "yes", "description": "Avenida Celso Garcia, 2477 Ref.: Pc Major Guilherme Rudge/ Rua Pimenta Bueno", "gtfs_id": "80014474", "highway": "bus_stop", "lit": "yes", "name": "Parada Hospital Leonor Mendes De Barros", "operator": "SPTrans", "public_transport": "platform", "route_ref": "N301-11;208V-10;2290-10;2290-21;2363-10;2551-10;2552-10;2552-41;2582-10;2582-21;2590-10;2626-10;2666-10;2666-21;2678-10;2678-41;271P-10;274P-10;278A-10;3301-10;390E-10;4210-10", "shelter": "yes", "wheelchair": "yes"}}, {"type": "node", "id": 8670107700, "lat": -23.5376542, "lon": -46.5894018}, {"type": "node", "id": 8670107701, "lat": -23.5367964, "lon": -46.5895625}, {"type": "node", "id": 8670107702, "lat": -23.5368575, "lon": -46.5894112}, {"type": "node", "id": 8670107707, "lat": -23.5368315, "lon": -46.5894756, "tags": {"access": "permissive", "addr:city": "S\u00e3o Paulo", "addr:housenumber": "2294", "addr:postcode": "03014-000", "addr:street": "Avenida Celso Garcia", "barrier": "gate", "entrance": "yes"}}, {"type": "node", "id": 8670107708, "lat": -23.5369705, "lon": -46.5894103}, {"type": "node", "id": 9418436483, "lat": -23.5307375, "lon": -46.591352}, {"type": "node", "id": 9418436484, "lat": -23.5307283, "lon": -46.5923884}, {"type": "node", "id": 9418436485, "lat": -23.5307011, "lon": -46.5925882}, {"type": "node", "id": 9503041112, "lat": -23.5379165, "lon": -46.5883244, "tags": {"addr:city": "S\u00e3o Paulo", "addr:housenumber": "555", "addr:postcode": "03058-000", "addr:street": "Rua Conselheiro Cotegipe"}}, {"type": "node", "id": 9503065270, "lat": -23.5384772, "lon": -46.5933408, "tags": {"addr:city": "S\u00e3o Paulo", "addr:housenumber": "33", "addr:postcode": "03058-000", "addr:street": "Rua Conselheiro Cotegipe"}}, {"type": "node", "id": 9503065271, "lat": -23.5384414, "lon": -46.5929277}, {"type": "node", "id": 9503065273, "lat": -23.5384285, "lon": -46.5927789}, {"type": "node", "id": 9503065274, "lat": -23.5383659, "lon": -46.592107}, {"type": "node", "id": 9503065275, "lat": -23.5382163, "lon": -46.5905124}, {"type": "node", "id": 9503065276, "lat": -23.5381059, "lon": -46.5893327}, {"type": "node", "id": 9503065277, "lat": -23.5381032, "lon": -46.5893076}, {"type": "node", "id": 9503065278, "lat": -23.5379716, "lon": -46.5886184}, {"type": "node", "id": 9503065279, "lat": -23.5378107, "lon": -46.5877597}, {"type": "node", "id": 9503065280, "lat": -23.5376575, "lon": -46.5869668}, {"type": "node", "id": 9503065281, "lat": -23.5375592, "lon": -46.5864703}, {"type": "node", "id": 9503065282, "lat": -23.537456, "lon": -46.5859709}, {"type": "node", "id": 9503065283, "lat": -23.5370707, "lon": -46.5841178}, {"type": "node", "id": 9503065284, "lat": -23.5369031, "lon": -46.5833146}, {"type": "node", "id": 9503065285, "lat": -23.5367848, "lon": -46.5827563, "tags": {"addr:city": "S\u00e3o Paulo", "addr:housenumber": "1133", "addr:postcode": "03058-000", "addr:street": "Rua Conselheiro Cotegipe"}}, {"type": "node", "id": 9503065286, "lat": -23.5384096, "lon": -46.5925763, "tags": {"addr:city": "S\u00e3o Paulo", "addr:housenumber": "101", "addr:postcode": "03058-000", "addr:street": "Rua Conselheiro Cotegipe"}}, {"type": "node", "id": 9503065291, "lat": -23.5383402, "lon": -46.5918328, "tags": {"addr:city": "S\u00e3o Paulo", "addr:housenumber": "181", "addr:postcode": "03058-000", "addr:street": "Rua Conselheiro Cotegipe"}}, {"type": "node", "id": 9503065296, "lat": -23.5383541, "lon": -46.5894395}, {"type": "node", "id": 9503065297, "lat": -23.538393, "lon": -46.5894362}, {"type": "node", "id": 9503065298, "lat": -23.5383912, "lon": -46.5894117}, {"type": "node", "id": 9503065299, "lat": -23.5383523, "lon": -46.5894151}, {"type": "node", "id": 9503065300, "lat": -23.5380005, "lon": -46.5887697, "tags": {"addr:city": "S\u00e3o Paulo", "addr:housenumber": "498", "addr:postcode": "03058-000", "addr:street": "Rua Conselheiro Cotegipe"}}, {"type": "node", "id": 9503065302, "lat": -23.537986, "lon": -46.5886941}, {"type": "node", "id": 9503065310, "lat": -23.53785, "lon": -46.5879694}, {"type": "node", "id": 9503065314, "lat": -23.5378123, "lon": -46.5877685, "tags": {"addr:city": "S\u00e3o Paulo", "addr:housenumber": "605", "addr:postcode": "03058-000", "addr:street": "Rua Conselheiro Cotegipe"}}, {"type": "node", "id": 9503067121, "lat": -23.5375525, "lon": -46.5864376, "tags": {"addr:city": "S\u00e3o Paulo", "addr:housenumber": "737", "addr:postcode": "03058-000", "addr:street": "Rua Conselheiro Cotegipe"}}, {"type": "node", "id": 9503067126, "lat": -23.5372842, "lon": -46.5851445, "tags": {"addr:city": "S\u00e3o Paulo", "addr:housenumber": "872", "addr:postcode": "03058-000", "addr:street": "Rua Conselheiro Cotegipe"}}, {"type": "node", "id": 9503067133, "lat": -23.5370865, "lon": -46.5841937, "tags": {"addr:city": "S\u00e3o Paulo", "addr:housenumber": "972", "addr:postcode": "03058-000", "addr:street": "Rua Conselheiro Cotegipe"}}, {"type": "node", "id": 9503067138, "lat": -23.5369615, "lon": -46.5835947, "tags": {"addr:city": "S\u00e3o Paulo", "addr:housenumber": "1050", "addr:postcode": "03058-000", "addr:street": "Rua Conselheiro Cotegipe"}}, {"type": "node", "id": 9915790399, "lat": -23.5382527, "lon": -46.5893142, "tags": {"addr:city": "S\u00e3o Paulo", "addr:housenumber": "17", "addr:postcode": "03058-060", "addr:street": "Avenida \u00c1lvaro Ramos"}}, {"type": "node", "id": 9915790402, "lat": -23.5395407, "lon": -46.5892956, "tags": {"addr:city": "S\u00e3o Paulo", "addr:housenumber": "156", "addr:postcode": "03058-060", "addr:street": "Avenida \u00c1lvaro Ramos"}}, {"type": "node", "id": 9917155878, "lat": -23.5391533, "lon": -46.5915093, "tags": {"addr:city": "S\u00e3o Paulo", "addr:housenumber": "45", "addr:postcode": "03059-050", "addr:street": "Rua Professor Rodolfo S\u00e3o Tiago", "entrance": "yes"}}, {"type": "node", "id": 9917155891, "lat": -23.5390789, "lon": -46.5906758}, {"type": "node", "id": 9917155892, "lat": -23.5390473, "lon": -46.5903222}, {"type": "node", "id": 9917155893, "lat": -23.53896, "lon": -46.5906903}, {"type": "node", "id": 9917155894, "lat": -23.5389583, "lon": -46.5904631}, {"type": "node", "id": 9917155895, "lat": -23.5389618, "lon": -46.5905038}, {"type": "node", "id": 9917155896, "lat": -23.5389862, "lon": -46.5904594}, {"type": "node", "id": 9917155897, "lat": -23.538974, "lon": -46.5903326}, {"type": "node", "id": 9917155908, "lat": -23.5388586, "lon": -46.5898268}, {"type": "node", "id": 9917155909, "lat": -23.5386426, "lon": -46.5898767}, {"type": "node", "id": 11103545358, "lat": -23.5353822, "lon": -46.5864731, "tags": {"amenity": "fire_station", "name": "GAED - Esta\u00e7\u00e3o de Bombeiros Bel\u00e9m"}}, {"type": "way", "id": 186523219, "nodes": [1972465056, 1972465049, 2389076314, 1972465100, 1972465044, 2389076250, 1972465084, 2389076328, 2389076230, 2389076320, 1972465082, 1972465034, 1972465036, 1972465032, 2934463205, 1972465090, 1972465091, 1972465047, 2389076247, 2389076234, 2389076325, 1972465046, 1972465056], "tags": {"addr:city": "S\u00e3o Paulo", "addr:housenumber": "2231", "addr:street": "Avenida Celso Garcia", "leisure": "park", "name": "Parque do Bel\u00e9m", "opening_hours": "06:00-18:00"}}, {"type": "way", "id": 330999680, "nodes": [3380500779, 9418436485, 9418436484, 4356503876, 9418436483, 4356503875, 4360228668, 3380500780, 3380500781, 4360228670, 4360228671, 4360228669, 3380500782, 4360228672, 3380500783, 3380508898, 3380500779], "tags": {"addr:city": "S\u00e3o Paulo", "addr:housenumber": "500", "addr:postcode": "03074-000", "addr:street": "Avenida Condessa Elisabeth de Robiano", "addr:suburb": "Bel\u00e9m", "club": "sport", "name": "Associa\u00e7\u00e3o Desportiva Policia Militar", "opening_hours": "Tu-Fr 06:00-21:00; Sa-Su 06:00-18:00", "phone": "(11) 2694-9033", "short_name": "ADPM", "sport": "multi", "website": "https://www.adpm.com.br/"}}, {"type": "way", "id": 343101088, "nodes": [2625097494, 2625097495, 2625097490, 2625097488], "tags": {"addr:inclusion": "estimate", "addr:interpolation": "even", "addr:postcode": "03060-020", "addr:street": "Rua Marqu\u00eas de Abrantes"}}, {"type": "way", "id": 391283699, "nodes": [3940801065, 3944913558, 3944913557, 3944912756, 5306767581, 3944912755, 3944912688], "tags": {"addr:inclusion": "estimate", "addr:interpolation": "even", "addr:street": "Avenida Celso Garcia"}}, {"type": "way", "id": 463617318, "nodes": [4588753691, 4595034386, 4595034385, 4595034384, 4595034378, 4595097067, 4595097068, 4595097012, 4595097013, 4595049068, 4595049069, 4595049066, 4594917655, 4594917654, 4594917657, 4594917653, 4595096188, 4595096183, 4594917652, 8223105933, 8670107701, 8670107707]}, {"type": "way", "id": 463619231, "nodes": [4588770954, 4588770951, 4588770952, 4588770953, 8223105934, 4588770954], "tags": {"addr:city": "S\u00e3o Paulo", "addr:housenumber": "2477", "addr:postcode": "03015-000", "addr:street": "Avenida Celso Garcia", "amenity": "hospital", "contact:email": "contecomigo-hmlmb@saude.sp.gov.br", "contact:fax": "+55 11 2694-4925", "contact:google_plus": "https://plus.google.com/+HospitalMaternidadeLeonorMendesBarrosS%C3%A3oPaulo", "contact:phone": "+55 11 2694-0989", "healthcare": "hospital", "healthcare:speciality": "maternity", "name": "Hospital Maternidade Leonor Mendes de Barros", "operator": "Secretaria de Estado da Sa\u00fade", "operator:type": "government"}}, {"type": "way", "id": 464392400, "nodes": [4594938763, 4594938762, 4594938761, 4594969263, 4594969256, 4594985103, 4594985104, 4594985100, 4594985141, 4594985142, 4594985143, 4594942898, 4594941693, 4594938760, 4594938759, 4594938758, 4594938763], "tags": {"access": "private", "amenity": "parking", "building": "yes", "height": "3.09", "layer": "-1", "parking": "underground", "source": "pmsp"}}, {"type": "way", "id": 464395303, "nodes": [4594986540, 4594986539, 4594986538, 4594986537, 4594986536, 4594986535, 4594986534, 4594986533, 4594986532, 4594986531, 4594986530, 4594986529, 4594986528, 4594990671, 4595081271, 4595081272, 4595077230, 9917155878, 4594986527, 4594986526, 4594986525, 4594986524, 4594986523, 4594986522, 4594986521, 4594986520, 4594986540], "tags": {"access": "private", "amenity": "parking", "building": "yes", "height": "3.164", "layer": "-1", "parking": "underground", "source": "pmsp"}}, {"type": "way", "id": 464404592, "nodes": [4595077512, 4595077511, 4595077510, 4595077509, 4595077508, 4595077507, 4595077506, 4595077244, 9917155908, 4595077240, 4595077503, 9917155909, 4595077502, 4595077512], "tags": {"access": "private", "amenity": "parking", "building": "yes", "height": "4.43", "layer": "-1", "parking": "underground", "source": "pmsp"}}, {"type": "way", "id": 464406229, "nodes": [4595095785, 4595095784, 4595095783, 4595095782, 4595095781, 4595095780, 4595095779, 4595095778, 4595095777, 4595095776, 4595095775, 4595095774, 4595095773, 4595095772, 4595095771, 4595095770, 4595095785], "tags": {"access": "private", "amenity": "parking", "building": "yes", "height": "3.124", "layer": "-1", "parking": "underground", "source": "pmsp"}}, {"type": "way", "id": 525235374, "nodes": [5109992354, 5109992353, 5109992352, 5109992351, 5109992354], "tags": {"access": "customers", "amenity": "parking", "parking": "surface", "surface": "paved"}}, {"type": "way", "id": 525235384, "nodes": [5109992378, 5109992377, 5109992376, 5109992375, 5109992378], "tags": {"access": "customers", "amenity": "parking", "parking": "surface", "surface": "paved"}}, {"type": "way", "id": 565461270, "nodes": [5306767562, 5306767575, 5306767577, 5300015219, 3944912734, 5258200322, 745741489], "tags": {"addr:inclusion": "estimate", "addr:interpolation": "odd", "addr:street": "Avenida Celso Garcia"}}, {"type": "way", "id": 935628584, "nodes": [8670107708, 4595023526, 8670107700, 4595023525, 4588753690, 4595035446, 4595039092, 4588753691], "tags": {"barrier": "hedge"}}, {"type": "way", "id": 935628585, "nodes": [8670107707, 8670107702, 4595049078, 4595049077, 8670107708]}, {"type": "way", "id": 1030964813, "nodes": [9503065270, 9503065271, 9503065273, 9503065286, 9503065274, 9503065291, 9503065275, 9503065276, 9503065277, 9503065300, 9503065302, 9503065278, 9503041112, 9503065310, 9503065314, 9503065279, 9503065280, 9503065281, 9503067121, 9503065282, 9503067126, 9503067133, 9503065283, 9503067138, 9503065284, 9503065285], "tags": {"addr:inclusion": "estimate", "addr:interpolation": "all", "addr:postcode": "03058-000", "addr:street": "Rua Conselheiro Cotegipe"}}, {"type": "way", "id": 1030964815, "nodes": [9503065296, 9503065297, 9503065298, 9503065299, 9503065296], "tags": {"addr:city": "S\u00e3o Paulo", "addr:housenumber": "30", "addr:postcode": "03058-060", "addr:street": "Avenida \u00c1lvaro Ramos", "addr:suburb": "Belem", "building": "yes", "height": "3", "name": "Condom\u00ednio Edif\u00edcio Europa"}}, {"type": "way", "id": 1081932042, "nodes": [9915790402, 2839446950, 9915790399], "tags": {"addr:inclusion": "estimate", "addr:interpolation": "all", "addr:postcode": "03058-060", "addr:street": "Avenida \u00c1lvaro Ramos"}}, {"type": "way", "id": 1082097179, "nodes": [4594990670, 4594990671, 4595081271, 4595081272, 4595077230, 9917155891, 9917155893, 4595077238, 4595077237, 9917155895, 9917155894, 9917155896, 9917155897, 9917155892, 4595077244, 9917155908, 4595077240, 4595077503, 9917155909, 4595077502, 4594990669, 4594990670], "tags": {"access": "private", "amenity": "parking", "building": "yes", "fee": "no", "height": "3.35", "layer": "-1", "parking": "underground", "surface": "concrete"}}, {"type": "relation", "id": 12633804, "members": [{"type": "way", "ref": 463617318, "role": "outer"}, {"type": "way", "ref": 935628584, "role": "outer"}, {"type": "way", "ref": 935628585, "role": "outer"}], "tags": {"addr:city": "S\u00e3o Paulo", "addr:housenumber": "2294", "addr:postcode": "03014-000", "addr:street": "Avenida Celso Garcia", "addr:suburb": "Belem", "amenity": "hospital", "barrier": "wall", "contact:phone": "+55 11 2799-3100;+55 11 2799-3230", "contact:website": "http://www.hsv.org.br", "emergency": "yes", "healthcare": "hospital", "healthcare:speciality": "emergency;paediatrics;ophthalmology;oncology", "height": "3.5", "name": "Hospital Santa Virg\u00ednia", "operator": "Congrega\u00e7\u00e3o das Filhas de Nossa Senhora do Monte Calv\u00e1rio", "operator:type": "religious", "start_date": "1916", "type": "multipolygon"}}]}