{"version": 0.6, "generator": "Overpass API 0.7.61.5 4133829e", "osm3s": {"timestamp_osm_base": "2024-02-26T22:21:30Z", "copyright": "The data included in this document is from www.openstreetmap.org. The data is made available under ODbL."}, "elements": [{"type": "node", "id": 2002651876, "lat": -23.9618026, "lon": -46.3894518, "tags": {"amenity": "place_of_worship", "denomination": "baptist", "name": "Igreja Batista Peniel", "religion": "christian"}}, {"type": "node", "id": 3586447790, "lat": -23.963789, "lon": -46.39086}, {"type": "node", "id": 3586447791, "lat": -23.9637996, "lon": -46.3902085}, {"type": "node", "id": 3586447792, "lat": -23.9643267, "lon": -46.3901945}, {"type": "node", "id": 3586449093, "lat": -23.9642797, "lon": -46.3908553}, {"type": "node", "id": 3586449094, "lat": -23.9644398, "lon": -46.390853}, {"type": "node", "id": 3586449095, "lat": -23.9644035, "lon": -46.3914624}, {"type": "node", "id": 3586449096, "lat": -23.9641368, "lon": -46.3914671}, {"type": "node", "id": 3586449097, "lat": -23.9641965, "lon": -46.390888}, {"type": "node", "id": 3987032547, "lat": -23.9632266, "lon": -46.3859419, "tags": {"amenity": "fuel", "brand": "Shell", "brand:wikidata": "Q110716465", "brand:wikipedia": "en:Royal Dutch Shell", "name": "Shell"}}, {"type": "node", "id": 9208171218, "lat": -23.9668961, "lon": -46.3862558, "tags": {"addr:housenumber": "527", "addr:street": "Rua Jacob Emerick", "name": "Cart\u00f3rio de S\u00e3o Vicente", "office": "government", "opening_hours": "Mo-Fr 09:00-18:00"}}, {"type": "node", "id": 11159666221, "lat": -23.9637853, "lon": -46.3853854, "tags": {"addr:city": "S\u00e3o Vicente", "addr:housenumber": "576", "addr:postcode": "11310400", "addr:street": "Rua Quinze de Novembro", "addr:suburb": "Centro", "amenity": "dentist", "description": "A Dentari Odonto Cl\u00ednicas foi criada para elevar o seu conceito de qualidade e tecnologia em todas as \u00e1reas da odontologia.", "healthcare": "dentist", "healthcare:speciality": "dentist", "name": "Dentari Odonto Cl\u00ednicas S\u00e3o Vicente", "opening_hours": "Mo-Fr 08:00-19:30; Sa 08:00-13:00", "operator": "Dentari Odonto Cl\u00ednicas"}}, {"type": "node", "id": 11464022414, "lat": -23.964137, "lon": -46.391465}, {"type": "node", "id": 11464022415, "lat": -23.9644038, "lon": -46.391457}, {"type": "node", "id": 11464461011, "lat": -23.9650862, "lon": -46.3870157}, {"type": "node", "id": 11464461012, "lat": -23.9650666, "lon": -46.3869652}, {"type": "node", "id": 11464461013, "lat": -23.9651058, "lon": -46.3868902}, {"type": "node", "id": 11464461014, "lat": -23.9648833, "lon": -46.3867494}, {"type": "node", "id": 11464461015, "lat": -23.9648665, "lon": -46.3866821}, {"type": "node", "id": 11464461016, "lat": -23.9649211, "lon": -46.3866423}, {"type": "node", "id": 11464461017, "lat": -23.9650708, "lon": -46.3867219}, {"type": "node", "id": 11464461018, "lat": -23.965152, "lon": -46.386578}, {"type": "node", "id": 11464461019, "lat": -23.965012, "lon": -46.3864816}, {"type": "node", "id": 11464461020, "lat": -23.9650736, "lon": -46.386376}, {"type": "node", "id": 11464461021, "lat": -23.9653064, "lon": -46.3865076}, {"type": "node", "id": 11464470697, "lat": -23.9642023, "lon": -46.3885069}, {"type": "node", "id": 11464470698, "lat": -23.9641564, "lon": -46.388498}, {"type": "node", "id": 11464470699, "lat": -23.9642019, "lon": -46.3884093}, {"type": "node", "id": 11464470700, "lat": -23.9642404, "lon": -46.3884323}, {"type": "node", "id": 11464471007, "lat": -23.9643424, "lon": -46.3862309}, {"type": "node", "id": 11464471008, "lat": -23.9644796, "lon": -46.3859141}, {"type": "node", "id": 11464471009, "lat": -23.9643298, "lon": -46.3858498}, {"type": "node", "id": 11464471010, "lat": -23.9642109, "lon": -46.3861743}, {"type": "way", "id": 352866100, "nodes": [3586447790, 3586447791, 3586447792, 3586449093, 3586449094, 11464022415, 3586449095, 3586449096, 11464022414, 3586449097, 3586447790], "tags": {"addr:city": "S\u00e3o vicente", "addr:housenumber": "798", "addr:street": "Avenida Capit\u00e3o Mor Aguiar", "addr:suburb": "Parque Bitaru", "amenity": "university", "name": "Unibr - Faculdade de S\u00e3o vicente"}}, {"type": "way", "id": 1235079666, "nodes": [11464470697, 11464470698, 11464470699, 11464470700, 11464470697], "tags": {"addr:city": "S\u00e3o vicente", "addr:housenumber": "352", "addr:street": "Rua Campos Sales", "addr:suburb": "Centro", "craft": "shoemaker", "name": "Sapataria Doctor T\u00eanis"}}, {"type": "way", "id": 1235080129, "nodes": [11464461011, 11464461012, 11464461013, 11464461014, 11464461015, 11464461016, 11464461017, 11464461018, 11464461019, 11464461020, 11464461021, 11464461011], "tags": {"amenity": "hospital", "healthcare": "hospital", "name": "Hospital S\u00e3o Jos\u00e9"}}, {"type": "way", "id": 1235080424, "nodes": [11464471007, 11464471008, 11464471009, 11464471010, 11464471007], "tags": {"amenity": "police", "building": "yes", "name": "Delegacia Sede de S\u00e3o Vicente"}}]}