{"version": 0.6, "generator": "Overpass API 0.7.61.5 4133829e", "osm3s": {"timestamp_osm_base": "2024-02-26T22:08:15Z", "copyright": "The data included in this document is from www.openstreetmap.org. The data is made available under ODbL."}, "elements": [{"type": "node", "id": 3025167614, "lat": -23.4667289, "lon": -46.5294272}, {"type": "node", "id": 3025167615, "lat": -23.4670449, "lon": -46.5290964}, {"type": "node", "id": 4341926791, "lat": -23.4673421, "lon": -46.5324169}, {"type": "node", "id": 4346687534, "lat": -23.4671866, "lon": -46.530782}, {"type": "node", "id": 4346691016, "lat": -23.4674752, "lon": -46.5309277}, {"type": "node", "id": 4346691017, "lat": -23.4674425, "lon": -46.530109}, {"type": "node", "id": 4346691018, "lat": -23.4675783, "lon": -46.5301026}, {"type": "node", "id": 4346691020, "lat": -23.467645, "lon": -46.5309196}, {"type": "node", "id": 4356151323, "lat": -23.4657252, "lon": -46.5354323}, {"type": "node", "id": 4356151324, "lat": -23.465999, "lon": -46.5352358}, {"type": "node", "id": 4356151325, "lat": -23.4660113, "lon": -46.5351526}, {"type": "node", "id": 4356151326, "lat": -23.4660137, "lon": -46.535099}, {"type": "node", "id": 4356151327, "lat": -23.4659744, "lon": -46.5350266}, {"type": "node", "id": 4356151328, "lat": -23.4658243, "lon": -46.5348764}, {"type": "node", "id": 4356151329, "lat": -23.4657037, "lon": -46.5347423}, {"type": "node", "id": 4356151330, "lat": -23.4654331, "lon": -46.5342595}, {"type": "node", "id": 4356151332, "lat": -23.4651895, "lon": -46.5344218}, {"type": "node", "id": 5854258444, "lat": -23.4669402, "lon": -46.5290345}, {"type": "node", "id": 5854258445, "lat": -23.4667074, "lon": -46.5293281}, {"type": "node", "id": 5854258446, "lat": -23.4667008, "lon": -46.5292658}, {"type": "node", "id": 5854258447, "lat": -23.4670073, "lon": -46.5290534}, {"type": "node", "id": 5854538878, "lat": -23.4676376, "lon": -46.530734}, {"type": "node", "id": 5854538879, "lat": -23.4676035, "lon": -46.5307356}, {"type": "node", "id": 8755801650, "lat": -23.4670926, "lon": -46.5330576}, {"type": "node", "id": 8755801651, "lat": -23.4672335, "lon": -46.5330317}, {"type": "node", "id": 8755801652, "lat": -23.467274, "lon": -46.5329668}, {"type": "node", "id": 8755801653, "lat": -23.4672545, "lon": -46.5328408}, {"type": "node", "id": 8755801654, "lat": -23.4670644, "lon": -46.5328759}, {"type": "node", "id": 8755801659, "lat": -23.4673104, "lon": -46.532254}, {"type": "node", "id": 8755801660, "lat": -23.4678217, "lon": -46.5321358}, {"type": "node", "id": 8755801661, "lat": -23.4678534, "lon": -46.5322988}, {"type": "node", "id": 8755801662, "lat": -23.4675158, "lon": -46.532443}, {"type": "node", "id": 8755801663, "lat": -23.4675039, "lon": -46.5323795}, {"type": "node", "id": 8755801664, "lat": -23.4677082, "lon": -46.5323323}, {"type": "node", "id": 8755801665, "lat": -23.4677204, "lon": -46.5323973}, {"type": "node", "id": 8755801673, "lat": -23.4675601, "lon": -46.5309236, "tags": {"addr:city": "Guarulhos", "addr:housenumber": "262", "addr:postcode": "07011-010", "addr:street": "Rua Capit\u00e3o Gabriel", "entrance": "yes"}}, {"type": "node", "id": 8755801680, "lat": -23.4673581, "lon": -46.5307747}, {"type": "node", "id": 8755801681, "lat": -23.4673445, "lon": -46.5305316}, {"type": "node", "id": 8755801682, "lat": -23.4671701, "lon": -46.5305435}, {"type": "node", "id": 8755801683, "lat": -23.4673513, "lon": -46.5306531, "tags": {"addr:city": "Guarulhos", "addr:housenumber": "72", "addr:postcode": "07010-040", "addr:street": "Rua Nove de Julho"}}, {"type": "node", "id": 8755801684, "lat": -23.467213, "lon": -46.5303237}, {"type": "node", "id": 8755801685, "lat": -23.4673311, "lon": -46.530316}, {"type": "node", "id": 8755801686, "lat": -23.4673255, "lon": -46.5302133}, {"type": "node", "id": 8755801687, "lat": -23.4673157, "lon": -46.5301887}, {"type": "node", "id": 8755801688, "lat": -23.4672988, "lon": -46.5301703}, {"type": "node", "id": 8755801689, "lat": -23.4672664, "lon": -46.5301718}, {"type": "node", "id": 8755801690, "lat": -23.4672031, "lon": -46.530178}, {"type": "node", "id": 8755801692, "lat": -23.4673297, "lon": -46.5302898, "tags": {"addr:city": "Guarulhos", "addr:housenumber": "72", "addr:postcode": "07010-040", "addr:street": "Rua Nove de Julho"}}, {"type": "node", "id": 8786533371, "lat": -23.4696542, "lon": -46.5322777}, {"type": "node", "id": 8786533372, "lat": -23.4696335, "lon": -46.5321839}, {"type": "node", "id": 8786533373, "lat": -23.4694564, "lon": -46.5322596}, {"type": "node", "id": 8786533374, "lat": -23.4694709, "lon": -46.5323522, "tags": {"addr:city": "Guarulhos", "addr:housenumber": "56", "addr:postcode": "07023-070", "addr:street": "Rua Doutor Nilo Pe\u00e7anha", "addr:suburb": "Centro"}}, {"type": "node", "id": 9267650389, "lat": -23.4659969, "lon": -46.5307529}, {"type": "node", "id": 9267650390, "lat": -23.4659542, "lon": -46.5305405}, {"type": "node", "id": 9267650391, "lat": -23.4658359, "lon": -46.5305595}, {"type": "node", "id": 9267650392, "lat": -23.4657938, "lon": -46.5304471}, {"type": "node", "id": 9267650393, "lat": -23.4661921, "lon": -46.5303457}, {"type": "node", "id": 9267650394, "lat": -23.4662136, "lon": -46.5304642}, {"type": "node", "id": 9267650395, "lat": -23.4660491, "lon": -46.5305165}, {"type": "node", "id": 9267650396, "lat": -23.4660965, "lon": -46.5307323}, {"type": "node", "id": 9275636257, "lat": -23.4643188, "lon": -46.5322555}, {"type": "node", "id": 9275636258, "lat": -23.4647289, "lon": -46.5321289}, {"type": "node", "id": 9275636259, "lat": -23.4645772, "lon": -46.5318472}, {"type": "node", "id": 9275636260, "lat": -23.4642233, "lon": -46.5319452}, {"type": "node", "id": 9275636261, "lat": -23.4642907, "lon": -46.5322677}, {"type": "node", "id": 9276462982, "lat": -23.4659523, "lon": -46.5314089}, {"type": "node", "id": 9276462983, "lat": -23.4659712, "lon": -46.5320046}, {"type": "node", "id": 9276462984, "lat": -23.4657649, "lon": -46.5320011}, {"type": "node", "id": 9276462985, "lat": -23.4657334, "lon": -46.5314312}, {"type": "node", "id": 9276462986, "lat": -23.4657355, "lon": -46.5314678}, {"type": "node", "id": 9828449890, "lat": -23.4660909, "lon": -46.5304784}, {"type": "node", "id": 9828449891, "lat": -23.4660893, "lon": -46.5305155}, {"type": "node", "id": 9828449892, "lat": -23.4660698, "lon": -46.5305273}, {"type": "node", "id": 11481240632, "lat": -23.4686394, "lon": -46.5344169}, {"type": "node", "id": 11481240633, "lat": -23.468593, "lon": -46.5342065}, {"type": "node", "id": 11481240634, "lat": -23.4684442, "lon": -46.5342455}, {"type": "node", "id": 11481240635, "lat": -23.4684906, "lon": -46.5344559}, {"type": "node", "id": 11481478045, "lat": -23.4688241, "lon": -46.5295943}, {"type": "node", "id": 11481478046, "lat": -23.4689321, "lon": -46.5295869}, {"type": "node", "id": 11481478047, "lat": -23.4689365, "lon": -46.5296626}, {"type": "node", "id": 11481478048, "lat": -23.4689651, "lon": -46.5296606}, {"type": "node", "id": 11481478049, "lat": -23.4689681, "lon": -46.5297128}, {"type": "node", "id": 11481478050, "lat": -23.4689244, "lon": -46.5297159}, {"type": "node", "id": 11481478051, "lat": -23.4689266, "lon": -46.5297533}, {"type": "node", "id": 11481478052, "lat": -23.4688922, "lon": -46.5297557}, {"type": "node", "id": 11481478053, "lat": -23.4688929, "lon": -46.5297685}, {"type": "node", "id": 11481478054, "lat": -23.4688345, "lon": -46.5297726}, {"type": "node", "id": 11596909947, "lat": -23.4693685, "lon": -46.5299228}, {"type": "node", "id": 11596909948, "lat": -23.4692339, "lon": -46.5299575}, {"type": "node", "id": 11596909949, "lat": -23.4692589, "lon": -46.5300724}, {"type": "node", "id": 11596909950, "lat": -23.4692187, "lon": -46.5300828}, {"type": "node", "id": 11596909951, "lat": -23.469243, "lon": -46.5301948}, {"type": "node", "id": 11596909952, "lat": -23.4693647, "lon": -46.530178}, {"type": "node", "id": 11596909953, "lat": -23.4693275, "lon": -46.5300068}, {"type": "node", "id": 11596909954, "lat": -23.4693836, "lon": -46.5299923}, {"type": "node", "id": 11596909955, "lat": -23.4693186, "lon": -46.5301843}, {"type": "node", "id": 11596909956, "lat": -23.4693208, "lon": -46.5302462}, {"type": "node", "id": 11596909957, "lat": -23.4692602, "lon": -46.5302489}, {"type": "node", "id": 11596909958, "lat": -23.4692488, "lon": -46.530194}, {"type": "node", "id": 11596909959, "lat": -23.4694043, "lon": -46.5302393}, {"type": "node", "id": 11596909960, "lat": -23.4693891, "lon": -46.5301745}, {"type": "node", "id": 11596909961, "lat": -23.4694413, "lon": -46.5302376}, {"type": "node", "id": 11596909962, "lat": -23.4694064, "lon": -46.5300875}, {"type": "node", "id": 11596909963, "lat": -23.4693716, "lon": -46.5300949}, {"type": "node", "id": 11596909964, "lat": -23.4693503, "lon": -46.5300009}, {"type": "way", "id": 298623922, "nodes": [3025167614, 3025167615, 5854258447, 5854258444, 5854258446, 5854258445, 3025167614], "tags": {"addr:city": "Guarulhos", "addr:housenumber": "439", "addr:street": "Rua Jo\u00e3o Gon\u00e7alves", "addr:suburb": "Centro", "amenity": "library", "building": "yes", "name": "Biblioteca Monteiro Lobato", "opening_hours": "Mo-Fr 09:00-19:00; Sa 09:00-18:00", "phone": "+55 11 2087-6900", "wikidata": "Q63256637", "wikimedia_commons": "Category:Biblioteca Monteiro Lobato (Guarulhos)"}}, {"type": "way", "id": 436806355, "nodes": [4346691016, 4346691017, 4346691018, 5854538879, 5854538878, 4346691020, 8755801673, 4346691016], "tags": {"addr:city": "Guarulhos", "addr:housenumber": "262", "addr:postcode": "07011-010", "addr:street": "Rua Capit\u00e3o Gabriel", "addr:suburb": "Centro", "amenity": "bank", "brand": "Santander", "brand:wikidata": "Q5835668", "brand:wikipedia": "en:Santander Bank", "building": "yes", "name": "Santander"}}, {"type": "way", "id": 437827942, "nodes": [4356151323, 4356151324, 4356151325, 4356151326, 4356151327, 4356151328, 4356151329, 4356151330, 4356151332, 4356151323], "tags": {"addr:city": "Guarulhos", "addr:housenumber": "205", "addr:postcode": "07090-230", "addr:street": "Rua Assis Chateaubriand", "addr:suburb": "Centro", "building": "yes", "leisure": "sports_centre", "name": "YMCA - ACM", "opening_hours": "06:00 - 22:00", "phone": "+55 11 2472 5600"}}, {"type": "way", "id": 945792269, "nodes": [8755801650, 8755801651, 8755801652, 8755801653, 8755801654, 8755801650], "tags": {"addr:city": "Guarulhos", "addr:housenumber": "72", "addr:postcode": "07090-070", "addr:street": "Rua Ot\u00e1vio Forghieri", "addr:suburb": "Jardim Gumercindo", "building": "yes", "height": "35", "name": "Edif\u00edcio City Hall"}}, {"type": "way", "id": 945792271, "nodes": [4341926791, 8755801659, 8755801660, 8755801661, 8755801664, 8755801663, 4341926791], "tags": {"addr:city": "Guarulhos", "addr:housenumber": "103", "addr:postcode": "07011-060", "addr:street": "Rua Jos\u00e9 Maur\u00edcio de Oliveira", "addr:suburb": "Centro", "amenity": "courthouse", "building": "yes", "height": "14", "name": "F\u00f3rum Civel de Guarulhos"}}, {"type": "way", "id": 945792272, "nodes": [8755801662, 8755801663, 8755801664, 8755801665, 8755801662], "tags": {"building": "yes", "height": "10"}}, {"type": "way", "id": 945792275, "nodes": [4346687534, 8755801680, 8755801683, 8755801681, 8755801682, 4346687534], "tags": {"addr:city": "Guarulhos", "addr:housenumber": "72", "addr:postcode": "07010-040", "addr:street": "Rua Nove de Julho", "addr:suburb": "Centro", "amenity": "bank", "atm": "yes", "brand": "Bradesco", "brand:wikidata": "Q806181", "brand:wikipedia": "en:Banco Bradesco", "building": "yes", "height": "6", "name": "Bradesco", "opening_hours": "Mo-Fr 10:00-16:00", "roof:colour": "silver"}}, {"type": "way", "id": 945792276, "nodes": [8755801684, 8755801685, 8755801692, 8755801686, 8755801687, 8755801688, 8755801689, 8755801690, 8755801684], "tags": {"addr:city": "Guarulhos", "addr:housenumber": "22", "addr:postcode": "07010-040", "addr:street": "Rua Nove de Julho", "addr:suburb": "Centro", "building": "yes", "height": "21", "name": "Edif\u00edcio E.E Gambo"}}, {"type": "way", "id": 949145506, "nodes": [8786533371, 8786533372, 8786533373, 8786533374, 8786533371], "tags": {"addr:city": "Guarulhos", "addr:housenumber": "56", "addr:postcode": "07023-070", "addr:street": "Rua Doutor Nilo Pe\u00e7anha", "addr:suburb": "Centro", "amenity": "clinic", "building": "yes", "healthcare": "clinic", "name": "Endocrinologia Metab\u00f3lica Paulista"}}, {"type": "way", "id": 1004443941, "nodes": [9267650389, 9267650390, 9267650391, 9267650392, 9267650393, 9267650394, 9828449890, 9828449891, 9828449892, 9267650395, 9267650396, 9267650389], "tags": {"addr:street": "Pra\u00e7a Presidente Get\u00falio Vargas", "amenity": "police", "building": "yes", "name": "Guarda Civil Municipal de Guarulhos"}}, {"type": "way", "id": 1005340407, "nodes": [9275636257, 9275636258, 9275636259, 9275636260, 9275636261, 9275636257], "tags": {"addr:city": "Guarulhos", "addr:street": "Rua Jos\u00e9 Maur\u00edcio", "addr:suburb": "Centro", "building": "yes", "name": "Supermercado extra", "shop": "supermarket"}}, {"type": "way", "id": 1005441527, "nodes": [9276462982, 9276462983, 9276462984, 9276462986, 9276462985, 9276462982], "tags": {"addr:city": "Guarulhos", "addr:street": "Pra\u00e7a Presidente Get\u00falio Vargas", "addr:suburb": "Centro", "building": "apartments", "name": "Nahin Rachid"}}, {"type": "way", "id": 1236466774, "nodes": [11481240632, 11481240633, 11481240634, 11481240635, 11481240632], "tags": {"addr:city": "Guarulhos", "addr:housenumber": "166 / 174", "addr:street": "Rua Doutor Gast\u00e3o Vidigal", "addr:suburb": "Centro", "building": "yes", "contact:email": "1rc@cartorioguarulhos.com.br", "government": "register_office", "name": "1\u00ba Cart\u00f3rio de Registro Civil de Guarulhos", "office": "government", "official_name": "Oficial de Registro Civil das Pessoas Naturais e de Interdi\u00e7\u00f5es e Tutelas do 1\u00ba Subdistrito da Sede da Comarca de Guarulhos", "opening_hours": "Mo-Fr 08:30-17:00; Sa 08:30-12:00", "phone": "+55 11 2087-7899 / 2409-7608"}}, {"type": "way", "id": 1236481674, "nodes": [11481478045, 11481478046, 11481478047, 11481478048, 11481478049, 11481478050, 11481478051, 11481478052, 11481478053, 11481478054, 11481478045], "tags": {"building": "yes"}}, {"type": "way", "id": 1247481860, "nodes": [11596909947, 11596909948, 11596909949, 11596909950, 11596909951, 11596909958, 11596909955, 11596909952, 11596909953, 11596909964, 11596909954, 11596909947], "tags": {"building": "yes", "name": "Antigo Pa\u00e7o Municipal", "name:en": "Old Municipal Hall"}}, {"type": "way", "id": 1247481861, "nodes": [11596909955, 11596909956, 11596909957, 11596909958, 11596909955], "tags": {"building": "yes"}}, {"type": "way", "id": 1247481862, "nodes": [11596909956, 11596909959, 11596909960, 11596909952, 11596909955, 11596909956], "tags": {"building": "yes"}}, {"type": "way", "id": 1247481863, "nodes": [11596909959, 11596909961, 11596909962, 11596909963, 11596909960, 11596909959], "tags": {"building": "yes"}}, {"type": "way", "id": 1247481864, "nodes": [11596909954, 11596909962, 11596909963, 11596909964, 11596909954], "tags": {"building": "yes"}}]}