{"version": 0.6, "generator": "Overpass API 0.7.61.5 4133829e", "osm3s": {"timestamp_osm_base": "2024-02-26T22:16:28Z", "copyright": "The data included in this document is from www.openstreetmap.org. The data is made available under ODbL."}, "elements": [{"type": "node", "id": 1417680466, "lat": -23.6236687, "lon": -46.5656061}, {"type": "node", "id": 2915165616, "lat": -23.6206164, "lon": -46.5615449, "tags": {"amenity": "school", "name": "Col\u00e9gio F\u00eanix - Unidade 1"}}, {"type": "node", "id": 4261759014, "lat": -23.6251335, "lon": -46.5653807}, {"type": "node", "id": 4261759015, "lat": -23.6255176, "lon": -46.5653769}, {"type": "node", "id": 4261759016, "lat": -23.6255232, "lon": -46.5651065}, {"type": "node", "id": 4261759017, "lat": -23.6251397, "lon": -46.5651121}, {"type": "node", "id": 4261759035, "lat": -23.6231181, "lon": -46.5610191}, {"type": "node", "id": 4261759036, "lat": -23.6230936, "lon": -46.5608234}, {"type": "node", "id": 4261759037, "lat": -23.6233405, "lon": -46.560826}, {"type": "node", "id": 4261759038, "lat": -23.6233381, "lon": -46.5609977}, {"type": "node", "id": 5602713119, "lat": -23.6240556, "lon": -46.5656624, "tags": {"addr:city": "S\u00e3o Caetano do Sul", "addr:street": "Rua Gonzaga", "amenity": "taxi", "name": "Ponto de T\u00e1xi 19 Benefic\u00eancia Portuguesa", "phone": "+55 11 4221 1664"}}, {"type": "node", "id": 5950378288, "lat": -23.6230653, "lon": -46.5608448}, {"type": "node", "id": 5950378289, "lat": -23.6230978, "lon": -46.5610171}, {"type": "node", "id": 5950378292, "lat": -23.6230859, "lon": -46.561}, {"type": "node", "id": 5950378293, "lat": -23.6231175, "lon": -46.560999}, {"type": "node", "id": 5950378294, "lat": -23.6231029, "lon": -46.5609992}, {"type": "node", "id": 5950378295, "lat": -23.6230854, "lon": -46.560968}, {"type": "node", "id": 5950378296, "lat": -23.6230643, "lon": -46.5609668}, {"type": "node", "id": 7602180947, "lat": -23.6233857, "lon": -46.5654327}, {"type": "node", "id": 7602180948, "lat": -23.6234714, "lon": -46.5654312}, {"type": "node", "id": 7602180949, "lat": -23.6234692, "lon": -46.5652852}, {"type": "node", "id": 7602180950, "lat": -23.6235688, "lon": -46.5652835}, {"type": "node", "id": 7602180951, "lat": -23.6235718, "lon": -46.5654916}, {"type": "node", "id": 7602180952, "lat": -23.6233866, "lon": -46.5654948}, {"type": "node", "id": 7602180953, "lat": -23.6233352, "lon": -46.565273}, {"type": "node", "id": 7602180954, "lat": -23.6234762, "lon": -46.5652701}, {"type": "node", "id": 7602180955, "lat": -23.6234728, "lon": -46.5650735}, {"type": "node", "id": 7602180956, "lat": -23.62359, "lon": -46.5650711}, {"type": "node", "id": 7602180957, "lat": -23.6236849, "lon": -46.5650692}, {"type": "node", "id": 7602180958, "lat": -23.623688, "lon": -46.5652471}, {"type": "node", "id": 7602180959, "lat": -23.6236625, "lon": -46.5652476}, {"type": "node", "id": 7602180960, "lat": -23.623341, "lon": -46.5656128}, {"type": "node", "id": 10822127533, "lat": -23.6220897, "lon": -46.5639988}, {"type": "node", "id": 10822127534, "lat": -23.6224133, "lon": -46.5639842}, {"type": "node", "id": 10822127535, "lat": -23.6224, "lon": -46.5634924}, {"type": "node", "id": 10822127536, "lat": -23.6220806, "lon": -46.5635167}, {"type": "node", "id": 10822127540, "lat": -23.622938, "lon": -46.5631148, "tags": {"addr:street": "Rua Rio de Janeiro", "amenity": "taxi", "contact:phone": "+55 11 4224 6339", "name": "Ponto 15"}}, {"type": "node", "id": 10822409013, "lat": -23.6217024, "lon": -46.5643185}, {"type": "node", "id": 10822409014, "lat": -23.6218253, "lon": -46.5643212}, {"type": "node", "id": 10822409015, "lat": -23.6218228, "lon": -46.5642139}, {"type": "node", "id": 10822409016, "lat": -23.6217024, "lon": -46.5642085}, {"type": "node", "id": 10822409017, "lat": -23.6221226, "lon": -46.564525, "tags": {"addr:housenumber": "1732", "addr:street": "Rua S\u00e3o Paulo", "amenity": "pharmacy", "dispensing": "yes", "drive_through": "no", "healthcare": "pharmacy", "name": "BioPharma"}}, {"type": "node", "id": 10822409018, "lat": -23.6221153, "lon": -46.5646001, "tags": {"addr:housenumber": "1728", "addr:street": "Rua S\u00e3o Paulo", "amenity": "restaurant", "name": "Mamma Mia Restaurante"}}, {"type": "node", "id": 10822409019, "lat": -23.6221005, "lon": -46.5648898}, {"type": "node", "id": 10822409020, "lat": -23.622275, "lon": -46.5648925}, {"type": "node", "id": 10822409021, "lat": -23.6222824, "lon": -46.5647933}, {"type": "node", "id": 10822409022, "lat": -23.6220981, "lon": -46.564804}, {"type": "node", "id": 10832803917, "lat": -23.6197543, "lon": -46.565978}, {"type": "node", "id": 10832803918, "lat": -23.6199888, "lon": -46.5659842}, {"type": "node", "id": 10832803919, "lat": -23.619979, "lon": -46.5658179}, {"type": "node", "id": 10832803920, "lat": -23.6197529, "lon": -46.5658232}, {"type": "node", "id": 10832803925, "lat": -23.6211369, "lon": -46.5656212, "tags": {"addr:street": "Rua Maranh\u00e3o", "amenity": "fast_food", "name": "Dom Carmino Lanches"}}, {"type": "node", "id": 10832803926, "lat": -23.6215003, "lon": -46.5658627, "tags": {"addr:housenumber": "270", "addr:street": "Rua Nossa Senhora de F\u00e1tima", "amenity": "veterinary", "contact:mobile": "+55 11 95051 4058", "contact:phone": "+55 11 4229 3084", "email": "recepcaopetresult@gmail.com", "name": "PetreSult Diagn\u00f3stico Veterin\u00e1rio", "opening_hours": "Mo-Fr 09:00-18:00; Sa 09:00-14:00; Su,PH off", "phone": "+55 11 4228 3994", "website": "https://www.petresult.com.br/"}}, {"type": "node", "id": 10833966946, "lat": -23.6239256, "lon": -46.5658338, "tags": {"addr:street": "Rua Gonzaga", "amenity": "pharmacy", "dispensing": "yes", "drive_through": "no", "healthcare": "pharmacy", "name": "Drogaria Real", "phone": "+55 11 4229 5517"}}, {"type": "node", "id": 10833966948, "lat": -23.6237183, "lon": -46.5656277}, {"type": "node", "id": 10833966949, "lat": -23.6238661, "lon": -46.5656277}, {"type": "node", "id": 10833966950, "lat": -23.6238702, "lon": -46.5654687}, {"type": "node", "id": 10833966951, "lat": -23.6239024, "lon": -46.5654642}, {"type": "node", "id": 10833966952, "lat": -23.6239018, "lon": -46.5653582}, {"type": "node", "id": 10833966953, "lat": -23.6237205, "lon": -46.5651705}, {"type": "node", "id": 10833966954, "lat": -23.6237307, "lon": -46.5654687}, {"type": "node", "id": 10833966955, "lat": -23.6237168, "lon": -46.5654678}, {"type": "node", "id": 10833966956, "lat": -23.623841, "lon": -46.565164}, {"type": "node", "id": 10833992074, "lat": -23.6241651, "lon": -46.5656615, "tags": {"addr:housenumber": "557", "addr:street": "Rua Nossa Senhora de F\u00e1tima", "amenity": "veterinary", "description": "Medicina de Pets Silvestres e Ex\u00f3ticos", "name": "Macaw Cl\u00ednica veterin\u00e1ria", "phone": "+55 11 4318 2924"}}, {"type": "node", "id": 10833998420, "lat": -23.6238395, "lon": -46.5653547}, {"type": "node", "id": 10833998421, "lat": -23.6251157, "lon": -46.5652404}, {"type": "node", "id": 10833998422, "lat": -23.6255083, "lon": -46.5652345}, {"type": "node", "id": 10833998423, "lat": -23.6234861, "lon": -46.5649815}, {"type": "node", "id": 10833998424, "lat": -23.623967, "lon": -46.5649883}, {"type": "node", "id": 10833998425, "lat": -23.623967, "lon": -46.5648891}, {"type": "node", "id": 10833998426, "lat": -23.6234861, "lon": -46.564885}, {"type": "node", "id": 10833998427, "lat": -23.6240567, "lon": -46.5650659}, {"type": "node", "id": 10833998428, "lat": -23.6244878, "lon": -46.5650495}, {"type": "node", "id": 10833998429, "lat": -23.6244927, "lon": -46.564934}, {"type": "node", "id": 10833998430, "lat": -23.6240492, "lon": -46.5649448}, {"type": "node", "id": 10833998432, "lat": -23.624048, "lon": -46.5654085}, {"type": "node", "id": 10833998433, "lat": -23.6241476, "lon": -46.5654099}, {"type": "node", "id": 10833998434, "lat": -23.6241464, "lon": -46.565229}, {"type": "node", "id": 10833998435, "lat": -23.6240417, "lon": -46.5652331}, {"type": "node", "id": 10834006478, "lat": -23.6240853, "lon": -46.5654493, "tags": {"addr:housenumber": "426", "addr:street": "Rua Gonzaga", "amenity": "cafe", "name": "Bonkhaf\u00e9 Bistr\u00f4", "outdoor_seating": "no"}}, {"type": "node", "id": 10834006479, "lat": -23.6240604, "lon": -46.5655948, "tags": {"addr:housenumber": "400", "addr:street": "Rua Gonzaga", "amenity": "dentist", "contact:mobile": "+55 11 99294 1882", "healthcare": "dentist", "healthcare:speciality": "periodontia;general;orthodontics", "name": "Gesuele Odontologia", "operator": "Karina Gesuele Pereira", "phone": "+55 11 4226 6363", "ref": "CROSP-120859"}}, {"type": "node", "id": 10834057008, "lat": -23.6246859, "lon": -46.5659688}, {"type": "node", "id": 10834057009, "lat": -23.6249487, "lon": -46.5659756}, {"type": "node", "id": 10834057010, "lat": -23.6249475, "lon": -46.5658124}, {"type": "node", "id": 10834057011, "lat": -23.6247506, "lon": -46.565807}, {"type": "node", "id": 10834057012, "lat": -23.6247407, "lon": -46.5658614}, {"type": "node", "id": 10834057013, "lat": -23.6246883, "lon": -46.5658586}, {"type": "way", "id": 426922387, "nodes": [4261759014, 4261759015, 10833998422, 4261759016, 4261759017, 10833998421, 4261759014], "tags": {"amenity": "place_of_worship", "building": "yes", "denomination": "mormon", "name": "A Igreja de Jesus Cristo dos Santos dos \u00daltimos Dias", "religion": "christian"}}, {"type": "way", "id": 426922390, "nodes": [4261759035, 5950378289, 5950378294, 5950378292, 5950378295, 5950378296, 5950378288, 4261759036, 4261759037, 4261759038, 5950378293, 4261759035], "tags": {"addr:city": "S\u00e3o Caetano do Sul", "addr:street": "Rua Giovanni Thom\u00e9", "addr:suburb": "Vila Paula", "amenity": "place_of_worship", "building": "church", "denomination": "presbyterian", "email": "presbiteriana.vilapaula@gmail.com", "name": "Igreja Presbeteriana do Brasil", "phone": "+55 11 4221 3979", "religion": "christian", "website": "https://www.ipb.org.br/"}}, {"type": "way", "id": 813834260, "nodes": [7602180952, 7602180951, 7602180950, 7602180949, 7602180948, 7602180947, 7602180952]}, {"type": "way", "id": 813834261, "nodes": [7602180960, 1417680466, 7602180959, 7602180958, 7602180957, 7602180956, 7602180955, 7602180954, 7602180953, 7602180960]}, {"type": "way", "id": 1163646760, "nodes": [10822127533, 10822127534, 10822127535, 10822127536, 10822127533], "tags": {"addr:housenumber": "55", "addr:street": "Rua Vital Brasil Filho", "addr:suburb": "Olimpico", "alt_name": "Bloco A", "amenity": "hospital", "contact:phone": "+55 11 4233 7525", "emergency": "yes", "healthcare": "hospital", "healthcare:speciality": "gynaecology", "loc_name": "Hospital da Mulher de S\u00e3o Caetano do Sul", "name": "Hospital Municipal Euryclides de Jesus Zerbini", "operator": "Secretaria da Sa\u00fade", "operator:type": "government", "phone": "+55 11 4233 7524"}}, {"type": "way", "id": 1163675475, "nodes": [10822409013, 10822409014, 10822409015, 10822409016, 10822409013], "tags": {"addr:street": "Rua S\u00e3o Paulo", "amenity": "pharmacy", "brand": "Droga Raia", "brand:wikidata": "Q10357101", "building": "yes", "dispensing": "yes", "drive_through": "no", "healthcare": "pharmacy", "name": "Droga Raia", "opening_hours": "24/7"}}, {"type": "way", "id": 1163675476, "nodes": [10822409019, 10822409020, 10822409021, 10822409022, 10822409019], "tags": {"addr:housenumber": "1694", "addr:postcode": "09541-100", "addr:street": "Rua S\u00e3o Paulo", "amenity": "hospital", "healthcare": "hospital", "healthcare:speciality": "hemodi\u00e1lise", "name": "DaVita Tratamento Renal", "opening_hours": "Mo-Sa 05:00-21:00; Su,PH off", "phone": "+55 11 4228 1113", "website": "https://www.davita.com.br/tratamento-renal"}}, {"type": "way", "id": 1164748396, "nodes": [10832803917, 10832803918, 10832803919, 10832803920, 10832803917], "tags": {"addr:street": "Rua Nossa Senhora de F\u00e1tima", "amenity": "events_venue", "building": "yes", "name": "Mundo M\u00e1gico Buffet"}}, {"type": "way", "id": 1164859373, "nodes": [10833966948, 10833966949, 10833966950, 10833966951, 10833966952, 10833998420, 10833966956, 10833966953, 10833966954, 10833966955, 10833966948], "tags": {"addr:street": "Rua Gonzaga", "amenity": "hospital", "emergency": "yes", "healthcare": "hospital", "name": "Hospital Benefic\u00eancia Portuguesa de S\u00e3o Caetano do Sul"}}, {"type": "way", "id": 1164861171, "nodes": [10833998423, 10833998424, 10833998425, 10833998426, 10833998423], "tags": {"access": "yes", "addr:housenumber": "459", "addr:street": "Rua Gonzaga", "amenity": "parking", "fee": "yes", "operator": "SkiPark", "operator:type": "private", "parking": "surface", "surface": "paved"}}, {"type": "way", "id": 1164861172, "nodes": [10833998427, 10833998428, 10833998429, 10833998430, 10833998427], "tags": {"access": "yes", "addr:housenumber": "450", "addr:street": "Rua Gonzaga", "amenity": "parking", "fee": "yes", "opening_hours": "24/7", "operator": "MultiPark", "operator:type": "private", "parking": "surface", "payment:sem_parar": "yes"}}, {"type": "way", "id": 1164861173, "nodes": [10833998432, 10833998433, 10833998434, 10833998435, 10833998432], "tags": {"access": "yes", "addr:housenumber": "428", "addr:street": "Rua Gonzaga", "amenity": "parking", "capacity": "12", "fee": "yes", "opening_hours": "Mo-Su 08:00-19:00; PH off", "operator": "MiniPark", "operator:type": "private", "parking": "surface", "surface": "paved"}}, {"type": "way", "id": 1164867989, "nodes": [10834057008, 10834057009, 10834057010, 10834057011, 10834057012, 10834057013, 10834057008], "tags": {"access": "yes", "addr:street": "Rua Nossa Senhora de F\u00e1tima", "amenity": "parking", "fee": "yes", "opening_hours": "Mo-Fr 07:00-18:00; Sa,Su,PH off", "parking": "surface", "phone": "+55 11 99943 4143", "surface": "paved"}}, {"type": "relation", "id": 11182609, "members": [{"type": "way", "ref": 813834260, "role": "inner"}, {"type": "way", "ref": 813834261, "role": "outer"}], "tags": {"addr:city": "S\u00e3o Caetano do Sul", "addr:housenumber": "497", "addr:street": "Rua Nossa Senhora de F\u00e1tima", "alt_name": "Hospital Nossa Sra de F\u00e1tima", "amenity": "hospital", "emergency": "yes", "healthcare": "hospital", "name": "Hospital Nossa Senhora de F\u00e1tima", "operator": "Sociedade Portuguesa de Benefic\u00eancia de S\u00e3o Caetano do Sul", "operator:type": "private_non_profit", "phone": "+55 11 4227 8200", "type": "multipolygon"}}]}