{"version": 0.6, "generator": "Overpass API 0.7.61.5 4133829e", "osm3s": {"timestamp_osm_base": "2024-02-19T19:54:15Z", "copyright": "The data included in this document is from www.openstreetmap.org. The data is made available under ODbL."}, "elements": [{"type": "node", "id": 2995188489, "lat": -23.6469896, "lon": -46.8464388}, {"type": "node", "id": 2995188490, "lat": -23.6470187, "lon": -46.8463368}, {"type": "node", "id": 2995188495, "lat": -23.6471811, "lon": -46.8463845}, {"type": "node", "id": 2995188496, "lat": -23.6472131, "lon": -46.8463005}, {"type": "node", "id": 2995188499, "lat": -23.6472612, "lon": -46.8465341}, {"type": "node", "id": 2995188500, "lat": -23.6473203, "lon": -46.8463325}, {"type": "node", "id": 6153267790, "lat": -23.6509837, "lon": -46.8494446}, {"type": "node", "id": 6153267791, "lat": -23.651098, "lon": -46.8495361}, {"type": "node", "id": 6153267792, "lat": -23.6511858, "lon": -46.8494315}, {"type": "node", "id": 6153267793, "lat": -23.6512061, "lon": -46.8494514}, {"type": "node", "id": 6153267794, "lat": -23.6511008, "lon": -46.8495619}, {"type": "node", "id": 6153267795, "lat": -23.6511804, "lon": -46.8496144}, {"type": "node", "id": 6153267796, "lat": -23.6513757, "lon": -46.8492881}, {"type": "node", "id": 6153267797, "lat": -23.6513504, "lon": -46.8492701}, {"type": "node", "id": 6153267798, "lat": -23.6512798, "lon": -46.8493883}, {"type": "node", "id": 6153267799, "lat": -23.6512267, "lon": -46.8493504}, {"type": "node", "id": 6153267800, "lat": -23.6513237, "lon": -46.8491883}, {"type": "node", "id": 6153267801, "lat": -23.6512166, "lon": -46.8491119}, {"type": "node", "id": 7011740635, "lat": -23.6487404, "lon": -46.8475953}, {"type": "node", "id": 7011740636, "lat": -23.6487296, "lon": -46.8473571}, {"type": "node", "id": 7011740637, "lat": -23.6488902, "lon": -46.847329}, {"type": "node", "id": 7011740638, "lat": -23.6493112, "lon": -46.8473227}, {"type": "node", "id": 7011740639, "lat": -23.6493399, "lon": -46.8475785}, {"type": "node", "id": 7011740640, "lat": -23.6489241, "lon": -46.8475944}, {"type": "node", "id": 7011740646, "lat": -23.6486876, "lon": -46.8474779, "tags": {"addr:city": "Embu das Artes", "addr:street": "Avenida Elias Yazbek", "entrance": "yes"}}, {"type": "node", "id": 10034732825, "lat": -23.6508732, "lon": -46.8500954}, {"type": "node", "id": 10034732827, "lat": -23.6506799, "lon": -46.8501414}, {"type": "node", "id": 10034732828, "lat": -23.6508254, "lon": -46.8500306}, {"type": "node", "id": 10034732829, "lat": -23.6507545, "lon": -46.8502104}, {"type": "node", "id": 10034732834, "lat": -23.6510417, "lon": -46.8502334}, {"type": "node", "id": 10034732835, "lat": -23.6510838, "lon": -46.8501832}, {"type": "node", "id": 10034732836, "lat": -23.651147, "lon": -46.8502396}, {"type": "node", "id": 10034732837, "lat": -23.6511029, "lon": -46.8502981}, {"type": "node", "id": 10039577278, "lat": -23.6488903, "lon": -46.8473431}, {"type": "node", "id": 10039577279, "lat": -23.6489133, "lon": -46.847576}, {"type": "node", "id": 10039577280, "lat": -23.6487326, "lon": -46.8475008}, {"type": "node", "id": 10039577281, "lat": -23.6486999, "lon": -46.8474418}, {"type": "node", "id": 10039577282, "lat": -23.6487296, "lon": -46.847444}, {"type": "node", "id": 10039621011, "lat": -23.6483479, "lon": -46.8482196, "tags": {"addr:housenumber": "1871", "addr:postcode": "06803-000", "addr:street": "Avenida Elias Yazbek", "addr:suburb": "Cercado Grande", "amenity": "pharmacy", "dispensing": "yes", "drive_through": "no", "healthcare": "pharmacy", "name": "Prazeres Drogaria", "website": "https://prazeresdrogaria.com.br/home"}}, {"type": "node", "id": 10039621012, "lat": -23.6483409, "lon": -46.8481584, "tags": {"addr:housenumber": "1516", "addr:street": "Avenida Elias Yazbek", "amenity": "driving_school", "name": "Centro de Forma\u00e7\u00e3o de Condutores Marka"}}, {"type": "way", "id": 295759216, "nodes": [2995188489, 2995188490, 2995188495, 2995188496, 2995188500, 2995188499, 2995188489], "tags": {"amenity": "fuel", "brand": "Ipiranga", "brand:wikidata": "Q2081136", "brand:wikipedia": "pt:Ipiranga (empresa)", "building": "roof", "layer": "1", "name": "Ipiranga", "self_service": "no"}}, {"type": "way", "id": 656935735, "nodes": [6153267790, 6153267791, 6153267792, 6153267793, 6153267794, 6153267795, 6153267796, 6153267797, 6153267798, 6153267799, 6153267800, 6153267801, 6153267790], "tags": {"addr:housenumber": "1388", "addr:street": "Avenida Elias Yazbek", "amenity": "place_of_worship", "building": "chapel", "contact:mobile": "+55 11 99146 6348", "denomination": "mormon", "name": "A Igreja de Jesus Cristo dos Santos dos \u00daltimos Dias", "religion": "christian", "service_times": "Su 10:20"}}, {"type": "way", "id": 749831140, "nodes": [7011740635, 10039577280, 7011740646, 10039577281, 10039577282, 7011740636, 10039577278, 7011740637, 7011740638, 7011740639, 7011740640, 10039577279, 7011740635], "tags": {"addr:housenumber": "1415", "addr:street": "Avenida Elias Yazbek", "addr:suburb": "Cercado Grande", "amenity": "hospital", "building": "yes", "healthcare": "hospital", "healthcare:speciality": "maternity", "name": "Maternidade Municipal Alice Campos Mendes Machado", "operator": "Prefeitura", "operator:type": "government", "phone": "+55 11 4785 0155"}}, {"type": "way", "id": 1095704496, "nodes": [10034732827, 10034732828, 10034732825, 10034732829, 10034732827], "tags": {"addr:housenumber": "1335", "addr:street": "Avenida Elias Yazbek", "amenity": "university", "name": "Espa\u00e7o Colaborativo Educacional", "operator": "Universidade Cruzeiro do Sul", "phone": "+55 11 98995 0225"}}, {"type": "way", "id": 1095704498, "nodes": [10034732834, 10034732835, 10034732836, 10034732837, 10034732834], "tags": {"amenity": "fast_food", "building": "yes"}}]}