{"version": 0.6, "generator": "Overpass API 0.7.61.5 4133829e", "osm3s": {"timestamp_osm_base": "2024-02-19T19:54:15Z", "copyright": "The data included in this document is from www.openstreetmap.org. The data is made available under ODbL."}, "elements": [{"type": "node", "id": 2599975252, "lat": -23.5212145, "lon": -46.5618913}, {"type": "node", "id": 2599975254, "lat": -23.5225471, "lon": -46.5616752}, {"type": "node", "id": 2599975257, "lat": -23.5225593, "lon": -46.5625644}, {"type": "node", "id": 2599975259, "lat": -23.5225995, "lon": -46.5634244}, {"type": "node", "id": 2599975260, "lat": -23.5226339, "lon": -46.5636875}, {"type": "node", "id": 2599975261, "lat": -23.5227077, "lon": -46.5640964}, {"type": "node", "id": 2599975263, "lat": -23.5229687, "lon": -46.5651123}, {"type": "node", "id": 2599975264, "lat": -23.5228416, "lon": -46.5649721}, {"type": "node", "id": 3725415469, "lat": -23.5227245, "lon": -46.5654375}, {"type": "node", "id": 3725415470, "lat": -23.5229532, "lon": -46.5654851}, {"type": "node", "id": 3725415471, "lat": -23.5229881, "lon": -46.5652855}, {"type": "node", "id": 3725415472, "lat": -23.5227593, "lon": -46.5652379}, {"type": "node", "id": 5448172321, "lat": -23.5227431, "lon": -46.5653979, "tags": {"amenity": "car_wash", "automated": "no", "self_service": "no"}}, {"type": "node", "id": 5467328826, "lat": -23.5211988, "lon": -46.5617247}, {"type": "node", "id": 5467328827, "lat": -23.5225498, "lon": -46.5615546}, {"type": "node", "id": 5467328828, "lat": -23.5225681, "lon": -46.5615479}, {"type": "node", "id": 5467328829, "lat": -23.5225802, "lon": -46.5615303}, {"type": "node", "id": 5467328830, "lat": -23.5226126, "lon": -46.5609405}, {"type": "node", "id": 5467328831, "lat": -23.5226005, "lon": -46.5608963}, {"type": "node", "id": 5467328832, "lat": -23.522562, "lon": -46.5608742}, {"type": "node", "id": 5467328833, "lat": -23.5224972, "lon": -46.5608609}, {"type": "node", "id": 5467328834, "lat": -23.522404, "lon": -46.5608786}, {"type": "node", "id": 5467328835, "lat": -23.521134, "lon": -46.5612276}, {"type": "node", "id": 5467328836, "lat": -23.522323, "lon": -46.5615831}, {"type": "node", "id": 5467328837, "lat": -23.5224364, "lon": -46.5615689}, {"type": "node", "id": 5467328842, "lat": -23.5225773, "lon": -46.5630032}, {"type": "node", "id": 5467328843, "lat": -23.522824, "lon": -46.564611}, {"type": "node", "id": 5467328844, "lat": -23.5229193, "lon": -46.5650665}, {"type": "node", "id": 5467328847, "lat": -23.522085, "lon": -46.5617446, "tags": {"addr:city": "S\u00e3o Paulo", "addr:postcode": "02181-160", "addr:street": "Rua Francisco Fanganielo", "bench": "yes", "bus": "yes", "gtfs_id": "9112353", "gtfs_stop_desc": "Ref.: Av Morvan Dias de Figueiredo/avenida Emilio Giaquinto", "highway": "bus_stop", "name": "Rua Francisco Fanganiello, 127", "network": "SPTrans", "network:wikidata": "Q7392689", "operator": "SPTrans", "public_transport": "platform", "route_ref": "N232-11;121G-10;2026-10;271A-10;272N-10", "shelter": "yes"}}, {"type": "node", "id": 5467328849, "lat": -23.5222962, "lon": -46.5617161, "tags": {"amenity": "taxi", "capacity": "4", "name": "Ponto de T\u00e1xi Hospital Vermelhinho", "official_name": "Ponto de T\u00e1xi 1647", "shelter": "yes"}}, {"type": "node", "id": 5467328850, "lat": -23.5222325, "lon": -46.5617247, "tags": {"amenity": "telephone", "operator": "Vivo"}}, {"type": "node", "id": 6717666201, "lat": -23.5216582, "lon": -46.5666177}, {"type": "node", "id": 6717673696, "lat": -23.5215504, "lon": -46.5657849}, {"type": "node", "id": 6717673698, "lat": -23.5215092, "lon": -46.5657547}, {"type": "node", "id": 6717673700, "lat": -23.5214164, "lon": -46.5656961}, {"type": "node", "id": 6717673701, "lat": -23.5213682, "lon": -46.5656655}, {"type": "node", "id": 6717673702, "lat": -23.5213204, "lon": -46.5656414}, {"type": "node", "id": 6717673704, "lat": -23.5212722, "lon": -46.5656147}, {"type": "node", "id": 8316487593, "lat": -23.522376, "lon": -46.5615774, "tags": {"barrier": "gate", "entrance": "main"}}, {"type": "node", "id": 8943359931, "lat": -23.5228883, "lon": -46.5652648}, {"type": "node", "id": 8943359932, "lat": -23.5229727, "lon": -46.5653733}, {"type": "node", "id": 9294532904, "lat": -23.5217609, "lon": -46.5629493}, {"type": "node", "id": 9297064302, "lat": -23.5225692, "lon": -46.5621743}, {"type": "node", "id": 9297064303, "lat": -23.5225956, "lon": -46.5617388}, {"type": "node", "id": 9297064304, "lat": -23.5225959, "lon": -46.5617192}, {"type": "node", "id": 9297064305, "lat": -23.5225834, "lon": -46.5616994}, {"type": "node", "id": 9297064306, "lat": -23.5225711, "lon": -46.5616863}, {"type": "node", "id": 9297064308, "lat": -23.5225749, "lon": -46.5620793}, {"type": "node", "id": 10563207228, "lat": -23.5212199, "lon": -46.5619367}, {"type": "node", "id": 10563207229, "lat": -23.5212342, "lon": -46.5618592}, {"type": "node", "id": 10785143568, "lat": -23.5208073, "lon": -46.5661335}, {"type": "node", "id": 10785143569, "lat": -23.521102, "lon": -46.5655493}, {"type": "node", "id": 10785143570, "lat": -23.5216672, "lon": -46.5658742}, {"type": "node", "id": 10785143571, "lat": -23.5218935, "lon": -46.5660907}, {"type": "node", "id": 10785143572, "lat": -23.522043, "lon": -46.5663143}, {"type": "node", "id": 10785143575, "lat": -23.5212658, "lon": -46.5665844}, {"type": "node", "id": 10785143576, "lat": -23.5211591, "lon": -46.5664377}, {"type": "node", "id": 10785143577, "lat": -23.5210523, "lon": -46.5663166}, {"type": "node", "id": 10785143578, "lat": -23.5209434, "lon": -46.5662235, "tags": {"addr:city": "S\u00e3o Paulo", "addr:housenumber": "140", "addr:postcode": "02180-020", "addr:street": "Rua Soldado Jos\u00e9 Vicente de Paula", "entrance": "yes"}}, {"type": "node", "id": 10785143579, "lat": -23.5218893, "lon": -46.5666275}, {"type": "node", "id": 10785143580, "lat": -23.5212007, "lon": -46.566495}, {"type": "node", "id": 10785143581, "lat": -23.5215761, "lon": -46.5658046}, {"type": "node", "id": 10785143584, "lat": -23.5218251, "lon": -46.5660253, "tags": {"addr:city": "S\u00e3o Paulo", "addr:housenumber": "25", "addr:postcode": "02180-010", "addr:street": "Rua Soldado Albino C\u00e9sar", "entrance": "yes"}}, {"type": "node", "id": 10785143600, "lat": -23.5201052, "lon": -46.5658642}, {"type": "node", "id": 10785143601, "lat": -23.5202442, "lon": -46.5658905}, {"type": "node", "id": 10785143602, "lat": -23.5203888, "lon": -46.5659248}, {"type": "node", "id": 10785143603, "lat": -23.5206427, "lon": -46.5660198}, {"type": "node", "id": 10785143604, "lat": -23.5207168, "lon": -46.5660562}, {"type": "node", "id": 10785144105, "lat": -23.5209578, "lon": -46.5655226}, {"type": "node", "id": 10785144106, "lat": -23.5205648, "lon": -46.5653871}, {"type": "node", "id": 10785144107, "lat": -23.520474, "lon": -46.5654275}, {"type": "node", "id": 10785144108, "lat": -23.5201033, "lon": -46.5657833}, {"type": "node", "id": 10785144109, "lat": -23.5209589, "lon": -46.5655626}, {"type": "node", "id": 10785144110, "lat": -23.5209352, "lon": -46.5654899}, {"type": "node", "id": 10785144111, "lat": -23.5208387, "lon": -46.5658076, "tags": {"addr:city": "S\u00e3o Paulo", "addr:postcode": "02180-030", "addr:street": "Rua Baiucu", "entrance": "yes"}}, {"type": "node", "id": 10785144112, "lat": -23.5203149, "lon": -46.5655803}, {"type": "node", "id": 10785144113, "lat": -23.5206437, "lon": -46.565409}, {"type": "way", "id": 368694583, "nodes": [3725415469, 3725415470, 8943359932, 3725415471, 8943359931, 3725415472, 3725415469], "tags": {"addr:city": "S\u00e3o Paulo", "addr:housenumber": "1709", "addr:postcode": "02170-000", "addr:street": "Avenida Morvan Dias de Figueiredo", "addr:suburb": "parque Novo Mundo", "amenity": "fuel", "brand": "Boxter", "building": "roof", "name": "Posto Boxter", "opening_hours": "24/7", "roof:material": "metal"}}, {"type": "way", "id": 568254826, "nodes": [5467328836, 8316487593, 5467328837]}, {"type": "way", "id": 568254827, "nodes": [5467328834, 5467328835, 5467328826, 5467328836]}, {"type": "way", "id": 568254828, "nodes": [5467328837, 5467328827, 5467328828, 5467328829, 5467328830, 5467328831, 5467328832, 5467328833, 5467328834]}, {"type": "way", "id": 568254830, "nodes": [2599975254, 9297064306, 9297064305, 9297064304, 9297064303, 9297064308, 9297064302, 2599975257, 5467328842, 2599975259, 2599975260, 2599975261, 5467328843, 2599975263, 5467328844, 2599975264, 9294532904, 10563207228, 2599975252, 10563207229, 5467328847, 5467328850, 5467328849, 2599975254], "tags": {"barrier": "fence"}}, {"type": "way", "id": 1159733381, "nodes": [10785143580, 10785143581, 6717673696, 6717673698, 6717673700, 6717673701, 6717673702, 6717673704, 10785143569, 10785143568, 10785143578, 10785143577, 10785143576, 10785143580], "tags": {"addr:city": "S\u00e3o Paulo", "addr:housenumber": "140", "addr:postcode": "02180-020", "addr:street": "Rua Soldado Jos\u00e9 Vicente de Paula", "addr:suburb": "Parque Novo Mundo", "amenity": "school", "barrier": "wall", "name": "EMEF Coronel Rom\u00e3o Gomes"}}, {"type": "way", "id": 1159733382, "nodes": [10785143580, 10785143575, 6717666201, 10785143579, 10785143572, 10785143571, 10785143584, 10785143570, 10785143581, 10785143580], "tags": {"addr:city": "S\u00e3o Paulo", "addr:housenumber": "25", "addr:postcode": "02180-010", "addr:street": "Rua Soldado Albino C\u00e9sar", "addr:suburb": "Parque Novo Mundo", "amenity": "school", "barrier": "wall", "name": "EMEI Ana Neri"}}, {"type": "way", "id": 1159733385, "nodes": [10785143600, 10785143601, 10785143602, 10785143603, 10785143604, 10785144111, 10785144109, 10785144105, 10785144110, 10785144113, 10785144106, 10785144107, 10785144112, 10785144108, 10785143600], "tags": {"addr:city": "S\u00e3o Paulo", "addr:postcode": "02180-030", "addr:street": "Rua Baiucu", "amenity": "childcare", "barrier": "wall", "name": "CEI Parque Novo Mundo"}}, {"type": "relation", "id": 8095962, "members": [{"type": "way", "ref": 568254826, "role": "outer"}, {"type": "way", "ref": 568254828, "role": "outer"}, {"type": "way", "ref": 568254827, "role": "outer"}], "tags": {"access": "yes", "amenity": "parking", "fee": "yes", "opening_hours": "24/7", "parking": "surface", "supervised": "yes", "surface": "ground", "type": "multipolygon"}}, {"type": "relation", "id": 8095963, "members": [{"type": "way", "ref": 568254830, "role": "outer"}], "tags": {"addr:city": "S\u00e3o Paulo", "addr:housename": "Hospital Vermelinho", "addr:housenumber": "127", "addr:postcode": "02181-160", "addr:street": "Rua Francisco Fanganielo", "amenity": "hospital", "email": "superintendencia@hmvjs.spdm.org.br", "fax": "+55 11 2967-0737", "healthcare": "hospital", "name": "Hospital Municipal Vereador Jos\u00e9 Storopolli", "phone": "+55 11 2207-9008", "type": "multipolygon"}}]}