{"version": 0.6, "generator": "Overpass API 0.7.61.5 4133829e", "osm3s": {"timestamp_osm_base": "2024-02-26T22:03:15Z", "copyright": "The data included in this document is from www.openstreetmap.org. The data is made available under ODbL."}, "elements": [{"type": "node", "id": 3804521309, "lat": -22.2254445, "lon": -49.9356107}, {"type": "node", "id": 3804521310, "lat": -22.2251962, "lon": -49.936131}, {"type": "node", "id": 3804521311, "lat": -22.2245954, "lon": -49.9357394}, {"type": "node", "id": 3804521312, "lat": -22.2248337, "lon": -49.9353317}, {"type": "node", "id": 3804521313, "lat": -22.2249281, "lon": -49.9353264}, {"type": "node", "id": 3804521314, "lat": -22.2251118, "lon": -49.9353907}, {"type": "node", "id": 3804521315, "lat": -22.225226, "lon": -49.9354658}, {"type": "node", "id": 5810620870, "lat": -22.2246795, "lon": -49.9325856}, {"type": "node", "id": 5810620871, "lat": -22.2247442, "lon": -49.9326321}, {"type": "node", "id": 5810620873, "lat": -22.2247572, "lon": -49.9326675}, {"type": "node", "id": 5810620874, "lat": -22.2246627, "lon": -49.9328269}, {"type": "node", "id": 5810620875, "lat": -22.2244068, "lon": -49.9328759}, {"type": "node", "id": 5810620876, "lat": -22.224402, "lon": -49.933031}, {"type": "node", "id": 5810620877, "lat": -22.2242697, "lon": -49.9330688}, {"type": "node", "id": 5810620878, "lat": -22.2241832, "lon": -49.9326329}, {"type": "node", "id": 6064857426, "lat": -22.2264939, "lon": -49.9352686}, {"type": "node", "id": 6064857427, "lat": -22.2268986, "lon": -49.9355302}, {"type": "node", "id": 6064857428, "lat": -22.2269926, "lon": -49.9355199}, {"type": "node", "id": 6064857429, "lat": -22.2270563, "lon": -49.9354597}, {"type": "node", "id": 6064857430, "lat": -22.2272603, "lon": -49.9350776}, {"type": "node", "id": 6064857431, "lat": -22.2267759, "lon": -49.9347574}, {"type": "node", "id": 7498872034, "lat": -22.2268105, "lon": -49.9337054}, {"type": "node", "id": 7498872035, "lat": -22.2265058, "lon": -49.9339549}, {"type": "node", "id": 7498872036, "lat": -22.2264239, "lon": -49.9339036}, {"type": "node", "id": 7498872037, "lat": -22.2266188, "lon": -49.9335797}, {"type": "node", "id": 7498872048, "lat": -22.2265093, "lon": -49.9341962}, {"type": "node", "id": 7498872049, "lat": -22.226474, "lon": -49.9342655}, {"type": "node", "id": 7498872050, "lat": -22.2263194, "lon": -49.9341736}, {"type": "node", "id": 7498872051, "lat": -22.2263547, "lon": -49.9341043}, {"type": "node", "id": 7498872052, "lat": -22.2270925, "lon": -49.9334711}, {"type": "node", "id": 7498872053, "lat": -22.2268667, "lon": -49.9333064}, {"type": "node", "id": 7498872054, "lat": -22.2267933, "lon": -49.9334365}, {"type": "node", "id": 7498872055, "lat": -22.2269589, "lon": -49.9335747}, {"type": "node", "id": 7498872056, "lat": -22.2272581, "lon": -49.9331722}, {"type": "node", "id": 7498872057, "lat": -22.2271621, "lon": -49.9333145}, {"type": "node", "id": 7498872058, "lat": -22.2269533, "lon": -49.933156}, {"type": "node", "id": 7498872059, "lat": -22.2270436, "lon": -49.9329913}, {"type": "node", "id": 7601920690, "lat": -22.2237813, "lon": -49.9376953}, {"type": "node", "id": 7601920691, "lat": -22.2239055, "lon": -49.9374734}, {"type": "node", "id": 7601920692, "lat": -22.2244058, "lon": -49.9378013}, {"type": "node", "id": 7601920693, "lat": -22.2242773, "lon": -49.9380279}, {"type": "node", "id": 9885179944, "lat": -22.2244577, "lon": -49.9357146}, {"type": "node", "id": 9885179945, "lat": -22.224197, "lon": -49.9355408}, {"type": "node", "id": 9885179946, "lat": -22.2241988, "lon": -49.9354739}, {"type": "node", "id": 9885179947, "lat": -22.2244052, "lon": -49.935343}, {"type": "node", "id": 9885179948, "lat": -22.224592, "lon": -49.9354916}, {"type": "node", "id": 9885179949, "lat": -22.2256928, "lon": -49.9354739}, {"type": "node", "id": 9885179950, "lat": -22.2258763, "lon": -49.935612}, {"type": "node", "id": 9885179951, "lat": -22.2260991, "lon": -49.9351943}, {"type": "node", "id": 9885179952, "lat": -22.2258959, "lon": -49.9350528}, {"type": "node", "id": 9885179953, "lat": -22.2262297, "lon": -49.9350055}, {"type": "node", "id": 9885179954, "lat": -22.2259342, "lon": -49.9348365}, {"type": "node", "id": 9885179955, "lat": -22.225995, "lon": -49.9347134}, {"type": "node", "id": 9885179956, "lat": -22.2262911, "lon": -49.9348891}, {"type": "node", "id": 9885179957, "lat": -22.2260441, "lon": -49.9345993}, {"type": "node", "id": 9885179958, "lat": -22.2263478, "lon": -49.9347919}, {"type": "node", "id": 9885179959, "lat": -22.2263578, "lon": -49.9345362}, {"type": "node", "id": 9885179960, "lat": -22.2262504, "lon": -49.9347301}, {"type": "node", "id": 9885179961, "lat": -22.2261531, "lon": -49.9343998}, {"type": "node", "id": 10929197178, "lat": -22.2242027, "lon": -49.9325129}, {"type": "node", "id": 10929197179, "lat": -22.2242126, "lon": -49.9326207}, {"type": "node", "id": 10929197180, "lat": -22.2243316, "lon": -49.9324776}, {"type": "node", "id": 10929197181, "lat": -22.2243606, "lon": -49.9325898}, {"type": "node", "id": 10929197182, "lat": -22.224395, "lon": -49.9325819}, {"type": "node", "id": 10929197183, "lat": -22.2244025, "lon": -49.9325413}, {"type": "node", "id": 10929197184, "lat": -22.2246721, "lon": -49.9325017}, {"type": "way", "id": 377088688, "nodes": [3804521309, 3804521310, 3804521311, 3804521312, 3804521313, 3804521314, 3804521315, 3804521309], "tags": {"addr:city": "Marilia", "addr:housenumber": "30", "addr:street": "Rua Doutor Reinaldo Machado", "brand": "Fiat", "brand:wikidata": "Q27597", "brand:wikipedia": "en:Fiat Automobiles", "building": "yes", "name": "Milazzo Fiat Mar\u00edlia", "shop": "car", "website": "https://milazzofiat.com.br/"}}, {"type": "way", "id": 614257438, "nodes": [5810620870, 5810620871, 5810620873, 5810620874, 5810620875, 5810620876, 5810620877, 5810620878, 10929197179, 10929197178, 10929197180, 10929197181, 10929197182, 10929197183, 10929197184, 5810620870], "tags": {"addr:city": "Marilia", "addr:housenumber": "821", "addr:street": "Avenida das Esmeraldas", "brand": "Ibis", "brand:wikidata": "Q920166", "building": "yes", "name": "Hotel Ibis", "tourism": "hotel"}}, {"type": "way", "id": 645075976, "nodes": [6064857426, 6064857427, 6064857428, 6064857429, 6064857430, 6064857431, 6064857426], "tags": {"amenity": "clinic", "building": "yes", "healthcare": "clinic", "name": "Centro de Reabilita\u00e7\u00e3o Lucy Montoro"}}, {"type": "way", "id": 801711234, "nodes": [7498872034, 7498872035, 7498872036, 7498872037, 7498872034], "tags": {"addr:city": "Mar\u00edlia", "addr:housenumber": "1660", "addr:street": "Avenida Tiradentes", "amenity": "fast_food", "brand": "Habib's", "brand:wikidata": "Q2504930", "brand:wikipedia": "en:Habib's", "building": "yes", "cuisine": "middle_eastern", "name": "Habib's", "takeaway": "yes"}}, {"type": "way", "id": 801711237, "nodes": [7498872048, 7498872049, 7498872050, 7498872051, 7498872048], "tags": {"addr:city": "Mar\u00edlia", "addr:housenumber": "1156", "addr:street": "Avenida Tiradentes", "building": "yes", "name": "Bamboo PneuShop", "shop": "tyres"}}, {"type": "way", "id": 801711238, "nodes": [7498872052, 7498872053, 7498872054, 7498872055, 7498872052], "tags": {"addr:city": "Mar\u00edlia", "addr:housenumber": "1200", "addr:street": "Avenida Tiradentes", "amenity": "bank", "brand": "Caixa Econ\u00f4mica Federal", "brand:wikidata": "Q835283", "brand:wikipedia": "pt:Caixa Econ\u00f4mica Federal", "building": "yes", "name": "Caixa Econ\u00f4mica Federal"}}, {"type": "way", "id": 801711239, "nodes": [7498872056, 7498872057, 7498872058, 7498872059, 7498872056], "tags": {"addr:city": "Mar\u00edlia", "addr:housenumber": "1250", "addr:street": "Avenida Tiradentes", "brand": "Jeep", "brand:wikidata": "Q30113", "brand:wikipedia": "en:Jeep", "building": "yes", "name": "Jeep Viviani", "shop": "car", "website": "https://www.jeepviviani.com.br/"}}, {"type": "way", "id": 813810555, "nodes": [7601920693, 7601920692, 7601920691, 7601920690, 7601920693], "tags": {"building": "yes"}}, {"type": "way", "id": 1078210816, "nodes": [9885179944, 9885179945, 9885179946, 9885179947, 9885179948, 9885179944], "tags": {"brand": "Smart Fit", "brand:wikidata": "Q30930959", "building": "yes", "leisure": "fitness_centre", "name": "Smart Fit"}}, {"type": "way", "id": 1078210817, "nodes": [9885179949, 9885179950, 9885179951, 9885179952, 9885179949], "tags": {"brand": "Smart Fit", "brand:wikidata": "Q30930959", "building": "yes", "leisure": "fitness_centre", "name": "Smart Fit"}}, {"type": "way", "id": 1078210818, "nodes": [9885179953, 9885179954, 9885179955, 9885179956, 9885179953], "tags": {"amenity": "pharmacy", "brand": "Droga Raia", "brand:wikidata": "Q10357101", "building": "yes", "dispensing": "yes", "healthcare": "pharmacy", "name": "Droga Raia"}}, {"type": "way", "id": 1078210819, "nodes": [9885179955, 9885179957, 9885179960, 9885179958, 9885179956, 9885179955], "tags": {"amenity": "vehicle_inspection", "building": "yes", "name": "Super Vis\u00e3o - Vistoria de Ve\u00edculos"}}, {"type": "way", "id": 1078210820, "nodes": [9885179957, 9885179961, 9885179959, 9885179960, 9885179957], "tags": {"building": "yes", "name": "Pneu Z", "shop": "car_repair"}}]}