{"version": 0.6, "generator": "Overpass API 0.7.61.5 4133829e", "osm3s": {"timestamp_osm_base": "2024-02-26T22:07:13Z", "copyright": "The data included in this document is from www.openstreetmap.org. The data is made available under ODbL."}, "elements": [{"type": "node", "id": 5164130491, "lat": -23.2814617, "lon": -46.7454504}, {"type": "node", "id": 5164130492, "lat": -23.2815527, "lon": -46.7454057}, {"type": "node", "id": 5164130493, "lat": -23.281612, "lon": -46.7452892}, {"type": "node", "id": 5164130494, "lat": -23.2815525, "lon": -46.745174}, {"type": "node", "id": 5164130495, "lat": -23.281362, "lon": -46.7452928}, {"type": "node", "id": 5391432215, "lat": -23.2819025, "lon": -46.7456531}, {"type": "node", "id": 5391432216, "lat": -23.282083, "lon": -46.7455062}, {"type": "node", "id": 5391432217, "lat": -23.2821463, "lon": -46.7455911}, {"type": "node", "id": 5391432218, "lat": -23.2819692, "lon": -46.7457504}, {"type": "node", "id": 5391434476, "lat": -23.2829094, "lon": -46.7497338}, {"type": "node", "id": 5391434477, "lat": -23.2826422, "lon": -46.749587}, {"type": "node", "id": 5391434478, "lat": -23.2825576, "lon": -46.7496522}, {"type": "node", "id": 5391434479, "lat": -23.2828699, "lon": -46.749837}, {"type": "node", "id": 6048955463, "lat": -23.2825875, "lon": -46.7495923}, {"type": "node", "id": 6048955465, "lat": -23.2826276, "lon": -46.7496165}, {"type": "node", "id": 6250739568, "lat": -23.2819855, "lon": -46.7472098}, {"type": "node", "id": 6250739569, "lat": -23.2821651, "lon": -46.7469798}, {"type": "node", "id": 6250739570, "lat": -23.282261, "lon": -46.7470825}, {"type": "node", "id": 6250739571, "lat": -23.2823497, "lon": -46.7471549}, {"type": "node", "id": 6250739572, "lat": -23.2822035, "lon": -46.7473508}, {"type": "node", "id": 6250739573, "lat": -23.2820791, "lon": -46.7472874}, {"type": "node", "id": 6298374986, "lat": -23.2812303, "lon": -46.745912}, {"type": "node", "id": 6298374987, "lat": -23.2813331, "lon": -46.7459658}, {"type": "node", "id": 6298374988, "lat": -23.2813772, "lon": -46.7458659}, {"type": "node", "id": 6298374989, "lat": -23.2812745, "lon": -46.7458121}, {"type": "node", "id": 6298374996, "lat": -23.2812989, "lon": -46.7455502}, {"type": "node", "id": 6298374998, "lat": -23.2813715, "lon": -46.7455105}, {"type": "node", "id": 6298374999, "lat": -23.2813437, "lon": -46.7454395}, {"type": "node", "id": 6298375000, "lat": -23.2813021, "lon": -46.7453396}, {"type": "node", "id": 6298375001, "lat": -23.281199, "lon": -46.7452864}, {"type": "node", "id": 7859944747, "lat": -23.2827369, "lon": -46.7440316}, {"type": "node", "id": 7859944750, "lat": -23.2827423, "lon": -46.7438254}, {"type": "node", "id": 7859944751, "lat": -23.2826795, "lon": -46.7440269}, {"type": "node", "id": 7859944752, "lat": -23.2827371, "lon": -46.7440269}, {"type": "node", "id": 7859944753, "lat": -23.2826792, "lon": -46.7440412}, {"type": "node", "id": 7859944754, "lat": -23.2827423, "lon": -46.7441523}, {"type": "node", "id": 7859944755, "lat": -23.2831695, "lon": -46.744045}, {"type": "node", "id": 7859944756, "lat": -23.2831524, "lon": -46.7448858}, {"type": "node", "id": 7859944757, "lat": -23.2830688, "lon": -46.744884}, {"type": "node", "id": 7859944758, "lat": -23.2829869, "lon": -46.7446296}, {"type": "node", "id": 7859944759, "lat": -23.2828769, "lon": -46.7440828}, {"type": "node", "id": 7859944760, "lat": -23.282952, "lon": -46.744236}, {"type": "node", "id": 7859944761, "lat": -23.2830134, "lon": -46.7442369}, {"type": "node", "id": 7859944762, "lat": -23.2830156, "lon": -46.7440712}, {"type": "node", "id": 7859944763, "lat": -23.2828771, "lon": -46.744069}, {"type": "node", "id": 7859944764, "lat": -23.2826679, "lon": -46.7440386}, {"type": "node", "id": 7859944765, "lat": -23.2826792, "lon": -46.7440383}, {"type": "node", "id": 7859944766, "lat": -23.2825518, "lon": -46.7438219}, {"type": "node", "id": 9174814439, "lat": -23.2818374, "lon": -46.7441228}, {"type": "node", "id": 9174814440, "lat": -23.2818842, "lon": -46.7441523}, {"type": "node", "id": 9174814441, "lat": -23.2819433, "lon": -46.7439806}, {"type": "node", "id": 9174814442, "lat": -23.2818891, "lon": -46.7439538}, {"type": "node", "id": 9174814443, "lat": -23.2824986, "lon": -46.7445103}, {"type": "node", "id": 9174814444, "lat": -23.2824174, "lon": -46.7443479}, {"type": "node", "id": 9174814445, "lat": -23.2826497, "lon": -46.7441897}, {"type": "node", "id": 9174814446, "lat": -23.2827459, "lon": -46.74435}, {"type": "node", "id": 9174979760, "lat": -23.2842371, "lon": -46.7455135}, {"type": "node", "id": 9174979761, "lat": -23.2843428, "lon": -46.7455916}, {"type": "node", "id": 9174979762, "lat": -23.2843881, "lon": -46.7455094}, {"type": "node", "id": 9174979763, "lat": -23.284407, "lon": -46.7455155}, {"type": "node", "id": 9174979764, "lat": -23.2844315, "lon": -46.7454539}, {"type": "node", "id": 9174979765, "lat": -23.2843182, "lon": -46.7454025}, {"type": "node", "id": 9174979766, "lat": -23.2842692, "lon": -46.7452833}, {"type": "node", "id": 9174979767, "lat": -23.2841861, "lon": -46.745312}, {"type": "node", "id": 9174979768, "lat": -23.2843938, "lon": -46.7456101}, {"type": "node", "id": 9174979769, "lat": -23.2845845, "lon": -46.7457272}, {"type": "node", "id": 9174979770, "lat": -23.2846335, "lon": -46.745608}, {"type": "node", "id": 9174979771, "lat": -23.2844334, "lon": -46.745497}, {"type": "node", "id": 9174979772, "lat": -23.284424, "lon": -46.7455299}, {"type": "node", "id": 9174979773, "lat": -23.2844013, "lon": -46.7455279}, {"type": "node", "id": 9174979774, "lat": -23.2843843, "lon": -46.7455607}, {"type": "node", "id": 9174979775, "lat": -23.2844108, "lon": -46.7455751}, {"type": "node", "id": 9174979776, "lat": -23.284743, "lon": -46.745904}, {"type": "node", "id": 9174979777, "lat": -23.2845982, "lon": -46.7456939}, {"type": "node", "id": 9174979778, "lat": -23.2846279, "lon": -46.7456615}, {"type": "node", "id": 9174979779, "lat": -23.2847827, "lon": -46.7458937}, {"type": "node", "id": 9174979803, "lat": -23.2844766, "lon": -46.7441157}, {"type": "node", "id": 9174979804, "lat": -23.2844279, "lon": -46.7440137}, {"type": "node", "id": 9174979805, "lat": -23.2844486, "lon": -46.744002}, {"type": "node", "id": 9174979806, "lat": -23.2844276, "lon": -46.743958}, {"type": "node", "id": 9174979807, "lat": -23.2844047, "lon": -46.7439709}, {"type": "node", "id": 9174979808, "lat": -23.2843537, "lon": -46.7438638}, {"type": "node", "id": 9174979809, "lat": -23.2844284, "lon": -46.7438257}, {"type": "node", "id": 9174979810, "lat": -23.28448, "lon": -46.7439313}, {"type": "node", "id": 9174979811, "lat": -23.2844653, "lon": -46.7439418}, {"type": "node", "id": 9174979812, "lat": -23.2844797, "lon": -46.7439719}, {"type": "node", "id": 9174979813, "lat": -23.2844992, "lon": -46.7439609}, {"type": "node", "id": 9174979814, "lat": -23.2845525, "lon": -46.7440728}, {"type": "node", "id": 9181097225, "lat": -23.2811585, "lon": -46.745203}, {"type": "node", "id": 9181097226, "lat": -23.2811027, "lon": -46.745065}, {"type": "node", "id": 9181097227, "lat": -23.2812858, "lon": -46.7449047}, {"type": "node", "id": 9181097228, "lat": -23.2813595, "lon": -46.7450239}, {"type": "node", "id": 9181097229, "lat": -23.2813746, "lon": -46.7450177}, {"type": "node", "id": 9181097230, "lat": -23.2813868, "lon": -46.7450339}, {"type": "node", "id": 9181097231, "lat": -23.2812907, "lon": -46.7451291}, {"type": "node", "id": 9181097232, "lat": -23.2812778, "lon": -46.7451029}, {"type": "node", "id": 9181097233, "lat": -23.2817727, "lon": -46.7452415}, {"type": "node", "id": 9181097234, "lat": -23.2817368, "lon": -46.745112}, {"type": "node", "id": 9181097235, "lat": -23.2818501, "lon": -46.7450709}, {"type": "node", "id": 9181097236, "lat": -23.2818973, "lon": -46.7452333}, {"type": "node", "id": 9181152502, "lat": -23.2817612, "lon": -46.7451998}, {"type": "node", "id": 9181152503, "lat": -23.2814616, "lon": -46.7450582}, {"type": "node", "id": 9181152504, "lat": -23.281473, "lon": -46.7452041}, {"type": "node", "id": 9181152505, "lat": -23.2815168, "lon": -46.745161}, {"type": "node", "id": 9181152506, "lat": -23.2814906, "lon": -46.7450891}, {"type": "node", "id": 9181152507, "lat": -23.2815115, "lon": -46.7451218}, {"type": "node", "id": 9521902334, "lat": -23.2841217, "lon": -46.7461209}, {"type": "node", "id": 9521902335, "lat": -23.2843552, "lon": -46.7461327}, {"type": "node", "id": 9521902336, "lat": -23.284357, "lon": -46.7460584}, {"type": "node", "id": 9521902337, "lat": -23.2843355, "lon": -46.746029}, {"type": "node", "id": 9521902338, "lat": -23.2841217, "lon": -46.7460114}, {"type": "node", "id": 9521902340, "lat": -23.2835078, "lon": -46.7464503}, {"type": "node", "id": 9521902341, "lat": -23.2837144, "lon": -46.7460844}, {"type": "node", "id": 9521902342, "lat": -23.2836286, "lon": -46.7460101}, {"type": "node", "id": 9521902343, "lat": -23.2834787, "lon": -46.7462357}, {"type": "node", "id": 9521902344, "lat": -23.2834012, "lon": -46.7463732}, {"type": "node", "id": 9521930190, "lat": -23.281671, "lon": -46.7459534}, {"type": "node", "id": 9521930191, "lat": -23.2817817, "lon": -46.7459102}, {"type": "node", "id": 9521930192, "lat": -23.2817639, "lon": -46.7458347}, {"type": "node", "id": 9521930193, "lat": -23.2816485, "lon": -46.7458758}, {"type": "node", "id": 9521930194, "lat": -23.2817659, "lon": -46.7457296}, {"type": "node", "id": 9521930195, "lat": -23.2816274, "lon": -46.7457783}, {"type": "node", "id": 9521930196, "lat": -23.2816201, "lon": -46.745731}, {"type": "node", "id": 9521930197, "lat": -23.2817196, "lon": -46.7456865}, {"type": "node", "id": 9521930198, "lat": -23.2816958, "lon": -46.7456211}, {"type": "node", "id": 9521930199, "lat": -23.2815948, "lon": -46.7456669}, {"type": "node", "id": 9521982199, "lat": -23.2819197, "lon": -46.7452504}, {"type": "node", "id": 9521982200, "lat": -23.2819849, "lon": -46.7452366}, {"type": "node", "id": 9521982201, "lat": -23.2819491, "lon": -46.7450695}, {"type": "node", "id": 9521982202, "lat": -23.2818818, "lon": -46.7450832}, {"type": "node", "id": 9522014800, "lat": -23.2821784, "lon": -46.7452847}, {"type": "node", "id": 9522014801, "lat": -23.2822731, "lon": -46.745303}, {"type": "node", "id": 9522014802, "lat": -23.2821511, "lon": -46.7450122}, {"type": "node", "id": 9522014803, "lat": -23.2821237, "lon": -46.7450191}, {"type": "node", "id": 9522014804, "lat": -23.2823568, "lon": -46.7453705}, {"type": "node", "id": 9522014805, "lat": -23.282441, "lon": -46.7453155}, {"type": "node", "id": 9522014806, "lat": -23.2824136, "lon": -46.7452377}, {"type": "node", "id": 9522014807, "lat": -23.2823274, "lon": -46.7452904}, {"type": "node", "id": 11002507796, "lat": -23.2811282, "lon": -46.7450439}, {"type": "node", "id": 11030189456, "lat": -23.2813229, "lon": -46.7450924}, {"type": "node", "id": 11030189457, "lat": -23.2813309, "lon": -46.7451018}, {"type": "node", "id": 11030189458, "lat": -23.2817794, "lon": -46.7457614}, {"type": "way", "id": 532095061, "nodes": [5164130491, 5164130492, 5164130493, 5164130494, 5164130495, 5164130491], "tags": {"addr:city": "Francisco Morato", "addr:postcode": "07901-040", "addr:street": "Rua Vinte e Um de Mar\u00e7o", "addr:suburb": "Centro", "amenity": "fuel", "building": "roof", "fuel:diesel": "yes", "fuel:diesel_S10": "yes", "fuel:etanol_comum": "yes", "fuel:ethanol": "yes", "fuel:octane_87": "yes", "name": "Posto Coral", "payment:cash": "yes", "payment:coins": "yes", "payment:notes": "yes", "self_service": "no"}}, {"type": "way", "id": 558947797, "nodes": [5391432215, 5391432216, 5391432217, 5391432218, 5391432215], "tags": {"addr:housenumber": "223", "addr:postcode": "07901-040", "addr:street": "Rua Vinte e Um de Mar\u00e7o", "addr:suburb": "Centro", "amenity": "place_of_worship", "building": "church", "denomination": "roman_catholic", "name": "Par\u00f3quia Sagrado Cora\u00e7\u00e3o de Jesus", "religion": "christian", "service_times": "Su 08:00,10:00,19:00; Sa 19:00"}}, {"type": "way", "id": 558948085, "nodes": [5391434476, 5391434477, 6048955465, 6048955463, 5391434478, 5391434479, 5391434476], "tags": {"addr:street": "Rua Vinte e Um de Abril", "amenity": "place_of_worship", "building": "church", "denomination": "roman_catholic", "name": "Par\u00f3quia S\u00e3o Jos\u00e9", "religion": "christian"}}, {"type": "way", "id": 667588146, "nodes": [6250739568, 6250739569, 6250739570, 6250739571, 6250739572, 6250739573, 6250739568], "tags": {"addr:street": "Rua Vinte e Um de Mar\u00e7o", "addr:suburb": "Bel\u00e9m Esta\u00e7\u00e3o", "brand": "Dia", "brand:wikidata": "Q925132", "brand:wikipedia": "es:Supermercados DIA", "building": "yes", "name": "Dia", "shop": "supermarket"}}, {"type": "way", "id": 672579863, "nodes": [6298374986, 6298374987, 6298374988, 6298374989, 6298374986], "tags": {"addr:housenumber": "75", "addr:postcode": "07905-135", "addr:street": "Rua Dulce Esteves de Oliveira", "amenity": "social_facility", "building": "yes", "loc_name": "CAPSi", "name": "Centro de Aten\u00e7\u00e3o Psicosocial Infantil", "smoking": "outside", "social_facility": "outreach", "social_facility:for": "child"}}, {"type": "way", "id": 672579865, "nodes": [6298374996, 6298374998, 6298374999, 6298375000, 5164130495, 9181152504, 9181152505, 9181152507, 9181152506, 9181152503, 6298375001, 6298374996], "tags": {"addr:street": "Rua Vinte e Um de Mar\u00e7o", "addr:suburb": "Centro", "building": "yes", "name": "Center Coral", "shop": "mall"}}, {"type": "way", "id": 842528741, "nodes": [7859944754, 7859944753, 7859944765, 7859944751, 7859944752, 7859944747, 7859944755, 7859944756, 7859944757, 7859944758, 7859944754]}, {"type": "way", "id": 842528742, "nodes": [7859944759, 7859944760, 7859944761, 7859944762, 7859944763, 7859944759]}, {"type": "way", "id": 842528743, "nodes": [7859944764, 7859944765, 7859944751, 7859944752, 7859944750, 7859944766, 7859944764], "tags": {"building": "office"}}, {"type": "way", "id": 993083933, "nodes": [9174814439, 9174814440, 9174814441, 9174814442, 9174814439], "tags": {"addr:housenumber": "204", "addr:street": "Rua Progresso", "addr:suburb": "Centro", "amenity": "language_school", "building": "yes", "email": "franciscomorato@wizard.com.br", "language:de": "yes", "language:en": "yes", "language:es": "yes", "name": "Wizard", "phone": "+55 11 4881 3084"}}, {"type": "way", "id": 993083934, "nodes": [9174814443, 9174814444, 9174814445, 9174814446, 9174814443], "tags": {"addr:street": "Rua Progresso", "addr:suburb": "Centro", "building": "yes"}}, {"type": "way", "id": 993098631, "nodes": [9174979760, 9174979761, 9174979762, 9174979763, 9174979764, 9174979765, 9174979766, 9174979767, 9174979760], "tags": {"building": "yes"}}, {"type": "way", "id": 993098632, "nodes": [9174979768, 9174979769, 9174979777, 9174979770, 9174979771, 9174979772, 9174979773, 9174979774, 9174979775, 9174979768], "tags": {"building": "yes"}}, {"type": "way", "id": 993098633, "nodes": [9174979776, 9174979777, 9174979778, 9174979779, 9174979776], "tags": {"building": "yes"}}, {"type": "way", "id": 993098637, "nodes": [9174979803, 9174979804, 9174979805, 9174979806, 9174979807, 9174979808, 9174979809, 9174979810, 9174979811, 9174979812, 9174979813, 9174979814, 9174979803], "tags": {"addr:housenumber": "700", "addr:street": "Rua Progresso", "addr:suburb": "Centro", "building": "public", "contact:phone": "+55 11 4488 5953", "name": "Funda\u00e7\u00e3o de Previd\u00eancia Social do Mun\u00edcipio de Francisco Morato", "short_name": "Fusbemo", "smoking": "outside"}}, {"type": "way", "id": 993747363, "nodes": [9181097225, 9181097226, 11002507796, 9181097227, 9181097228, 9181097229, 9181097230, 11030189456, 11030189457, 9181097231, 9181097232, 9181097225], "tags": {"addr:housenumber": "140", "addr:postcode": "07901-040", "addr:street": "Rua Vinte e Um de Mar\u00e7o", "addr:suburb": "Centro", "building": "yes"}}, {"type": "way", "id": 993747364, "nodes": [9181097233, 9181152502, 9181097234, 9181097235, 9181097236, 9181097233], "tags": {"addr:housenumber": "175", "addr:street": "Rua Vinte e Um de Mar\u00e7o", "building": "yes", "building:levels": "2"}}, {"type": "way", "id": 1033529968, "nodes": [9521902334, 9521902335, 9521902336, 9521902337, 9521902338, 9521902334], "tags": {"addr:postcode": "07901-040", "addr:street": "Rua Vinte e Um de Mar\u00e7o", "addr:suburb": "Bel\u00e9m Esta\u00e7\u00e3o", "amenity": "police", "building": "yes", "operator": "Secretaria da Seguran\u00e7a P\u00fablica do Estado de S\u00e3o Paulo", "operator:wikidata": "Q10295162", "operator:wikipedia": "pt:Secretaria de Estado dos Neg\u00f3cios da Seguran\u00e7a P\u00fablica de S\u00e3o Paulo"}}, {"type": "way", "id": 1033529969, "nodes": [9521902340, 9521902341, 9521902342, 9521902343, 9521902344, 9521902340], "tags": {"addr:street": "Rua Tupi", "addr:suburb": "Centro", "amenity": "place_of_worship", "building": "yes", "denomination": "neo-pentecostal", "name": "Igreja do Evangelho Quadrangular", "religion": "christian"}}, {"type": "way", "id": 1033538068, "nodes": [9521930190, 9521930191, 9521930192, 9521930193, 9521930190], "tags": {"addr:housenumber": "220", "addr:street": "Rua Vinte e Um de Mar\u00e7o", "addr:suburb": "Bel\u00e9m Esta\u00e7\u00e3o", "building": "yes", "contact:mobile": "+55 11 97199 7520", "email": "franciscomorato@casadoconstrutor.com.br", "name": "Casa do Construtor", "phone": "+55 11 4881 2143", "shop": "general", "website": "https://www.casadoconstrutor.com.br/"}}, {"type": "way", "id": 1033538069, "nodes": [9521930193, 9521930192, 11030189458, 9521930194, 9521930195, 9521930193], "tags": {"addr:street": "Rua Vinte e Um de Mar\u00e7o", "building": "yes", "name": "Bom Pastor", "shop": "funeral_directors"}}, {"type": "way", "id": 1033538070, "nodes": [9521930196, 9521930197, 9521930198, 9521930199, 9521930196], "tags": {"addr:housenumber": "210", "addr:street": "Rua Vinte e Um de Mar\u00e7o", "addr:suburb": "Bel\u00e9m Esta\u00e7\u00e3o", "amenity": "clinic", "building": "yes", "email": "contato@clinicamedicameudoutor.com.br", "healthcare": "clinic", "healthcare:speciality": "psychiatry;general;orthopaedics;gynaecology;cardiology;paediatrics;acupuncture;laboratory_tests;nutritionist;endocrilogist", "name": "Cl\u00ednica M\u00e9dica Meu Doutor", "opening_hours": "Mo-Fr 08:00-17:00; Sa,Su,PH off", "phone": "+55 11 4489 5205", "website": "http://www.clinicamedicameudoutor.com.br/"}}, {"type": "way", "id": 1033541686, "nodes": [9521982199, 9521982200, 9521982201, 9521982202, 9521982199], "tags": {"building": "yes"}}, {"type": "way", "id": 1033545298, "nodes": [9522014800, 9522014801, 9522014802, 9522014803, 9522014800], "tags": {"addr:housenumber": "53", "addr:street": "Rua Vereador Pedro Bueno de Oliveira", "addr:suburb": "Centro", "amenity": "place_of_worship", "building": "yes", "denomination": "neo-pentecostal", "name": "Minist\u00e9rio Palavra Prof\u00e9tica", "religion": "christian", "service_times": "We,Fr 15:00,19:00; Su 09:00,18:00"}}, {"type": "way", "id": 1033545299, "nodes": [9522014804, 9522014805, 9522014806, 9522014807, 9522014804], "tags": {"addr:street": "Rua Vereador Pedro Bueno de Oliveira", "addr:suburb": "Centro", "amenity": "clinic", "building": "yes", "healthcare": "clinic", "healthcare:speciality": "rpg;acupuncture;pilates;physiotherapy;psychology;speech_therapy", "name": "Cl\u00ednica PilatesFisio+"}}, {"type": "relation", "id": 11562305, "members": [{"type": "way", "ref": 842528742, "role": "inner"}, {"type": "way", "ref": 842528741, "role": "outer"}], "tags": {"addr:city": "Francisco Morato", "addr:housenumber": "306", "addr:postcode": "07901-170", "addr:street": "Rua Progresso", "addr:suburb": "Centro", "area": "yes", "building": "yes", "name": "Novo Shopping Francisco Morato", "shop": "mall", "stroller": "yes", "type": "multipolygon", "website": "http://novoshoppingmorato.com.br/shopmorato/index2.php", "wheelchair": "yes"}}]}