{"version": 0.6, "generator": "Overpass API 0.7.61.5 4133829e", "osm3s": {"timestamp_osm_base": "2024-02-26T22:10:13Z", "copyright": "The data included in this document is from www.openstreetmap.org. The data is made available under ODbL."}, "elements": [{"type": "node", "id": 2441736033, "lat": -23.6076361, "lon": -46.921292}, {"type": "node", "id": 2441736034, "lat": -23.6077053, "lon": -46.9216066}, {"type": "node", "id": 2441736035, "lat": -23.6076498, "lon": -46.9217455}, {"type": "node", "id": 2441736036, "lat": -23.6078344, "lon": -46.9217603}, {"type": "node", "id": 2441736037, "lat": -23.6081244, "lon": -46.9217408}, {"type": "node", "id": 2441736038, "lat": -23.6083592, "lon": -46.9217945}, {"type": "node", "id": 2441736039, "lat": -23.6085191, "lon": -46.9220376}, {"type": "node", "id": 2441736040, "lat": -23.608547, "lon": -46.9221861}, {"type": "node", "id": 2441736041, "lat": -23.6085714, "lon": -46.9222212}, {"type": "node", "id": 2441736044, "lat": -23.6088309, "lon": -46.9223019}, {"type": "node", "id": 2441736045, "lat": -23.6087787, "lon": -46.921708}, {"type": "node", "id": 2441740891, "lat": -23.6076752, "lon": -46.9196335}, {"type": "node", "id": 2441740893, "lat": -23.6077246, "lon": -46.9194489}, {"type": "node", "id": 2441740895, "lat": -23.6081193, "lon": -46.9196028}, {"type": "node", "id": 2441740896, "lat": -23.6086222, "lon": -46.9196258}, {"type": "node", "id": 2441740898, "lat": -23.608803, "lon": -46.9194643}, {"type": "node", "id": 2441740900, "lat": -23.6090364, "lon": -46.9189874}, {"type": "node", "id": 2441740902, "lat": -23.609239, "lon": -46.918608}, {"type": "node", "id": 2441740904, "lat": -23.6094404, "lon": -46.9190589}, {"type": "node", "id": 2441740906, "lat": -23.6094796, "lon": -46.9193797}, {"type": "node", "id": 2441740908, "lat": -23.6093034, "lon": -46.9199258}, {"type": "node", "id": 2441740910, "lat": -23.6091819, "lon": -46.9204276}, {"type": "node", "id": 2441740912, "lat": -23.608979, "lon": -46.9210071}, {"type": "node", "id": 2441740913, "lat": -23.6083871, "lon": -46.9202335}, {"type": "node", "id": 2441740915, "lat": -23.6084717, "lon": -46.9200874}, {"type": "node", "id": 2441740917, "lat": -23.6084787, "lon": -46.9199643}, {"type": "node", "id": 2441741150, "lat": -23.6065078, "lon": -46.9211721}, {"type": "node", "id": 2441741152, "lat": -23.6068077, "lon": -46.9211245}, {"type": "node", "id": 2441741154, "lat": -23.6068525, "lon": -46.9210353}, {"type": "node", "id": 2441741156, "lat": -23.6070823, "lon": -46.9208103}, {"type": "node", "id": 2441741158, "lat": -23.6070897, "lon": -46.9206651}, {"type": "node", "id": 2441741162, "lat": -23.6063149, "lon": -46.920816}, {"type": "node", "id": 2441741164, "lat": -23.6064826, "lon": -46.921048}, {"type": "node", "id": 2441750908, "lat": -23.6068135, "lon": -46.9199622}, {"type": "node", "id": 2441750909, "lat": -23.60817, "lon": -46.9204786}, {"type": "node", "id": 2441750910, "lat": -23.608424, "lon": -46.9199869}, {"type": "node", "id": 2441750911, "lat": -23.6073612, "lon": -46.919534}, {"type": "node", "id": 2441750912, "lat": -23.6071523, "lon": -46.9195032}, {"type": "node", "id": 2441750913, "lat": -23.6066921, "lon": -46.9194292}, {"type": "node", "id": 2441750914, "lat": -23.6066967, "lon": -46.9197169}, {"type": "node", "id": 4220605845, "lat": -23.609102, "lon": -46.9188446}, {"type": "node", "id": 4220605846, "lat": -23.6094907, "lon": -46.919222}, {"type": "node", "id": 4220605847, "lat": -23.6080809, "lon": -46.9207155}, {"type": "node", "id": 5010469512, "lat": -23.6084408, "lon": -46.919684}, {"type": "node", "id": 5714086386, "lat": -23.6082209, "lon": -46.9217462}, {"type": "node", "id": 5714086387, "lat": -23.6084613, "lon": -46.921908}, {"type": "node", "id": 6849047097, "lat": -23.606361, "lon": -46.9210728}, {"type": "node", "id": 7307648196, "lat": -23.60754, "lon": -46.9215647}, {"type": "node", "id": 7547785051, "lat": -23.6070925, "lon": -46.9207308}, {"type": "node", "id": 7547785052, "lat": -23.6070485, "lon": -46.9207707}, {"type": "node", "id": 7547785053, "lat": -23.6070581, "lon": -46.9207976}, {"type": "node", "id": 7547785054, "lat": -23.6070836, "lon": -46.9207999}, {"type": "node", "id": 7547785055, "lat": -23.6070233, "lon": -46.9206638}, {"type": "node", "id": 7547785056, "lat": -23.6070037, "lon": -46.9209065}, {"type": "node", "id": 7547785057, "lat": -23.6069846, "lon": -46.9208918}, {"type": "node", "id": 9547478413, "lat": -23.6069439, "lon": -46.920936, "tags": {"entrance": "main"}}, {"type": "node", "id": 9547516360, "lat": -23.6069052, "lon": -46.9190852}, {"type": "node", "id": 9547516361, "lat": -23.6070069, "lon": -46.9189396}, {"type": "node", "id": 9547516362, "lat": -23.6071183, "lon": -46.9190356}, {"type": "node", "id": 9547516363, "lat": -23.6071733, "lon": -46.9189606}, {"type": "node", "id": 9547516364, "lat": -23.6072339, "lon": -46.9190086}, {"type": "node", "id": 9547516365, "lat": -23.6070743, "lon": -46.9192322}, {"type": "node", "id": 9547533639, "lat": -23.6070399, "lon": -46.9186229}, {"type": "node", "id": 9547533640, "lat": -23.6070056, "lon": -46.9185809}, {"type": "node", "id": 9547533641, "lat": -23.6072146, "lon": -46.9184398}, {"type": "node", "id": 9547533642, "lat": -23.6071335, "lon": -46.9185539}, {"type": "node", "id": 9547533643, "lat": -23.6073961, "lon": -46.9184826}, {"type": "node", "id": 9547533644, "lat": -23.6072593, "lon": -46.9185145}, {"type": "node", "id": 9547533645, "lat": -23.607239, "lon": -46.9184899}, {"type": "node", "id": 9547533646, "lat": -23.6071642, "lon": -46.9185511}, {"type": "node", "id": 9547533647, "lat": -23.6071748, "lon": -46.918534}, {"type": "node", "id": 9547533648, "lat": -23.6073212, "lon": -46.9183531}, {"type": "node", "id": 9547533649, "lat": -23.6072108, "lon": -46.918419}, {"type": "node", "id": 9547533652, "lat": -23.6073356, "lon": -46.9189411}, {"type": "node", "id": 9547533653, "lat": -23.6074236, "lon": -46.9189111}, {"type": "node", "id": 9547533654, "lat": -23.6075117, "lon": -46.9189351}, {"type": "node", "id": 9547533655, "lat": -23.6075804, "lon": -46.918731}, {"type": "node", "id": 9547533656, "lat": -23.6075089, "lon": -46.9187054}, {"type": "node", "id": 9547533657, "lat": -23.6074456, "lon": -46.9186919}, {"type": "node", "id": 9547533658, "lat": -23.6074291, "lon": -46.9186664}, {"type": "node", "id": 9547533659, "lat": -23.6073631, "lon": -46.9187009}, {"type": "node", "id": 9547533660, "lat": -23.6073054, "lon": -46.9187024}, {"type": "node", "id": 9547533661, "lat": -23.6072875, "lon": -46.9187069}, {"type": "node", "id": 9547551887, "lat": -23.6063729, "lon": -46.9192187}, {"type": "node", "id": 9547551888, "lat": -23.60656, "lon": -46.9192653}, {"type": "node", "id": 9547551889, "lat": -23.6066026, "lon": -46.9191737}, {"type": "node", "id": 9547551890, "lat": -23.6064183, "lon": -46.9191092}, {"type": "node", "id": 9547551891, "lat": -23.6064128, "lon": -46.9191212}, {"type": "node", "id": 9547551892, "lat": -23.6063881, "lon": -46.9191107}, {"type": "node", "id": 9547551893, "lat": -23.6063454, "lon": -46.9191842}, {"type": "node", "id": 9547551894, "lat": -23.6063798, "lon": -46.9191947}, {"type": "node", "id": 9547551895, "lat": -23.6062849, "lon": -46.9194904}, {"type": "node", "id": 9547551896, "lat": -23.6062767, "lon": -46.9193778}, {"type": "node", "id": 9547551897, "lat": -23.6064788, "lon": -46.9193718}, {"type": "node", "id": 9547551898, "lat": -23.6064733, "lon": -46.9194739}, {"type": "node", "id": 9547551899, "lat": -23.6063221, "lon": -46.9194754}, {"type": "node", "id": 9547551900, "lat": -23.6063193, "lon": -46.9194949}, {"type": "node", "id": 9547551901, "lat": -23.606505, "lon": -46.9193703}, {"type": "node", "id": 9547551902, "lat": -23.6065338, "lon": -46.9192893}, {"type": "node", "id": 9547551903, "lat": -23.6063083, "lon": -46.9192292}, {"type": "node", "id": 9547551904, "lat": -23.6062794, "lon": -46.9193478}, {"type": "node", "id": 9547551905, "lat": -23.6064314, "lon": -46.9193576}, {"type": "node", "id": 9547551906, "lat": -23.6067441, "lon": -46.9198411}, {"type": "node", "id": 9547551907, "lat": -23.6066834, "lon": -46.9195716}, {"type": "node", "id": 9547554869, "lat": -23.6075213, "lon": -46.9189546}, {"type": "node", "id": 9547554870, "lat": -23.6076492, "lon": -46.9189891}, {"type": "node", "id": 9547554871, "lat": -23.6077317, "lon": -46.918743}, {"type": "node", "id": 9547554872, "lat": -23.6076052, "lon": -46.9187009}, {"type": "node", "id": 9547554873, "lat": -23.6076121, "lon": -46.918791, "tags": {"addr:housenumber": "1050A", "addr:street": "Avenida Professor Manoel Jos\u00e9 Pedroso", "contact:mobile": "+55 11 96499 3064", "name": "Carraro Ve\u00edculos", "phone": "+55 11 4551 4113", "shop": "car"}}, {"type": "node", "id": 9547554874, "lat": -23.6076836, "lon": -46.918776, "tags": {"addr:housenumber": "1068", "addr:street": "Avenida Professor Manoel Jos\u00e9 Pedroso", "addr:suburb": "Parque Bahia", "name": "Magoni Ve\u00edculos", "phone": "+55 11 2690 1063", "shop": "car"}}, {"type": "node", "id": 9547587653, "lat": -23.6065944, "lon": -46.9189006}, {"type": "node", "id": 9547587654, "lat": -23.6067374, "lon": -46.9190326}, {"type": "node", "id": 9547587655, "lat": -23.6068447, "lon": -46.9189021}, {"type": "node", "id": 9547587656, "lat": -23.6069038, "lon": -46.9188285}, {"type": "node", "id": 9547587657, "lat": -23.6069368, "lon": -46.9187805}, {"type": "node", "id": 9547587658, "lat": -23.6068694, "lon": -46.9187084}, {"type": "node", "id": 9547587659, "lat": -23.6067319, "lon": -46.918806}, {"type": "node", "id": 9547587660, "lat": -23.6066961, "lon": -46.9187745}, {"type": "node", "id": 9547587661, "lat": -23.6068667, "lon": -46.9186694}, {"type": "node", "id": 9547587662, "lat": -23.6069423, "lon": -46.9186199}, {"type": "node", "id": 9547587663, "lat": -23.6069822, "lon": -46.9186844}, {"type": "node", "id": 9547587664, "lat": -23.6069052, "lon": -46.9187325}, {"type": "node", "id": 9547587665, "lat": -23.6068653, "lon": -46.918827, "tags": {"addr:housenumber": "1001", "addr:street": "Avenida Professor Manoel Jos\u00e9 Pedroso", "addr:suburb": "Parque Bahia", "contact:mobile": "+55 11 98893 9634", "name": "Altvell", "phone": "+55 11 4616 2958", "service:vehicle:used_car_sales": "yes", "shop": "car"}}, {"type": "node", "id": 9547587666, "lat": -23.6067608, "lon": -46.9189636, "tags": {"addr:housenumber": "987", "addr:postcode": "06717-250", "addr:street": "Avenida Professor Manoel Jos\u00e9 Pedroso", "addr:suburb": "Parque Bahia", "email": "contato@mpauto.com.br", "name": "Coticat", "phone": "+55 11 2690 1997", "service:vehicle:used_car_sales": "yes", "shop": "car", "website": "https://www.coticar.com.br/"}}, {"type": "node", "id": 9548431753, "lat": -23.6059484, "lon": -46.9232729}, {"type": "node", "id": 9548431754, "lat": -23.6060267, "lon": -46.9233856}, {"type": "node", "id": 9548431755, "lat": -23.6063861, "lon": -46.9234772}, {"type": "node", "id": 9548431756, "lat": -23.6064024, "lon": -46.9232233}, {"type": "node", "id": 9548431757, "lat": -23.6060463, "lon": -46.9231945}, {"type": "node", "id": 9548431758, "lat": -23.6060294, "lon": -46.9230392}, {"type": "node", "id": 9548431759, "lat": -23.6059471, "lon": -46.9230249}, {"type": "node", "id": 9548431760, "lat": -23.6059797, "lon": -46.9233535}, {"type": "way", "id": 236110890, "nodes": [2441736033, 7307648196, 2441736034, 2441736035, 2441736036, 2441736037, 5714086386, 2441736038, 5714086387, 2441736039, 2441736040, 2441736041, 2441736044, 2441736045, 2441736033], "tags": {"addr:city": "Cotia", "addr:housenumber": "340", "addr:street": "Avenida Professor Manoel Jos\u00e9 Pedroso", "addr:suburb": "Parque Bahia", "building": "yes", "name": "Supermercado Pedroso", "opening_hours": "Mo-Sa 06:00-21:30; Su,PH 09:00-19:00", "shop": "supermarket", "website": "https://supermercadopedroso.com.br/"}}, {"type": "way", "id": 236111224, "nodes": [2441740891, 2441740893, 2441740895, 5010469512, 2441740896, 2441740898, 2441740900, 4220605845, 2441740902, 2441740904, 4220605846, 2441740906, 2441740908, 2441740910, 2441740912, 4220605847, 2441740913, 2441740915, 2441740917, 2441740891], "tags": {"addr:city": "Cotia", "addr:country": "BR", "addr:housenumber": "171", "addr:postcode": "06717-100", "addr:street": "Avenida Doutor Odair Pacheco Pedroso", "addr:suburb": "Jardim Monte Santo", "amenity": "hospital", "emergency": "yes", "healthcare": "hospital", "name": "Hospital de Regional Cotia", "operator": "Seconci-sp", "operator:ref:vatin": "BR46374500000194", "operator:type": "government", "phone": "+55 11 4148 9070", "ref:CNES": "2792141", "website": "http://www.hrc.org.br/index.php"}}, {"type": "way", "id": 236111251, "nodes": [2441741150, 2441741152, 2441741154, 9547478413, 7547785057, 7547785056, 2441741156, 7547785054, 7547785053, 7547785052, 7547785051, 2441741158, 7547785055, 2441741162, 6849047097, 2441741164, 2441741150], "tags": {"addr:housenumber": "701", "addr:postcode": "06717-100", "addr:street": "Avenida Professor Manoel Jos\u00e9 Pedroso", "amenity": "hospital", "building": "hospital", "contact:mobile": "+55 11 94386 7819", "healthcare": "hospital", "healthcare:speciality": "general;gynaecology;maternity;paediatrics;surgery", "name": "Hospital e Maternidade S\u00e3o Francisco", "phone": "+55 11 4615 6677;+55 11 4616 1973", "ref:CNES": "3101126", "ref:vatin": "BR65705444000178", "website": "https://www.hospsaofrancisco.com.br/"}}, {"type": "way", "id": 236112414, "nodes": [2441750908, 2441750909, 2441750910, 2441750911, 2441750912, 2441750913, 9547551907, 2441750914, 9547551906, 2441750908], "tags": {"addr:city": "Cotia", "addr:country": "BR", "addr:postcode": "06717-100", "addr:street": "Avenida Professor Manoel Jos\u00e9 Pedroso", "addr:suburb": "Parque Bahia", "amenity": "school", "contact:phone": "+55 11 4703 2328", "email": "e010561a@educacao.sp.gov.br", "name": "Escola Estadual Zacarias Ant\u00f4nio da Silva", "operator": "Secretaria da Educa\u00e7\u00e3o do Estado de S\u00e3o Paulo", "operator:type": "government", "phone": "+55 11 4614 0495", "ref": "INEP-35010561", "religion": "none"}}, {"type": "way", "id": 1036301379, "nodes": [9547516360, 9547516361, 9547516362, 9547516363, 9547516364, 9547516365, 9547516360], "tags": {"addr:housenumber": "1016", "addr:street": "Avenida Professor Manoel Jos\u00e9 Pedroso", "addr:suburb": "Parque Bahia", "building": "yes", "name": "MP Auto", "phone": "+55 11 4614 8484", "shop": "car", "website": "https://mpauto.com.br/"}}, {"type": "way", "id": 1036304869, "nodes": [9547533639, 9547533640, 9547533641, 9547533649, 9547533648, 9547533643, 9547533644, 9547533645, 9547533647, 9547533646, 9547533642, 9547533639], "tags": {"addr:postcode": "06717-250", "addr:street": "Avenida Professor Manoel Jos\u00e9 Pedroso", "addr:suburb": "Parque Bahia", "building": "yes", "name": "OAB Se\u00e7\u00e3o Cotia", "office": "yes"}}, {"type": "way", "id": 1036304870, "nodes": [9547533652, 9547533653, 9547533654, 9547533655, 9547533656, 9547533657, 9547533658, 9547533659, 9547533660, 9547533661, 9547533652], "tags": {"addr:housenumber": "1048", "addr:street": "Avenida Professor Manoel Jos\u00e9 Pedroso", "addr:suburb": "Parque Bahia", "building": "yes", "email": "atendimento@gallerycar.com.br", "name": "Gallery Motors & Car", "opening_hours": "Mo-Fr  08:30-19:00; Sa 08:30-18:00; Su 09:00-14:00; PH off", "phone": "+55 11 4551 0151", "service:vehicle:used_car_sales": "yes", "shop": "car"}}, {"type": "way", "id": 1036305857, "nodes": [9547554869, 9547554870, 9547554871, 9547554872, 9547554869], "tags": {"addr:street": "Avenida Professor Manoel Jos\u00e9 Pedroso", "addr:suburb": "Parque Bahia", "building": "roof", "layer": "1"}}, {"type": "way", "id": 1036308866, "nodes": [9547587653, 9547587654, 9547587655, 9547587656, 9547587657, 9547587658, 9547587659, 9547587660, 9547587653], "tags": {"addr:postcode": "06717-250", "addr:street": "Avenida Professor Manoel Jos\u00e9 Pedroso", "addr:suburb": "Parque Bahia", "building": "yes", "shop": "car"}}, {"type": "way", "id": 1036308867, "nodes": [9547587661, 9547587662, 9547587663, 9547587664, 9547587661], "tags": {"addr:postcode": "06717-250", "addr:street": "Avenida Professor Manoel Jos\u00e9 Pedroso", "addr:suburb": "Parque Bahia", "building": "yes", "name": "OAB Se\u00e7\u00e3o Cotia", "office": "yes"}}, {"type": "way", "id": 1036310980, "nodes": [9547551887, 9547551888, 9547551889, 9547551890, 9547551891, 9547551892, 9547551893, 9547551894, 9547551887], "tags": {"addr:street": "Avenida Professor Manoel Jos\u00e9 Pedroso", "building": "yes", "name": "Centro Automotivo SS Automotiva", "phone": "+55 11 4551 7694", "shop": "car_repair"}}, {"type": "way", "id": 1036310981, "nodes": [9547551895, 9547551896, 9547551897, 9547551898, 9547551899, 9547551900, 9547551895], "tags": {"addr:street": "Avenida Professor Manoel Jos\u00e9 Pedroso", "building": "yes"}}, {"type": "way", "id": 1036310982, "nodes": [9547551901, 9547551902, 9547551903, 9547551904, 9547551905, 9547551901], "tags": {"addr:street": "Avenida Professor Manoel Jos\u00e9 Pedroso", "building": "yes", "name": "SS Funilaria", "phone": "+55 11 93904 4413", "shop": "car_repair"}}, {"type": "way", "id": 1036405926, "nodes": [9548431753, 9548431760, 9548431754, 9548431755, 9548431756, 9548431757, 9548431758, 9548431759, 9548431753], "tags": {"addr:housenumber": "67", "addr:postcode": "06717-195", "addr:street": "Rua Professora Isaura Bayer Lein", "addr:suburb": "Vila Mont Serrat", "amenity": "school", "email": "emfranciscooliveira@cotia.sp.gov.br", "name": "Escola Municipal Francisco Nunes de Oliveira", "phone": "+55 11 4703 5754", "ref": "INEP-35099417", "religion": "none", "source": "CADMEC 2017;INEP"}}]}