{"version": 0.6, "generator": "Overpass API 0.7.61.5 4133829e", "osm3s": {"timestamp_osm_base": "2024-02-26T22:17:27Z", "copyright": "The data included in this document is from www.openstreetmap.org. The data is made available under ODbL."}, "elements": [{"type": "node", "id": 4374472191, "lat": -23.4509972, "lon": -46.5160009, "tags": {"amenity": "bicycle_parking"}}, {"type": "node", "id": 5159338473, "lat": -23.4550536, "lon": -46.5181283}, {"type": "node", "id": 5159338474, "lat": -23.4559698, "lon": -46.5176761}, {"type": "node", "id": 5159338475, "lat": -23.4556661, "lon": -46.517028}, {"type": "node", "id": 5159338476, "lat": -23.454719, "lon": -46.5174726}, {"type": "node", "id": 5159362586, "lat": -23.453695, "lon": -46.5182039}, {"type": "node", "id": 5159362587, "lat": -23.4537955, "lon": -46.5180992}, {"type": "node", "id": 5159362588, "lat": -23.4533212, "lon": -46.5175579}, {"type": "node", "id": 5159362589, "lat": -23.4532207, "lon": -46.5176625}, {"type": "node", "id": 5159362591, "lat": -23.4554331, "lon": -46.5131097}, {"type": "node", "id": 5159362593, "lat": -23.4549465, "lon": -46.5125874}, {"type": "node", "id": 5159362599, "lat": -23.4550092, "lon": -46.516561}, {"type": "node", "id": 5785716474, "lat": -23.4529329, "lon": -46.5173356}, {"type": "node", "id": 5785716475, "lat": -23.4539437, "lon": -46.5170855}, {"type": "node", "id": 5785716476, "lat": -23.4538796, "lon": -46.5171096}, {"type": "node", "id": 5785716477, "lat": -23.4539524, "lon": -46.5170648}, {"type": "node", "id": 5785716478, "lat": -23.4538193, "lon": -46.5165182}, {"type": "node", "id": 5785716479, "lat": -23.4526354, "lon": -46.5168308}, {"type": "node", "id": 5785716480, "lat": -23.4525959, "lon": -46.5169679}, {"type": "node", "id": 5785716488, "lat": -23.4550466, "lon": -46.5167415}, {"type": "node", "id": 5785716489, "lat": -23.4552009, "lon": -46.5167035}, {"type": "node", "id": 5785716490, "lat": -23.4551635, "lon": -46.5165229}, {"type": "node", "id": 6454917983, "lat": -23.4544456, "lon": -46.5131418}, {"type": "node", "id": 6454917984, "lat": -23.4549322, "lon": -46.5136642}, {"type": "node", "id": 8103932518, "lat": -23.4558508, "lon": -46.5143053}, {"type": "node", "id": 8103932519, "lat": -23.45718, "lon": -46.5139942}, {"type": "node", "id": 8103932520, "lat": -23.4548092, "lon": -46.5122697}, {"type": "node", "id": 8103932521, "lat": -23.4553288, "lon": -46.5134101}, {"type": "node", "id": 8103932522, "lat": -23.4548556, "lon": -46.5137363}, {"type": "node", "id": 8103932523, "lat": -23.454953, "lon": -46.5138122}, {"type": "node", "id": 8103932524, "lat": -23.4553914, "lon": -46.5135087}, {"type": "node", "id": 8103932525, "lat": -23.455682, "lon": -46.5138173}, {"type": "node", "id": 8103932526, "lat": -23.4557812, "lon": -46.5140322}, {"type": "node", "id": 8103932527, "lat": -23.4572262, "lon": -46.5136397}, {"type": "node", "id": 8103932528, "lat": -23.4562874, "lon": -46.513589}, {"type": "node", "id": 8103932529, "lat": -23.4563428, "lon": -46.5129779}, {"type": "node", "id": 8103932530, "lat": -23.4555449, "lon": -46.512948}, {"type": "node", "id": 8103932531, "lat": -23.455554, "lon": -46.5122291}, {"type": "node", "id": 8103932533, "lat": -23.4564138, "lon": -46.5122465}, {"type": "node", "id": 8935368986, "lat": -23.4557363, "lon": -46.5118904}, {"type": "node", "id": 8935368987, "lat": -23.4563516, "lon": -46.5119986}, {"type": "node", "id": 9049131829, "lat": -23.4509387, "lon": -46.5156341, "tags": {"addr:city": "Guarulhos", "addr:housenumber": "3591", "addr:postcode": "07196000", "addr:street": "Avenida Tiradentes", "addr:suburb": "Bom Clima", "alt_name": "crosp;CROSP;crosp guarulhos;CROSP Guarulhos;CROSP-Delegacia Seccional de Guarulhos", "government": "administrative", "name": "Conselho Regional de Odontologia do Estado de S\u00e3o Paulo - Seccional Guarulhos", "office": "government", "phone": "551124080278", "website": "https://www.crosp.org.br/"}}, {"type": "node", "id": 9898332378, "lat": -23.4483913, "lon": -46.5167019, "tags": {"addr:city": "Guarulhos", "addr:housenumber": "473", "addr:postcode": "07122-190", "addr:street": "Rua Rosacruz"}}, {"type": "node", "id": 9898332379, "lat": -23.4484811, "lon": -46.5168036}, {"type": "node", "id": 9898332380, "lat": -23.4497299, "lon": -46.5182209}, {"type": "node", "id": 9898332381, "lat": -23.4489134, "lon": -46.5172984, "tags": {"addr:city": "Guarulhos", "addr:housenumber": "383", "addr:postcode": "07122-190", "addr:street": "Rua Rosacruz"}}, {"type": "node", "id": 9898332386, "lat": -23.4496156, "lon": -46.5180918, "tags": {"addr:city": "Guarulhos", "addr:housenumber": "269", "addr:postcode": "07122-190", "addr:street": "Rua Rosacruz"}}, {"type": "node", "id": 9898332388, "lat": -23.4502026, "lon": -46.5187537}, {"type": "node", "id": 9898332389, "lat": -23.4504371, "lon": -46.5190224}, {"type": "node", "id": 9898332390, "lat": -23.4511019, "lon": -46.5197998, "tags": {"addr:city": "Guarulhos", "addr:housenumber": "40", "addr:postcode": "07122-190", "addr:street": "Rua Rosacruz"}}, {"type": "node", "id": 9898332391, "lat": -23.45049, "lon": -46.5190842, "tags": {"addr:city": "Guarulhos", "addr:housenumber": "132", "addr:postcode": "07122-190", "addr:street": "Rua Rosacruz"}}, {"type": "node", "id": 9899909992, "lat": -23.4544397, "lon": -46.519073, "tags": {"addr:city": "Guarulhos", "addr:housenumber": "3048", "addr:postcode": "07196-000", "addr:street": "Avenida Tiradentes"}}, {"type": "node", "id": 9899909993, "lat": -23.4540831, "lon": -46.5186593}, {"type": "node", "id": 9899909994, "lat": -23.4534711, "lon": -46.5179761}, {"type": "node", "id": 9899909995, "lat": -23.4531024, "lon": -46.5175685}, {"type": "node", "id": 9899909996, "lat": -23.452778, "lon": -46.5171849}, {"type": "node", "id": 9899909997, "lat": -23.4521565, "lon": -46.5164857}, {"type": "node", "id": 9899909998, "lat": -23.4516793, "lon": -46.515946}, {"type": "node", "id": 9899909999, "lat": -23.4512685, "lon": -46.5154626}, {"type": "node", "id": 9899910000, "lat": -23.4511642, "lon": -46.5153363}, {"type": "node", "id": 9899910001, "lat": -23.4510947, "lon": -46.5152341}, {"type": "node", "id": 9899910002, "lat": -23.451062, "lon": -46.515148}, {"type": "node", "id": 9899910003, "lat": -23.4510325, "lon": -46.5150389}, {"type": "node", "id": 9899910004, "lat": -23.4510273, "lon": -46.5149551}, {"type": "node", "id": 9899910005, "lat": -23.4510304, "lon": -46.5148219}, {"type": "node", "id": 9899910006, "lat": -23.4510546, "lon": -46.5146841}, {"type": "node", "id": 9899910007, "lat": -23.4512874, "lon": -46.5138975}, {"type": "node", "id": 9899910008, "lat": -23.4514707, "lon": -46.51332}, {"type": "node", "id": 9899910009, "lat": -23.4517994, "lon": -46.5123302}, {"type": "node", "id": 9899910010, "lat": -23.4520111, "lon": -46.5118204}, {"type": "node", "id": 9899910011, "lat": -23.4522787, "lon": -46.5113243}, {"type": "node", "id": 9899910012, "lat": -23.4527675, "lon": -46.5103966}, {"type": "node", "id": 9899910013, "lat": -23.4529676, "lon": -46.5100291}, {"type": "node", "id": 9899910014, "lat": -23.4530455, "lon": -46.5098259}, {"type": "node", "id": 9899910015, "lat": -23.453068, "lon": -46.5093504, "tags": {"addr:city": "Guarulhos", "addr:housenumber": "4230", "addr:postcode": "07196-000", "addr:street": "Avenida Tiradentes"}}, {"type": "node", "id": 9899910016, "lat": -23.4528022, "lon": -46.5088809, "tags": {"addr:city": "Guarulhos", "addr:housenumber": "4305", "addr:postcode": "07196-000", "addr:street": "Avenida Tiradentes"}}, {"type": "node", "id": 9899916817, "lat": -23.4528064, "lon": -46.5093195}, {"type": "node", "id": 9899916818, "lat": -23.4528128, "lon": -46.509695}, {"type": "node", "id": 9899916819, "lat": -23.4527801, "lon": -46.5098178}, {"type": "node", "id": 9899916820, "lat": -23.4524662, "lon": -46.5104218}, {"type": "node", "id": 9899916821, "lat": -23.4518984, "lon": -46.5114851}, {"type": "node", "id": 9899916822, "lat": -23.4517625, "lon": -46.5117423}, {"type": "node", "id": 9899916823, "lat": -23.4515371, "lon": -46.5123796}, {"type": "node", "id": 9899916824, "lat": -23.4511768, "lon": -46.5134727}, {"type": "node", "id": 9899916825, "lat": -23.4510252, "lon": -46.5139389}, {"type": "node", "id": 9899916826, "lat": -23.4509483, "lon": -46.5142041}, {"type": "node", "id": 9899916827, "lat": -23.4508587, "lon": -46.5145991}, {"type": "node", "id": 9899916828, "lat": -23.4508113, "lon": -46.514792}, {"type": "node", "id": 9899916829, "lat": -23.4508018, "lon": -46.5148827}, {"type": "node", "id": 9899916830, "lat": -23.4508103, "lon": -46.5150308}, {"type": "node", "id": 9899916831, "lat": -23.4508503, "lon": -46.5151813}, {"type": "node", "id": 9899916832, "lat": -23.4509188, "lon": -46.5153535}, {"type": "node", "id": 9899916833, "lat": -23.4510009, "lon": -46.5155005}, {"type": "node", "id": 9899916834, "lat": -23.4512969, "lon": -46.5158897}, {"type": "node", "id": 9899916835, "lat": -23.4517731, "lon": -46.5164305}, {"type": "node", "id": 9899916836, "lat": -23.4522092, "lon": -46.5169553}, {"type": "node", "id": 9899916837, "lat": -23.4525642, "lon": -46.5173767}, {"type": "node", "id": 9899916838, "lat": -23.4529687, "lon": -46.5178119}, {"type": "node", "id": 9899916839, "lat": -23.453371, "lon": -46.5182792}, {"type": "node", "id": 9899916840, "lat": -23.4538482, "lon": -46.5188017}, {"type": "node", "id": 9899916841, "lat": -23.4540673, "lon": -46.5190313}, {"type": "node", "id": 9899916842, "lat": -23.4546414, "lon": -46.5196904}, {"type": "node", "id": 9899916843, "lat": -23.4547643, "lon": -46.5198276, "tags": {"addr:city": "Guarulhos", "addr:housenumber": "2987", "addr:postcode": "07196-000", "addr:street": "Avenida Tiradentes"}}, {"type": "node", "id": 9899916897, "lat": -23.4542491, "lon": -46.51924, "tags": {"addr:city": "Guarulhos", "addr:housenumber": "3061", "addr:postcode": "07196-000", "addr:street": "Avenida Tiradentes", "highway": "secondary", "lit": "yes", "name": "Avenida Tiradentes", "postal_code": "07196-000", "surface": "asphalt"}}, {"type": "node", "id": 9899916898, "lat": -23.4522168, "lon": -46.5169644, "tags": {"addr:city": "Guarulhos", "addr:housenumber": "3391", "addr:postcode": "07196-000", "addr:street": "Avenida Tiradentes"}}, {"type": "node", "id": 9899916899, "lat": -23.4517262, "lon": -46.515999, "tags": {"addr:city": "Guarulhos", "addr:housenumber": "3472", "addr:postcode": "07196-000", "addr:street": "Avenida Tiradentes"}}, {"type": "node", "id": 9899916900, "lat": -23.4509691, "lon": -46.5141322, "tags": {"addr:city": "Guarulhos", "addr:housenumber": "3723", "addr:postcode": "07196-000", "addr:street": "Avenida Tiradentes"}}, {"type": "node", "id": 9899916901, "lat": -23.4512791, "lon": -46.5139259, "tags": {"addr:city": "Guarulhos", "addr:housenumber": "3722", "addr:postcode": "07196-000", "addr:street": "Avenida Tiradentes"}}, {"type": "node", "id": 9899916903, "lat": -23.4518025, "lon": -46.5116666, "tags": {"addr:city": "Guarulhos", "addr:housenumber": "3989", "addr:postcode": "07196-000", "addr:street": "Avenida Tiradentes"}}, {"type": "node", "id": 9899916904, "lat": -23.4522626, "lon": -46.5113541, "tags": {"addr:city": "Guarulhos", "addr:housenumber": "4012", "addr:postcode": "07196-000", "addr:street": "Avenida Tiradentes"}}, {"type": "node", "id": 9919684768, "lat": -23.450672, "lon": -46.5183579}, {"type": "node", "id": 9919684769, "lat": -23.4506769, "lon": -46.5183804}, {"type": "node", "id": 9919684770, "lat": -23.450666, "lon": -46.5184081}, {"type": "node", "id": 9919684771, "lat": -23.4500665, "lon": -46.5185241}, {"type": "node", "id": 9919684772, "lat": -23.4504608, "lon": -46.5181136}, {"type": "node", "id": 9919684773, "lat": -23.4503169, "lon": -46.5187588}, {"type": "node", "id": 9919684774, "lat": -23.450261, "lon": -46.5187467}, {"type": "node", "id": 9919684775, "lat": -23.4502889, "lon": -46.518762}, {"type": "node", "id": 9919684780, "lat": -23.4505688, "lon": -46.5182358, "tags": {"addr:city": "Guarulhos", "addr:housenumber": "289", "addr:street": "Rua Professor Vasco de Queiroz Guimar\u00e3es", "entrance": "yes"}}, {"type": "node", "id": 9919684781, "lat": -23.4515238, "lon": -46.5176126}, {"type": "node", "id": 9919684782, "lat": -23.4515335, "lon": -46.5176423}, {"type": "node", "id": 9919684783, "lat": -23.4515366, "lon": -46.5176761}, {"type": "node", "id": 9919684784, "lat": -23.451525, "lon": -46.5177131}, {"type": "node", "id": 9919684785, "lat": -23.4515105, "lon": -46.517731}, {"type": "node", "id": 9919684786, "lat": -23.4514856, "lon": -46.5177515}, {"type": "node", "id": 9919684787, "lat": -23.4514619, "lon": -46.517762}, {"type": "node", "id": 9919684788, "lat": -23.4513691, "lon": -46.5177951}, {"type": "node", "id": 9919684789, "lat": -23.4512636, "lon": -46.51785}, {"type": "node", "id": 9919684790, "lat": -23.4511999, "lon": -46.517887}, {"type": "node", "id": 9919684791, "lat": -23.4511349, "lon": -46.5179313}, {"type": "node", "id": 9919684792, "lat": -23.4507626, "lon": -46.5182958}, {"type": "node", "id": 9919684793, "lat": -23.450598, "lon": -46.5181304}, {"type": "node", "id": 9919684794, "lat": -23.4505889, "lon": -46.518098}, {"type": "node", "id": 9919684795, "lat": -23.4505841, "lon": -46.5180491}, {"type": "node", "id": 9919684796, "lat": -23.4506035, "lon": -46.5179995}, {"type": "node", "id": 9919684797, "lat": -23.450655, "lon": -46.5179465}, {"type": "node", "id": 9919684798, "lat": -23.4512278, "lon": -46.51736}, {"type": "node", "id": 9919684799, "lat": -23.4512441, "lon": -46.517354}, {"type": "node", "id": 9919684800, "lat": -23.4512648, "lon": -46.5173494}, {"type": "node", "id": 9919684801, "lat": -23.4512857, "lon": -46.5173491}, {"type": "node", "id": 9919684802, "lat": -23.4507801, "lon": -46.5182881}, {"type": "node", "id": 9919684803, "lat": -23.4507437, "lon": -46.5182916}, {"type": "node", "id": 9919684804, "lat": -23.4511202, "lon": -46.5179461, "tags": {"addr:city": "Guarulhos", "addr:housenumber": "556", "addr:postcode": "07196-220", "addr:street": "Avenida Bom Clima", "entrance": "yes"}}, {"type": "node", "id": 11182534319, "lat": -23.4549911, "lon": -46.5178346}, {"type": "node", "id": 11182534320, "lat": -23.4550979, "lon": -46.5180891}, {"type": "node", "id": 11182534321, "lat": -23.4550561, "lon": -46.5179887}, {"type": "node", "id": 11182534322, "lat": -23.4550349, "lon": -46.5179387}, {"type": "node", "id": 11182534323, "lat": -23.4550986, "lon": -46.517781}, {"type": "node", "id": 11182534324, "lat": -23.455204, "lon": -46.5177869}, {"type": "node", "id": 11182534325, "lat": -23.4552305, "lon": -46.5178496}, {"type": "node", "id": 11182534326, "lat": -23.4550899, "lon": -46.5179717}, {"type": "node", "id": 11182534327, "lat": -23.4550687, "lon": -46.5179217}, {"type": "node", "id": 11182534328, "lat": -23.4551211, "lon": -46.517832}, {"type": "node", "id": 11182534329, "lat": -23.4551937, "lon": -46.5178688}, {"type": "node", "id": 11182534330, "lat": -23.4552173, "lon": -46.5179225}, {"type": "node", "id": 11182534331, "lat": -23.4552541, "lon": -46.5179033}, {"type": "node", "id": 11182534332, "lat": -23.4552831, "lon": -46.5179733}, {"type": "node", "id": 11182534333, "lat": -23.4551678, "lon": -46.5180285}, {"type": "node", "id": 11182534334, "lat": -23.4551763, "lon": -46.5180497}, {"type": "node", "id": 11182539554, "lat": -23.4550714, "lon": -46.5177946}, {"type": "node", "id": 11182539584, "lat": -23.4559284, "lon": -46.5199328}, {"type": "node", "id": 11182539585, "lat": -23.4556176, "lon": -46.5199409}, {"type": "node", "id": 11182539586, "lat": -23.4555451, "lon": -46.5199199}, {"type": "node", "id": 11182539587, "lat": -23.4553985, "lon": -46.5199216}, {"type": "node", "id": 11182539588, "lat": -23.4552949, "lon": -46.5199054}, {"type": "node", "id": 11182539589, "lat": -23.4551484, "lon": -46.519857}, {"type": "node", "id": 11182539590, "lat": -23.455027, "lon": -46.5197715}, {"type": "node", "id": 11182539591, "lat": -23.4544883, "lon": -46.519181}, {"type": "node", "id": 11182539592, "lat": -23.4543295, "lon": -46.5190036}, {"type": "node", "id": 11182539593, "lat": -23.4561272, "lon": -46.5183287}, {"type": "node", "id": 11182539594, "lat": -23.4544191, "lon": -46.5189932}, {"type": "node", "id": 11182539595, "lat": -23.4545083, "lon": -46.5189138}, {"type": "node", "id": 11182539596, "lat": -23.4548365, "lon": -46.5188805}, {"type": "node", "id": 11182539597, "lat": -23.4548294, "lon": -46.5188012}, {"type": "node", "id": 11182539598, "lat": -23.4554748, "lon": -46.5185105}, {"type": "node", "id": 11182539599, "lat": -23.4555094, "lon": -46.5186128}, {"type": "node", "id": 11182539604, "lat": -23.4559218, "lon": -46.5184251}, {"type": "node", "id": 11182539607, "lat": -23.4558265, "lon": -46.5184669}, {"type": "node", "id": 11182539636, "lat": -23.4561463, "lon": -46.5184114, "tags": {"access": "yes", "barrier": "gate", "bicycle": "yes", "foot": "designated", "horse": "unknown", "motor_vehicle": "permissive"}}, {"type": "node", "id": 11182539648, "lat": -23.4543842, "lon": -46.5190647, "tags": {"access": "yes", "barrier": "gate", "bicycle": "yes", "foot": "designated", "horse": "unknown", "motor_vehicle": "permissive"}}, {"type": "node", "id": 11182539722, "lat": -23.4561674, "lon": -46.5185029}, {"type": "node", "id": 11182539723, "lat": -23.4564518, "lon": -46.5197346}, {"type": "node", "id": 11182539724, "lat": -23.4563294, "lon": -46.5199158}, {"type": "node", "id": 11182539725, "lat": -23.4544217, "lon": -46.5191067}, {"type": "node", "id": 11182539749, "lat": -23.4537007, "lon": -46.5181979}, {"type": "node", "id": 11182539930, "lat": -23.4564672, "lon": -46.5197407}, {"type": "node", "id": 11182539931, "lat": -23.4563461, "lon": -46.5199212}, {"type": "node", "id": 11182539932, "lat": -23.4564262, "lon": -46.5199173}, {"type": "node", "id": 11182539933, "lat": -23.4564654, "lon": -46.5199086}, {"type": "node", "id": 11182539934, "lat": -23.4564903, "lon": -46.5198853}, {"type": "node", "id": 11182539935, "lat": -23.4565117, "lon": -46.5198514}, {"type": "node", "id": 11182539936, "lat": -23.4565099, "lon": -46.5197902}, {"type": "node", "id": 11182539937, "lat": -23.4564992, "lon": -46.5197339}, {"type": "way", "id": 423655036, "nodes": [5785716474, 5785716480, 5785716479, 5785716478, 5785716477, 5785716475, 5785716476, 5785716474], "tags": {"addr:city": "Guarulhos", "addr:housenumber": "615", "addr:street": "Avenida Bom Clima", "addr:suburb": "Bom Clima", "leisure": "sports_centre", "name": "Associa\u00e7\u00e3o dos Servidores Municipais de Guarulhos", "sport": "soccer;basketball;swimming;volleyball"}}, {"type": "way", "id": 531495050, "nodes": [5159338473, 5159338474, 5159338475, 5159338476, 5159338473], "tags": {"addr:city": "Guarulhos", "addr:street": "Avenida Bom Clima", "addr:suburb": "Bom Clima", "amenity": "townhall", "name": "Prefeitura Municipal de Guarulhos", "name:en": "Guarulhos Municipal City Council/Hall", "townhall:type": "municipality"}}, {"type": "way", "id": 531497756, "nodes": [5159362586, 11182539749, 5159362587, 5159362588, 5159362589, 5159362586], "tags": {"addr:city": "Guarulhos", "addr:housenumber": "3200", "addr:postcode": "07196-000", "addr:street": "Avenida Tiradentes", "addr:suburb": "Bom Clima", "building": "yes", "fax": "+55 11 2453-6721", "government": "administrative", "name": "Secretaria de Desenvolvimento Urbano", "name:en": "Guarulhos Urban Development Department", "office": "government", "old_name": "Servi\u00e7o Aut\u00f4nomo de \u00c1gua e Esgoto (SAAE)", "phone": "+55 11 2453-6700 / 6705", "website": "https://www.guarulhos.sp.gov.br/categories/desenvolvimento-urbano"}}, {"type": "way", "id": 531497757, "nodes": [6454917984, 5159362591, 5159362593, 6454917983, 6454917984], "tags": {"addr:city": "Guarulhos", "addr:housenumber": "233", "addr:street": "Rua Jo\u00e3o Bernardo Medeiros", "addr:suburb": "Bom Clima", "building": "yes", "leisure": "sports_centre", "loc_name": "Thomeuz\u00e3o", "name": "Gin\u00e1sio Poliesportivo Paschoal Thomeu", "sport": "soccer;basketball;volleyball"}}, {"type": "way", "id": 531497759, "nodes": [5785716489, 5785716488, 5159362599, 5785716490, 5785716489], "tags": {"addr:city": "Guarulhos", "addr:street": "Avenida Bom Clima", "addr:suburb": "Bom Clima", "amenity": "marketplace", "building": "yes", "name": "Mini Mercado Extra"}}, {"type": "way", "id": 869725719, "nodes": [8103932518, 8103932519, 8103932527, 8103932528, 8103932529, 8103932530, 8103932531, 8103932533, 8935368987, 8935368986, 8103932520, 8103932521, 8103932522, 8103932523, 8103932524, 8103932525, 8103932526, 8103932518], "tags": {"addr:city": "Guarulhos", "addr:housenumber": "75", "addr:postcode": "07196200", "addr:street": "Rua Araruna", "addr:suburb": "Bom Clima", "garden:type": "residental", "leaf_cycle": "evergreen", "leaf_type": "broadleaved", "leisure": "park", "natural": "wood", "trees": "olive_trees"}}, {"type": "way", "id": 1079867121, "nodes": [9898332378, 9898332379, 9898332381, 9898332386, 9898332380, 9898332388, 9898332389, 9898332391, 9898332390], "tags": {"addr:inclusion": "estimate", "addr:interpolation": "all", "addr:postcode": "07122-190", "addr:street": "Rua Rosacruz"}}, {"type": "way", "id": 1080047252, "nodes": [9899909992, 9899909993, 9899909994, 9899909995, 9899909996, 9899909997, 9899916899, 9899909998, 9899909999, 9899910000, 9899910001, 9899910002, 9899910003, 9899910004, 9899910005, 9899910006, 9899916901, 9899910007, 9899910008, 9899910009, 9899910010, 9899916904, 9899910011, 9899910012, 9899910013, 9899910014, 9899910015], "tags": {"addr:inclusion": "estimate", "addr:interpolation": "even", "addr:postcode": "07196-000", "addr:street": "Avenida Tiradentes"}}, {"type": "way", "id": 1080047253, "nodes": [9899910016, 9899916817, 9899916818, 9899916819, 9899916820, 9899916821, 9899916903, 9899916822, 9899916823, 9899916824, 9899916825, 9899916900, 9899916826, 9899916827, 9899916828, 9899916829, 9899916830, 9899916831, 9899916832, 9899916833, 9899916834, 9899916835, 9899916836, 9899916898, 9899916837, 9899916838, 9899916839, 9899916840, 9899916841, 9899916897, 9899916842, 9899916843], "tags": {"addr:inclusion": "estimate", "addr:interpolation": "odd", "addr:postcode": "07196-000", "addr:street": "Avenida Tiradentes"}}, {"type": "way", "id": 1082377782, "nodes": [9919684771, 9919684772, 9919684780, 9919684768, 9919684769, 9919684770, 9919684773, 9919684775, 9919684774, 9919684771], "tags": {"addr:city": "Guarulhos", "addr:housenumber": "289", "addr:street": "Rua Professor Vasco de Queiroz Guimar\u00e3es", "addr:suburb": "Jardim Bom Clima", "amenity": "school", "barrier": "wall", "name": "EPG Crispiniano Soares"}}, {"type": "way", "id": 1082377784, "nodes": [9919684781, 9919684782, 9919684783, 9919684784, 9919684785, 9919684786, 9919684787, 9919684788, 9919684789, 9919684790, 9919684791, 9919684804, 9919684802, 9919684792, 9919684803, 9919684793, 9919684794, 9919684795, 9919684796, 9919684797, 9919684798, 9919684799, 9919684800, 9919684801, 9919684781], "tags": {"addr:city": "Guarulhos", "addr:housenumber": "556", "addr:postcode": "07196-220", "addr:street": "Avenida Bom Clima", "addr:suburb": "Jardim Bom Clima", "amenity": "school", "barrier": "wall", "name": "E.E Padre Conrado Silva Alsina", "short_name": "Escola Estadual Padre Conrado Silva Alsina"}}, {"type": "way", "id": 1206785163, "nodes": [11182534320, 11182534321, 11182534326, 11182534327, 11182534322, 11182534319, 11182539554, 11182534323, 11182534328, 11182534324, 11182534325, 11182534329, 11182534330, 11182534331, 11182534332, 11182534333, 11182534334, 11182534320], "tags": {"addr:city": "Guarulhos", "addr:suburb": "Bom Clima", "amenity": "townhall", "building": "yes", "name": "Pa\u00e7o Municipal de Guarulhos", "name:en": "Guarulhos City Hall", "operator": "Prefeitura de Guarulhos", "townhall:type": "municipality"}}, {"type": "way", "id": 1206785176, "nodes": [11182539724, 11182539584, 11182539585, 11182539586, 11182539587, 11182539588, 11182539589, 11182539590, 11182539591, 11182539725, 11182539648, 11182539592, 11182539594, 11182539595, 11182539596, 11182539597, 11182539598, 11182539599, 11182539607, 11182539604, 11182539593, 11182539636, 11182539722, 11182539723, 11182539724]}, {"type": "way", "id": 1206785209, "nodes": [11182539930, 11182539931, 11182539932, 11182539933, 11182539934, 11182539935, 11182539936, 11182539937, 11182539930]}, {"type": "relation", "id": 16313003, "members": [{"type": "way", "ref": 1206785209, "role": "outer"}, {"type": "way", "ref": 1206785176, "role": "outer"}], "tags": {"addr:city": "Guarulhos", "addr:postcode": "07196-000", "addr:street": "Avenida Tiradentes", "addr:suburb": "Bom Clima", "alt_name": "Parque Bom Clima", "leisure": "park", "name": "Parque JB Maciel", "name:en": "JB Maciel Park", "official_name": "Parque Jorge Balsalobre Maciel", "opening_hours": "Mo-Su 06:00-20:00", "operator": "Prefeitura Municipal de Guarulhos", "operator:type": "government", "type": "multipolygon", "website": "https://turismo.guarulhos.sp.gov.br/content/parque-bom-clima-jb-maciel"}}]}