{"version": 0.6, "generator": "Overpass API 0.7.61.5 4133829e", "osm3s": {"timestamp_osm_base": "2024-02-26T22:10:13Z", "copyright": "The data included in this document is from www.openstreetmap.org. The data is made available under ODbL."}, "elements": [{"type": "node", "id": 3096517229, "lat": -23.5390491, "lon": -46.2202691}, {"type": "node", "id": 3096517231, "lat": -23.5389537, "lon": -46.2199441}, {"type": "node", "id": 3096517232, "lat": -23.5392751, "lon": -46.219847}, {"type": "node", "id": 3096517233, "lat": -23.5393763, "lon": -46.220081}, {"type": "node", "id": 4882544722, "lat": -23.538994, "lon": -46.2201468}, {"type": "node", "id": 4882544723, "lat": -23.5389296, "lon": -46.2199972}, {"type": "node", "id": 4894528161, "lat": -23.5418413, "lon": -46.2236288}, {"type": "node", "id": 4894528162, "lat": -23.5415658, "lon": -46.222851}, {"type": "node", "id": 4894528163, "lat": -23.5415708, "lon": -46.2228054}, {"type": "node", "id": 4894528164, "lat": -23.5416199, "lon": -46.2227651}, {"type": "node", "id": 4894528165, "lat": -23.5428052, "lon": -46.2221348}, {"type": "node", "id": 4894528166, "lat": -23.543174, "lon": -46.2230092}, {"type": "node", "id": 4894528167, "lat": -23.5419347, "lon": -46.2236462}, {"type": "node", "id": 4894528168, "lat": -23.5418821, "lon": -46.2236592}, {"type": "node", "id": 5746059013, "lat": -23.5410947, "lon": -46.2216128}, {"type": "node", "id": 5746059014, "lat": -23.5408734, "lon": -46.2210925}, {"type": "node", "id": 5746059015, "lat": -23.5408832, "lon": -46.2210388}, {"type": "node", "id": 5746059016, "lat": -23.5421078, "lon": -46.2204004}, {"type": "node", "id": 5746059017, "lat": -23.5423242, "lon": -46.2209583}, {"type": "node", "id": 5800095250, "lat": -23.5393586, "lon": -46.2195067}, {"type": "node", "id": 5800095251, "lat": -23.5394693, "lon": -46.2194718}, {"type": "node", "id": 5800095252, "lat": -23.5394029, "lon": -46.2192385}, {"type": "node", "id": 5800095553, "lat": -23.5393611, "lon": -46.2192573}, {"type": "node", "id": 5800095554, "lat": -23.5393021, "lon": -46.219276}, {"type": "node", "id": 6495304794, "lat": -23.5390223, "lon": -46.2237459, "tags": {"addr:city": "Mogi das Cruzes", "addr:housenumber": "391", "addr:postcode": "08740-270", "addr:street": "Rua Dr Deodato Werteimer", "addr:suburb": "Br\u00e1s Cubas", "air_conditioning": "yes", "amenity": "restaurant", "cuisine": "regional;steak_house;barbecue;brazilian;salad;dessert;drinks", "delivery": "no", "name": "Jolie Grill", "opening_hours": "Mo-Su 11:00-15:00", "outdoor_seating": "no", "parking": "yes", "parking:fee": "no", "phone": "+55 11 4735-0743", "takeaway": "yes"}}, {"type": "node", "id": 6504916810, "lat": -23.5387565, "lon": -46.21756}, {"type": "node", "id": 6504916811, "lat": -23.5391696, "lon": -46.2182279}, {"type": "node", "id": 6504916812, "lat": -23.5392483, "lon": -46.2181984}, {"type": "node", "id": 6504916813, "lat": -23.5394721, "lon": -46.2179033}, {"type": "node", "id": 6504916814, "lat": -23.5392557, "lon": -46.2171818}, {"type": "node", "id": 6504916815, "lat": -23.5389778, "lon": -46.2178899}, {"type": "node", "id": 6504916816, "lat": -23.5390884, "lon": -46.2180562}, {"type": "node", "id": 7279560475, "lat": -23.5406663, "lon": -46.2190883}, {"type": "node", "id": 7279560476, "lat": -23.5406516, "lon": -46.2190378}, {"type": "node", "id": 7279560477, "lat": -23.5405902, "lon": -46.2190591}, {"type": "node", "id": 7279560478, "lat": -23.5406048, "lon": -46.2191096}, {"type": "way", "id": 305076920, "nodes": [3096517229, 4882544722, 4882544723, 3096517231, 3096517232, 3096517233, 3096517229], "tags": {"addr:city": "Mogi das Cruzes", "addr:housenumber": "340", "addr:postcode": "08740-150", "addr:street": "Rua Padre \u00c1lvaro Quinones Zuniga", "addr:suburb": "Br\u00e1s Cubas", "amenity": "clinic", "emergency": "no", "healthcare": "clinic", "healthcare:speciality": "general;paediatrics;gynaecology", "name": "Unidade B\u00e1sica de Sa\u00fade Br\u00e1s Cubas", "opening_hours": "Mo-Fr 07:30-17:00", "phone": "+55 11 4727 5842", "short_name": "UBS Br\u00e1s Cubas"}}, {"type": "way", "id": 497957415, "nodes": [4894528161, 4894528162, 4894528163, 4894528164, 4894528165, 4894528166, 4894528167, 4894528168, 4894528161], "tags": {"addr:city": "Mogi das Cruzes", "addr:country": "BR", "addr:postcode": "08740-010", "addr:street": "Rua Schwartzmann", "addr:suburb": "Braz Cubas", "amenity": "school", "contact:phone": "+55 11 4721 6114", "email": "e006683a@educacao.gov.sp.br", "name": "Escola Estadual Galdino Pinheiro Franco", "operator": "Secretaria da Educa\u00e7\u00e3o do Estado de S\u00e3o Paulo", "operator:type": "government", "phone": "+55 11 4727 3925", "ref": "INEP-35006683", "religion": "none"}}, {"type": "way", "id": 605949135, "nodes": [5746059013, 5746059014, 5746059015, 5746059016, 5746059017, 5746059013], "tags": {"addr:city": "Mogi das Cruzes", "addr:housenumber": "577", "addr:street": "Rua Guttermann", "addr:suburb": "Braz Cubas", "amenity": "hospital", "contact:email": "sau@hmmcprosaude.org.br", "healthcare": "hospital", "healthcare:speciality": "paediatrics;gynaecology;cardiology;otolaryngology;urology", "name": "Hospital Municipal de Mogi das Cruzes Prefeito Waldemar Costa Filho", "phone": "+55 11 4791 7780", "website": "http://www.hospital.pmmc.com.br/"}}, {"type": "way", "id": 612805184, "nodes": [5800095250, 5800095251, 5800095252, 5800095553, 5800095554, 5800095250], "tags": {"addr:city": "Mogi das Cruzes", "addr:housenumber": "255", "addr:street": "Rua Padre \u00c1lvaro Quinonez Zu\u00f1iga", "addr:suburb": "Braz Cubas", "amenity": "place_of_worship", "building": "church", "denomination": "baptist", "name": "Igreja Batista IBBC", "phone": "+55 11 4722 8481", "religion": "christian", "website": "https://ibbc.org.br/"}}, {"type": "way", "id": 692863297, "nodes": [6504916810, 6504916815, 6504916816, 6504916811, 6504916812, 6504916813, 6504916814, 6504916810], "tags": {"access": "yes", "addr:city": "Mogi das Cruzes", "addr:postcode": "08740-320", "addr:street": "Rua Guttermann", "addr:suburb": "Br\u00e1s Cubas", "amenity": "marketplace", "bicycle": "yes", "building": "roof", "fish": "yes", "flower": "yes", "food": "yes", "foot": "yes", "herb": "yes", "horse": "no", "lit": "no", "loc_name": "P\u00e1tio da Feira de Braz Cubas", "meat": "no", "motor_vehicle": "no", "name": "Pra\u00e7a Maria Luiza da Rocha Cavenaghi", "opening_hours": "Fr 07:00-12:30; Su 06:00-13:30", "source": "https://www.mogidascruzes.sp.gov.br/noticia/prefeitura-entrega-cobertura-do-patio-da-feira-de-braz-cubas", "spices": "yes", "surface": "asphalt", "vegetable": "yes"}}, {"type": "way", "id": 779561231, "nodes": [7279560478, 7279560477, 7279560476, 7279560475, 7279560478], "tags": {"amenity": "toilets", "building": "yes"}}]}