{"version": 0.6, "generator": "Overpass API 0.7.61.5 4133829e", "osm3s": {"timestamp_osm_base": "2024-02-26T22:09:14Z", "copyright": "The data included in this document is from www.openstreetmap.org. The data is made available under ODbL."}, "elements": [{"type": "node", "id": 4018489103, "lat": -24.0038582, "lon": -46.4180881}, {"type": "node", "id": 4018489104, "lat": -24.0038678, "lon": -46.41805}, {"type": "node", "id": 4018489105, "lat": -24.0038954, "lon": -46.4180303}, {"type": "node", "id": 4018489106, "lat": -24.0039445, "lon": -46.4180263}, {"type": "node", "id": 4018489107, "lat": -24.0044087, "lon": -46.4195467}, {"type": "node", "id": 4018489108, "lat": -24.0044567, "lon": -46.41959}, {"type": "node", "id": 4018489109, "lat": -24.0045466, "lon": -46.4195926}, {"type": "node", "id": 4018489110, "lat": -24.0051019, "lon": -46.4194404}, {"type": "node", "id": 4018489111, "lat": -24.0051403, "lon": -46.4194128}, {"type": "node", "id": 4018489112, "lat": -24.0051583, "lon": -46.4193681}, {"type": "node", "id": 4018489113, "lat": -24.0052375, "lon": -46.4182285}, {"type": "node", "id": 4018489114, "lat": -24.0052734, "lon": -46.4182456}, {"type": "node", "id": 4018489115, "lat": -24.0053022, "lon": -46.4183007}, {"type": "node", "id": 8338560593, "lat": -24.0043939, "lon": -46.4180966, "tags": {"barrier": "gate"}}, {"type": "node", "id": 8338560594, "lat": -24.0047358, "lon": -46.4195407, "tags": {"barrier": "gate"}}, {"type": "node", "id": 10998583876, "lat": -24.0063147, "lon": -46.4180753}, {"type": "node", "id": 10998583877, "lat": -24.0063301, "lon": -46.4179688}, {"type": "node", "id": 10998583878, "lat": -24.006476, "lon": -46.417994}, {"type": "node", "id": 10998583879, "lat": -24.0064589, "lon": -46.4181024}, {"type": "way", "id": 399108104, "nodes": [4018489115, 4018489112, 4018489111, 4018489110, 8338560594, 4018489109, 4018489108, 4018489107, 4018489103, 4018489104, 4018489105, 4018489106, 8338560593, 4018489113, 4018489114, 4018489115], "tags": {"addr:city": "Praia Grande", "addr:housenumber": "550", "addr:postcode": "11701-210", "addr:street": "Rua Dair Borges", "addr:suburb": "Boqueir\u00e3o", "amenity": "hospital", "barrier": "wall", "emergency": "yes", "healthcare": "hospital", "name": "Hospital Municipal Irm\u00e3 Dulce", "operator:ref:vatin": "BR46177531000155", "phone": "+55 13 3476- 4400", "ref:CNES": "7113072", "website": "https://fuabc.org.br/nossas-unidades/hospital-irma-dulce/"}}, {"type": "way", "id": 1184339745, "nodes": [10998583876, 10998583877, 10998583878, 10998583879, 10998583876], "tags": {"addr:city": "Praia Grande", "addr:housenumber": "450", "addr:postcode": "11701-210", "addr:street": "Rua Fumio Miyazi", "addr:suburb": "Boqueir\u00e3o", "air_conditioning": "yes", "amenity": "restaurant", "building": "commercial", "cuisine": "burger;ice_cream;hot_dog;pastel", "name": "Dragon Food Burguer", "opening_hours": "18-23h", "phone": "5513981731222", "website": "https://www.facebook.com/dragonfoodburguer/", "wheelchair": "yes"}}]}