{"version": 0.6, "generator": "Overpass API 0.7.61.5 4133829e", "osm3s": {"timestamp_osm_base": "2024-02-19T19:47:11Z", "copyright": "The data included in this document is from www.openstreetmap.org. The data is made available under ODbL."}, "elements": [{"type": "node", "id": 3262531026, "lat": -23.493387, "lon": -46.3893978}, {"type": "node", "id": 3262531027, "lat": -23.4924736, "lon": -46.3884713}, {"type": "node", "id": 3262531028, "lat": -23.4923727, "lon": -46.3883458}, {"type": "node", "id": 3262531029, "lat": -23.4923373, "lon": -46.3882358}, {"type": "node", "id": 3262531030, "lat": -23.4921302, "lon": -46.3879965}, {"type": "node", "id": 3262531031, "lat": -23.4914681, "lon": -46.3887415}, {"type": "node", "id": 3262531032, "lat": -23.4917425, "lon": -46.3890156}, {"type": "node", "id": 3262531033, "lat": -23.4918948, "lon": -46.3888457}, {"type": "node", "id": 3262531034, "lat": -23.4920824, "lon": -46.3890407}, {"type": "node", "id": 3262531035, "lat": -23.4920222, "lon": -46.3891179}, {"type": "node", "id": 3262531036, "lat": -23.4929002, "lon": -46.3900733}, {"type": "node", "id": 3262531037, "lat": -23.492952, "lon": -46.3899132}, {"type": "node", "id": 3262531038, "lat": -23.4929951, "lon": -46.3899547}, {"type": "node", "id": 3268587263, "lat": -23.4909258, "lon": -46.3862658}, {"type": "node", "id": 3268587264, "lat": -23.4910057, "lon": -46.3861144}, {"type": "node", "id": 3268587266, "lat": -23.490885, "lon": -46.3859949}, {"type": "node", "id": 3268587267, "lat": -23.4906813, "lon": -46.3861129}, {"type": "node", "id": 4823467607, "lat": -23.4908022, "lon": -46.3860854}, {"type": "node", "id": 4823467608, "lat": -23.4907509, "lon": -46.3860206}, {"type": "node", "id": 4823509632, "lat": -23.4915547, "lon": -46.3902074}, {"type": "node", "id": 4823509633, "lat": -23.4918548, "lon": -46.3898346}, {"type": "node", "id": 4823509634, "lat": -23.4914292, "lon": -46.3893947}, {"type": "node", "id": 4823509635, "lat": -23.4911144, "lon": -46.3897756}, {"type": "node", "id": 7309007977, "lat": -23.4907695, "lon": -46.3860441}, {"type": "node", "id": 7309007978, "lat": -23.4907068, "lon": -46.3861288}, {"type": "way", "id": 319792790, "nodes": [3262531026, 3262531027, 3262531028, 3262531029, 3262531030, 3262531031, 3262531032, 3262531033, 3262531034, 3262531035, 3262531036, 3262531038, 3262531037, 3262531026], "tags": {"addr:city": "S\u00e3o Paulo", "addr:country": "BR", "addr:housenumber": "6035", "addr:postcode": "08115-100", "addr:street": "Avenida Marechal Tito", "addr:suburb": "Itaim Paulista", "amenity": "hospital", "emergency": "yes", "healthcare": "hospital", "name": "Hospital Santa Marcelina do Itaim Paulista O.S.S", "operator:ref:vatin": "BR46374500000194", "phone": "+55 11 2563-6300", "ref:CNES": "2077620", "ref:vatin": "BR46374500014144", "start_date": "1998", "website": "https://santamarcelina.org/hospital/estrutura/oss-santa-marcelina-do-itaim-paulista-oss/"}}, {"type": "way", "id": 320350990, "nodes": [3268587263, 3268587264, 3268587266, 4823467607, 7309007977, 4823467608, 3268587267, 7309007978, 3268587263], "tags": {"addr:city": "S\u00e3o Paulo", "addr:street": "Avenida Marechal Tito", "amenity": "fuel", "brand": "Ale", "building": "yes"}}, {"type": "way", "id": 490171478, "nodes": [4823509632, 4823509633, 4823509634, 4823509635, 4823509632], "tags": {"addr:city": "S\u00e3o Paulo", "addr:housenumber": "104", "addr:postcode": "08111-750", "addr:street": "Rua Salvador Balbino de Matos", "addr:suburb": "Vila Itaim", "amenity": "school", "contact:phone": "+55 11 2963 3789", "email": "e902603a@educacao.sp.gov.br", "name": "Escola Estadual Professor D\u00e1rio Monteiro de Brito", "operator": "Secretaria da Educa\u00e7\u00e3o do Estado de S\u00e3o Paulo", "phone": "+55 11 2963 2617"}}]}