{"version": 0.6, "generator": "Overpass API 0.7.61.5 4133829e", "osm3s": {"timestamp_osm_base": "2024-02-26T22:17:27Z", "copyright": "The data included in this document is from www.openstreetmap.org. The data is made available under ODbL."}, "elements": [{"type": "node", "id": 3050813623, "lat": -23.9434409, "lon": -46.3774478, "tags": {"amenity": "hospital", "name": "Hospital Zona Noroeste"}}, {"type": "node", "id": 3050816584, "lat": -23.9426834, "lon": -46.3783598, "tags": {"addr:city": "Santos", "addr:housenumber": "150", "addr:street": "Pra\u00e7a Doutor Bruno Barbosa", "addr:suburb": "Castelo", "amenity": "place_of_worship", "name": "Par\u00f3quia Sagrada Fam\u00edlia", "religion": "christian"}}, {"type": "node", "id": 3050816586, "lat": -23.9422568, "lon": -46.3777214, "tags": {"addr:street": "Pra\u00e7a Doutor Bruno Barbosa", "amenity": "fire_station", "name": "Posto do Sexto Grupamento de Bombeiros", "operator": "Corpo de Bombeiros da Pol\u00edcia Militar do Estado de S\u00e3o Paulo"}}, {"type": "node", "id": 4417738143, "lat": -23.9454847, "lon": -46.3769693}, {"type": "node", "id": 4417738144, "lat": -23.9454977, "lon": -46.3768453}, {"type": "node", "id": 4417738145, "lat": -23.94552, "lon": -46.3767356}, {"type": "node", "id": 4417738146, "lat": -23.9455757, "lon": -46.3767376}, {"type": "node", "id": 4417738147, "lat": -23.945559, "lon": -46.3768514}, {"type": "node", "id": 4417738148, "lat": -23.945546, "lon": -46.3769775}, {"type": "node", "id": 4779103087, "lat": -23.9446003, "lon": -46.3769947}, {"type": "node", "id": 4779103088, "lat": -23.9448314, "lon": -46.3771577}, {"type": "node", "id": 4779103089, "lat": -23.944898, "lon": -46.3770446}, {"type": "node", "id": 4779103090, "lat": -23.9446528, "lon": -46.3769583}, {"type": "node", "id": 4779103091, "lat": -23.9446169, "lon": -46.3769665}, {"type": "node", "id": 4779249749, "lat": -23.9425433, "lon": -46.3757435}, {"type": "node", "id": 4779249750, "lat": -23.9425991, "lon": -46.3757611}, {"type": "node", "id": 4779249751, "lat": -23.942629, "lon": -46.3756472}, {"type": "node", "id": 4779249752, "lat": -23.9425732, "lon": -46.3756296}, {"type": "way", "id": 444285328, "nodes": [4417738143, 4417738144, 4417738145, 4417738146, 4417738147, 4417738148, 4417738143], "tags": {"addr:city": "Santos", "addr:housenumber": "47", "addr:postcode": "11087-200", "addr:street": "Rua Professor Lu\u00eds Gomes Cruz", "addr:suburb": "Jardim Castelo", "amenity": "pharmacy", "building": "house", "drive_through": "no", "name": "Drogaria Reis", "opening_hours": "08:00-22:00", "phone": "+55 13 3299-5006"}}, {"type": "way", "id": 485142360, "nodes": [4779103087, 4779103088, 4779103089, 4779103090, 4779103091, 4779103087], "tags": {"addr:city": "Santos", "addr:housenumber": "368", "addr:street": "Rua Professor Lu\u00eds Gomes Cruz", "addr:suburb": "Jardim Castelo", "amenity": "community_centre", "building": "yes", "name": "Associa\u00e7\u00e3o dos Moradores Pr\u00f3-Melhoramentos Jardim Castelo"}}, {"type": "way", "id": 485157594, "nodes": [4779249749, 4779249750, 4779249751, 4779249752, 4779249749], "tags": {"addr:city": "Santos", "addr:housenumber": "34", "addr:street": "Pra\u00e7a Doutor Tennyson de Oliveira Ribeiro", "addr:suburb": "Areia Branca", "amenity": "restaurant", "building": "yes", "name": "Restaurante Norte Sul"}}]}