{"version": 0.6, "generator": "Overpass API 0.7.61.5 4133829e", "osm3s": {"timestamp_osm_base": "2024-02-26T22:06:10Z", "copyright": "The data included in this document is from www.openstreetmap.org. The data is made available under ODbL."}, "elements": [{"type": "node", "id": 3664805141, "lat": -22.9159972, "lon": -47.0679483}, {"type": "node", "id": 4416325049, "lat": -22.915198, "lon": -47.0692183}, {"type": "node", "id": 4416325050, "lat": -22.9150672, "lon": -47.0689789}, {"type": "node", "id": 4416325051, "lat": -22.9154621, "lon": -47.0686948}, {"type": "node", "id": 4416325052, "lat": -22.9155905, "lon": -47.0689447}, {"type": "node", "id": 4416325053, "lat": -22.9151687, "lon": -47.0692348}, {"type": "node", "id": 4416325054, "lat": -22.9150302, "lon": -47.0689411}, {"type": "node", "id": 4416325055, "lat": -22.9154299, "lon": -47.0686511}, {"type": "node", "id": 4416325057, "lat": -22.9135487, "lon": -47.0695109}, {"type": "node", "id": 4416325058, "lat": -22.9133964, "lon": -47.0703233}, {"type": "node", "id": 4416325059, "lat": -22.9135397, "lon": -47.0703879}, {"type": "node", "id": 5059185922, "lat": -22.9175246, "lon": -47.0681354, "tags": {"amenity": "courthouse", "name": "Receita Federal", "name:pt": "Receita Federal"}}, {"type": "node", "id": 5426557843, "lat": -22.9134247, "lon": -47.0704002}, {"type": "node", "id": 5426573563, "lat": -22.9136171, "lon": -47.069145}, {"type": "node", "id": 5426573564, "lat": -22.9152431, "lon": -47.0683644}, {"type": "node", "id": 5426573565, "lat": -22.9148637, "lon": -47.06725}, {"type": "node", "id": 5426573566, "lat": -22.9138922, "lon": -47.0678588}, {"type": "node", "id": 5426573567, "lat": -22.9140767, "lon": -47.0689349}, {"type": "node", "id": 5426573568, "lat": -22.9141614, "lon": -47.069095}, {"type": "node", "id": 5728935222, "lat": -22.9165009, "lon": -47.0706004, "tags": {"amenity": "school", "name": "Patrulheiros de Campinas"}}, {"type": "node", "id": 5916647187, "lat": -22.915801, "lon": -47.0679394, "tags": {"amenity": "hospital", "healthcare": "hospital", "name": "Hospital"}}, {"type": "node", "id": 8861506306, "lat": -22.9163846, "lon": -47.0648097}, {"type": "node", "id": 8861506914, "lat": -22.9159185, "lon": -47.0654786}, {"type": "node", "id": 8861506915, "lat": -22.9159393, "lon": -47.0646709}, {"type": "node", "id": 8861506916, "lat": -22.9170454, "lon": -47.0650368}, {"type": "node", "id": 8861512317, "lat": -22.9167628, "lon": -47.065744}, {"type": "node", "id": 8863852846, "lat": -22.9172605, "lon": -47.0658984}, {"type": "node", "id": 8863852847, "lat": -22.9176013, "lon": -47.065439}, {"type": "node", "id": 8863852848, "lat": -22.9176762, "lon": -47.0655773}, {"type": "node", "id": 8863852849, "lat": -22.9176949, "lon": -47.0656708}, {"type": "node", "id": 8863852850, "lat": -22.9176387, "lon": -47.065809}, {"type": "node", "id": 8863852851, "lat": -22.9175676, "lon": -47.0660245}, {"type": "node", "id": 8863852856, "lat": -22.916583, "lon": -47.0664102}, {"type": "node", "id": 8863852857, "lat": -22.9167729, "lon": -47.0664921}, {"type": "node", "id": 8863852858, "lat": -22.9169401, "lon": -47.0660353}, {"type": "node", "id": 8863852859, "lat": -22.9167502, "lon": -47.0659534}, {"type": "node", "id": 8863852860, "lat": -22.9151885, "lon": -47.0663684}, {"type": "node", "id": 8863852861, "lat": -22.9152179, "lon": -47.0659791}, {"type": "node", "id": 8863852862, "lat": -22.915772, "lon": -47.0661454}, {"type": "node", "id": 8863852863, "lat": -22.9156808, "lon": -47.0665453}, {"type": "node", "id": 8870317172, "lat": -22.9159481, "lon": -47.0692046}, {"type": "node", "id": 8870317173, "lat": -22.9159844, "lon": -47.0691803}, {"type": "node", "id": 8870317174, "lat": -22.9162019, "lon": -47.0695636}, {"type": "node", "id": 8870317175, "lat": -22.9161656, "lon": -47.0695879}, {"type": "node", "id": 9832165536, "lat": -22.9162393, "lon": -47.0692317}, {"type": "node", "id": 9832165537, "lat": -22.9161417, "lon": -47.06917}, {"type": "node", "id": 9832165538, "lat": -22.9163134, "lon": -47.0692478}, {"type": "node", "id": 9832165539, "lat": -22.916889, "lon": -47.0676398}, {"type": "node", "id": 9832165540, "lat": -22.9162072, "lon": -47.0674306}, {"type": "node", "id": 9832165541, "lat": -22.9158144, "lon": -47.0686027}, {"type": "way", "id": 444138504, "nodes": [4416325049, 4416325050, 4416325051, 4416325052, 4416325049], "tags": {"addr:city": "Campinas", "addr:housenumber": "450", "addr:postcode": "13036-225", "addr:street": "Avenida das Amoreiras", "addr:suburb": "Vila Industrial", "amenity": "theatre", "building": "yes", "name": "Teatro do SESI", "operator": "SESI"}}, {"type": "way", "id": 444138505, "nodes": [4416325053, 4416325054, 4416325055, 5426573564, 5426573568, 5426573567, 5426573563, 4416325057, 4416325058, 5426557843, 4416325059, 4416325053], "tags": {"addr:city": "Campinas", "addr:housenumber": "450", "addr:street": "Avenida das Amoreiras", "addr:suburb": "Vila Industrial", "amenity": "school", "name": "Centro Educacional SESI", "website": "https://www.sesisp.org.br/"}}, {"type": "way", "id": 563025366, "nodes": [5426573563, 5426573567, 5426573568, 5426573564, 5426573565, 5426573566, 5426573563], "tags": {"addr:city": "Campinas", "addr:housenumber": "71", "addr:postcode": "13036210", "addr:street": "Rua Pastor C\u00edcero Canuto de Lima", "addr:suburb": "S\u00e3o Bernardo", "amenity": "college", "name": "SENAI Roberto Mange"}}, {"type": "way", "id": 957693094, "nodes": [8861506914, 8861506915, 8861506306, 8861506916, 8861512317, 8861506914], "tags": {"addr:city": "Campinas", "addr:housenumber": "100", "addr:street": "Rua Donato Paschoal", "addr:suburb": "Parque It\u00e1lia", "building": "yes", "name": "Hotel Vila Rica", "tourism": "hotel"}}, {"type": "way", "id": 957947836, "nodes": [8863852846, 8863852847, 8863852848, 8863852849, 8863852850, 8863852851, 8863852846], "tags": {"amenity": "parking"}}, {"type": "way", "id": 957947838, "nodes": [8863852856, 8863852857, 8863852858, 8863852859, 8863852856], "tags": {"addr:city": "Campinas", "addr:housenumber": "720", "addr:street": "Rua S\u00e3o Carlos", "addr:suburb": "Parque It\u00e1lia", "building": "yes", "name": "Instituto Adolfo Lutz", "office": "research"}}, {"type": "way", "id": 957947839, "nodes": [8863852860, 8863852861, 8863852862, 8863852863, 8863852860], "tags": {"addr:city": "Campinas", "addr:housenumber": "191", "addr:street": "Avenida das Amoreiras", "addr:suburb": "Parque It\u00e1lia", "amenity": "police", "building": "yes", "name": "Pol\u00edcia Militar Ambiental"}}, {"type": "way", "id": 958674461, "nodes": [8870317175, 8870317174, 8870317173, 8870317172, 8870317175], "tags": {"amenity": "bus_station", "building": "roof", "name": "Esta\u00e7\u00e3o Mario Gatti", "network": "EMDEC", "public_transport": "station", "shelter": "yes"}}, {"type": "way", "id": 1071415300, "nodes": [9832165541, 3664805141, 9832165540, 9832165539, 9832165538, 9832165536, 9832165537, 9832165541], "tags": {"addr:city": "Campinas", "addr:housenumber": "340", "addr:postcode": "13036-902", "addr:street": "Avenida Prefeito Faria Lima", "addr:suburb": "Parque It\u00e1lia", "amenity": "hospital", "email": "imprensa@hmmg.sp.gov.br", "emergency": "yes", "healthcare": "hospital", "name": "Hospital Municipal Doutor Mario Gatti", "operator": "Municipal", "operator:ref:vatin": "BR47018676000176", "phone": "+55 19 3772 5700", "ref:CNES": "2081490", "website": "http://www.hmmg.sp.gov.br/"}}]}