{"version": 0.6, "generator": "Overpass API 0.7.61.5 4133829e", "osm3s": {"timestamp_osm_base": "2024-02-26T22:08:15Z", "copyright": "The data included in this document is from www.openstreetmap.org. The data is made available under ODbL."}, "elements": [{"type": "node", "id": 5260799492, "lat": -23.4415261, "lon": -46.9251452}, {"type": "node", "id": 5260799493, "lat": -23.4415232, "lon": -46.9249304}, {"type": "node", "id": 5260799494, "lat": -23.4415381, "lon": -46.9245481}, {"type": "node", "id": 5260799496, "lat": -23.441554, "lon": -46.9239695}, {"type": "node", "id": 5260799497, "lat": -23.4415245, "lon": -46.9239426}, {"type": "node", "id": 5260799498, "lat": -23.4414949, "lon": -46.9239265}, {"type": "node", "id": 5260799500, "lat": -23.4410514, "lon": -46.9239406}, {"type": "node", "id": 5260799502, "lat": -23.4410776, "lon": -46.9248167}, {"type": "node", "id": 5260799503, "lat": -23.4411119, "lon": -46.9252089}, {"type": "node", "id": 5303279333, "lat": -23.4410647, "lon": -46.9244785}, {"type": "node", "id": 6255928135, "lat": -23.4425483, "lon": -46.9261761}, {"type": "node", "id": 6255928136, "lat": -23.4426774, "lon": -46.9262463}, {"type": "node", "id": 6255928137, "lat": -23.4427057, "lon": -46.9261762}, {"type": "node", "id": 6255928138, "lat": -23.4425773, "lon": -46.926121}, {"type": "node", "id": 6256117009, "lat": -23.4414365, "lon": -46.9251402}, {"type": "node", "id": 6311652418, "lat": -23.4417223, "lon": -46.9237798}, {"type": "node", "id": 6311652419, "lat": -23.441716, "lon": -46.9236835}, {"type": "node", "id": 6311652420, "lat": -23.4417917, "lon": -46.9236801}, {"type": "node", "id": 6311652421, "lat": -23.4417917, "lon": -46.9237867}, {"type": "node", "id": 6311652422, "lat": -23.4417633, "lon": -46.9238005}, {"type": "node", "id": 6311881336, "lat": -23.44012, "lon": -46.9242974}, {"type": "node", "id": 6311881337, "lat": -23.4402025, "lon": -46.9242659}, {"type": "node", "id": 6311881338, "lat": -23.440188, "lon": -46.9242165}, {"type": "node", "id": 6311881339, "lat": -23.4401798, "lon": -46.9241918}, {"type": "node", "id": 6311881340, "lat": -23.4400932, "lon": -46.9242255}, {"type": "node", "id": 6311881341, "lat": -23.4400973, "lon": -46.9242637}, {"type": "node", "id": 6419508795, "lat": -23.4426882, "lon": -46.9254938}, {"type": "node", "id": 6419508796, "lat": -23.4428827, "lon": -46.924767}, {"type": "node", "id": 6419508797, "lat": -23.4428236, "lon": -46.924653}, {"type": "node", "id": 6419508798, "lat": -23.4427535, "lon": -46.9246302}, {"type": "node", "id": 6419508799, "lat": -23.4426439, "lon": -46.9246637}, {"type": "node", "id": 6419508800, "lat": -23.4418664, "lon": -46.9251478}, {"type": "node", "id": 6419508801, "lat": -23.4421616, "lon": -46.9248917}, {"type": "node", "id": 6419508802, "lat": -23.44243, "lon": -46.9247853}, {"type": "node", "id": 10900536665, "lat": -23.441496, "lon": -46.9258417, "tags": {"addr:housenumber": "868", "addr:street": "Rua Professor Edgar de Moraes", "addr:suburb": "Jardim Frediani", "amenity": "clinic", "healthcare": "clinic", "healthcare:speciality": "general;paediatrics;ginecologia;vaccination", "name": "Unidade B\u00e1sica de Sa\u00fade Doutor \u00c1lvaro Ribeiro", "opening_hours": "Mo-Fr 07:00-17:00; Sa,Su,PH off", "operator": "Secretaria de Sa\u00fade", "operator:type": "government", "ref:CNES": "3005909", "short_name": "UBS Doutor \u00c1lvaro Ribeiro", "source": "CNES"}}, {"type": "node", "id": 10900536666, "lat": -23.4411491, "lon": -46.9258832, "tags": {"addr:housenumber": "868", "addr:street": "Rua Professor Edgar de Moraes", "addr:suburb": "Jardim Frediani", "amenity": "clinic", "government": "administrative", "healthcare": "clinic", "healthcare:speciality": "fisioterapia;fonoaudiologia;terapeuta_ocupacional", "name": "Centro Funcional Integrado em Sa\u00fade", "opening_hours": "Mo-Fr 07:00-19:00; Sa,Su,PH off", "operator": "Secretaria de Sa\u00fade", "phone": "+55 11 4622 8856", "short_name": "CEFIS"}}, {"type": "node", "id": 10900536669, "lat": -23.4420583, "lon": -46.9254756, "tags": {"addr:housenumber": "765", "addr:street": "Rua Professor Edgar de Moraes", "addr:suburb": "Jardim Frediani", "amenity": "hospital", "emergency": "yes", "healthcare": "hospital", "healthcare:speciality": "paediatrics", "name": "Pronto Socorro Infantil", "operator": "Secretaria de Sa\u00fade", "operator:type": "government", "phone": "+55 11 4622 7100"}}, {"type": "node", "id": 10900536670, "lat": -23.4419845, "lon": -46.9255895, "tags": {"addr:street": "Rua Professor Edgar de Moraes", "addr:suburb": "Jardim Frediani", "amenity": "clinic", "healthcare": "clinic", "healthcare:speciality": "alergia_e_imunologia;cardiology;dermatology;endocrinology;fisioterapia_respirat\u00f3ria;fonoaudiologia;gastroenterology;geriatrics;hebiatria;haematology;infectologia;nefrologia_adulto;neurology;nutricionista;ophthalmology;ortopedia;otolaryngology;pneumologia", "name": "Ambulat\u00f3rio M\u00e9dico de Espeicialidades Parna\u00edba", "opening_hours": "Mo-Fr 07:00-19:00; Sa,Su,PH off", "operator": "Secretaria de Sa\u00fade", "operator:type": "government", "phone": "+55 11 4622 7100", "short_name": "AME Parna\u00edba"}}, {"type": "way", "id": 544221184, "nodes": [5260799492, 5260799493, 5260799494, 5260799496, 5260799497, 5260799498, 5260799500, 5303279333, 5260799502, 5260799503, 6256117009, 5260799492], "tags": {"addr:city": "Santana de Parna\u00edba", "addr:housenumber": "10", "addr:postcode": "06502-156", "addr:street": "Rua Nelson Piccinini Miguel", "addr:suburb": "Jardim Frediani", "amenity": "school", "contact:phone": "+55 11 4154 2276", "email": "sme.albademello@edu.santanadeparnaiba.sp.gov.br", "name": "Colegio Municipal Professora Alba de Mello Bonilha", "phone": "+55 11 4154 1072", "ref": "35218054"}}, {"type": "way", "id": 668080768, "nodes": [6255928135, 6255928136, 6255928137, 6255928138, 6255928135], "tags": {"addr:city": "Santana de Parna\u00edba", "addr:street": "Rua Espanha", "addr:suburb": "Jardim S\u00e3o Lu\u00eds", "amenity": "place_of_worship", "building": "chapel", "denomination": "roman_catholic", "name": "Capela Nossa Senhora Aparecida", "religion": "christian"}}, {"type": "way", "id": 673970151, "nodes": [6311652418, 6311652419, 6311652420, 6311652421, 6311652422, 6311652418], "tags": {"addr:street": "Rua Alberto Frediani", "amenity": "place_of_worship", "building": "yes", "denomination": "methodist", "name": "Igreja Metodista", "religion": "christian", "service_times": "Su 18:00; We 19:30"}}, {"type": "way", "id": 673996895, "nodes": [6311881336, 6311881337, 6311881338, 6311881339, 6311881340, 6311881341, 6311881336], "tags": {"addr:housenumber": "35", "addr:postcode": "06501-235", "addr:street": "Rua Esperan\u00e7a", "amenity": "place_of_worship", "building": "chapel", "denomination": "roman_catholic", "name": "Comunidade Imaculada Concei\u00e7\u00e3o e Beato Frei Galv\u00e3o", "religion": "christian"}}, {"type": "way", "id": 685107075, "nodes": [6419508795, 6419508796, 6419508797, 6419508798, 6419508799, 6419508802, 6419508801, 6419508800, 6419508795], "tags": {"addr:housenumber": "765", "addr:postcode": "06502-165", "addr:street": "Rua Professor Edgar de Moraes", "addr:suburb": "Jardim Deghi", "amenity": "hospital", "emergency": "yes", "healthcare": "hospital", "healthcare:speciality": "general;ortopedia;gynaecology", "name": "Hospital Municipal  Santa Ana", "operator": "Secretaria de Sa\u00fade", "operator:ref:vatin": "BR46522983000127", "operator:type": "government", "phone": "+55 11 4622 8750", "ref:CNES": "9799265"}}]}