{"version": 0.6, "generator": "Overpass API 0.7.61.5 4133829e", "osm3s": {"timestamp_osm_base": "2024-02-19T19:48:10Z", "copyright": "The data included in this document is from www.openstreetmap.org. The data is made available under ODbL."}, "elements": [{"type": "node", "id": 3682252856, "lat": -20.8063505, "lon": -49.3595989}, {"type": "node", "id": 3682252857, "lat": -20.8066104, "lon": -49.3598071}, {"type": "node", "id": 3682252858, "lat": -20.8066492, "lon": -49.3597988}, {"type": "node", "id": 3682252859, "lat": -20.8068049, "lon": -49.3599654}, {"type": "node", "id": 3682252860, "lat": -20.8069052, "lon": -49.3592761}, {"type": "node", "id": 3682252863, "lat": -20.8070006, "lon": -49.3593969}, {"type": "node", "id": 3682252864, "lat": -20.8070093, "lon": -49.3594137}, {"type": "node", "id": 3682252865, "lat": -20.8071649, "lon": -49.3595802}, {"type": "node", "id": 4289027996, "lat": -20.8079655, "lon": -49.3592229, "tags": {"amenity": "toilets", "drinking_water": "yes", "name": "Banheiro P\u00fablico", "opening_hours": "Mo-Su 06:00-22:00", "toilets:disposal": "flush", "toilets:position": "seated", "wheelchair": "yes"}}, {"type": "node", "id": 4942615993, "lat": -20.8097858, "lon": -49.3598262}, {"type": "node", "id": 4942615994, "lat": -20.8100728, "lon": -49.3595941}, {"type": "node", "id": 4942615995, "lat": -20.8103035, "lon": -49.3595458}, {"type": "node", "id": 4942615997, "lat": -20.8101518, "lon": -49.3603572}, {"type": "node", "id": 4942615998, "lat": -20.8093581, "lon": -49.3605145}, {"type": "node", "id": 5421176210, "lat": -20.8070779, "lon": -49.3573397, "tags": {"addr:city": "S\u00e3o Jos\u00e9 do Rio Preto", "addr:housenumber": "126", "addr:street": "Rua Humberto Delboni", "amenity": "school", "name": "Col\u00e9gio Luminum Delphos", "wheelchair": "yes"}}, {"type": "node", "id": 6250360920, "lat": -20.8047803, "lon": -49.3613742}, {"type": "node", "id": 6250360921, "lat": -20.8052052, "lon": -49.3613788}, {"type": "node", "id": 6250360922, "lat": -20.8052072, "lon": -49.3611722}, {"type": "node", "id": 6250360923, "lat": -20.8047822, "lon": -49.3611676}, {"type": "node", "id": 6746938563, "lat": -20.8103612, "lon": -49.3648781}, {"type": "node", "id": 6746938564, "lat": -20.8103963, "lon": -49.364811}, {"type": "node", "id": 6746938565, "lat": -20.8104339, "lon": -49.3647265}, {"type": "node", "id": 6746938566, "lat": -20.8104702, "lon": -49.3646434}, {"type": "node", "id": 6746938567, "lat": -20.810489, "lon": -49.3645616}, {"type": "node", "id": 6746938568, "lat": -20.8104988, "lon": -49.3644523}, {"type": "node", "id": 6746938569, "lat": -20.8105984, "lon": -49.3644221}, {"type": "node", "id": 6746938570, "lat": -20.8104533, "lon": -49.3636577}, {"type": "node", "id": 6746938571, "lat": -20.8102972, "lon": -49.3627672}, {"type": "node", "id": 6746938572, "lat": -20.810212, "lon": -49.3621892}, {"type": "node", "id": 6746938573, "lat": -20.8101694, "lon": -49.3617976}, {"type": "node", "id": 6746938574, "lat": -20.8087941, "lon": -49.362098}, {"type": "node", "id": 6746938575, "lat": -20.8087954, "lon": -49.3626988}, {"type": "node", "id": 6746938576, "lat": -20.8090386, "lon": -49.3638817}, {"type": "node", "id": 6746938577, "lat": -20.8091113, "lon": -49.3642169}, {"type": "node", "id": 6746938578, "lat": -20.8092893, "lon": -49.3650806}, {"type": "node", "id": 6765118096, "lat": -20.8065552, "lon": -49.362102}, {"type": "node", "id": 6765118097, "lat": -20.8065978, "lon": -49.3618512}, {"type": "node", "id": 6765118098, "lat": -20.8066542, "lon": -49.3616205}, {"type": "node", "id": 6765118099, "lat": -20.8067156, "lon": -49.3614167}, {"type": "node", "id": 6765118100, "lat": -20.8067761, "lon": -49.3612219}, {"type": "node", "id": 6765118101, "lat": -20.8068319, "lon": -49.3612491}, {"type": "node", "id": 6765118102, "lat": -20.8067755, "lon": -49.3614274}, {"type": "node", "id": 6765118103, "lat": -20.8067072, "lon": -49.3616373}, {"type": "node", "id": 6765118104, "lat": -20.8066511, "lon": -49.3618633}, {"type": "node", "id": 6765118105, "lat": -20.8066131, "lon": -49.3621087}, {"type": "node", "id": 6765118106, "lat": -20.8065896, "lon": -49.3623256}, {"type": "node", "id": 6765118107, "lat": -20.8065273, "lon": -49.3623266}, {"type": "node", "id": 6765118113, "lat": -20.8068849, "lon": -49.3609857}, {"type": "node", "id": 6765118114, "lat": -20.8069367, "lon": -49.3609563}, {"type": "node", "id": 6765118115, "lat": -20.8069644, "lon": -49.3610122}, {"type": "node", "id": 6765118116, "lat": -20.8069126, "lon": -49.3610416}, {"type": "way", "id": 364152405, "nodes": [3682252857, 3682252856, 3682252860, 3682252863, 3682252857], "tags": {"addr:city": "S\u00e3o Jos\u00e9 do Rio Preto", "addr:country": "BR", "addr:district": "Jardim Fuscaldo", "addr:housename": "A M E -Ambulatorio Medico de Especialidades", "addr:housenumber": "1455", "addr:street": "Rua Ant\u00f4nio Fuscaldo", "amenity": "clinic", "building": "yes", "healthcare": "clinic", "name": "Ambulat\u00f3rio M\u00e9dico de Especialidades", "short_name": "AME"}}, {"type": "way", "id": 364152410, "nodes": [3682252859, 3682252858, 3682252864, 3682252865, 3682252859], "tags": {"addr:city": "S\u00e3o Jos\u00e9 do Rio Preto", "addr:country": "BR", "addr:district": "Jardim Fuscaldo", "addr:housenumber": "1455", "addr:postcode": "15061-060", "addr:street": "Avenida Lino Jos\u00e9 de Seixas", "amenity": "hospital", "building": "hospital", "healthcare": "hospital", "name": "Hospital Estadual Jo\u00e3o Paulo II", "operator:ref:vatin": "BR46374500000194", "ref:CNES": "6236596"}}, {"type": "way", "id": 504048601, "nodes": [4942615998, 4942615997, 4942615995, 4942615994, 4942615993, 4942615998], "tags": {"addr:city": "S\u00e3o Jos\u00e9 do Rio Preto", "addr:housenumber": "135", "addr:postcode": "15061-015", "addr:street": "Rua da Ressurrei\u00e7\u00e3o", "addr:suburb": "Jardim Estrela", "amenity": "school", "name": "Col\u00e9gio Ressurrei\u00e7\u00e3o Rio Preto", "phone": "+55 17 3224 1005"}}, {"type": "way", "id": 667555149, "nodes": [6250360923, 6250360922, 6250360921, 6250360920, 6250360923], "tags": {"addr:city": "S\u00e3o Jos\u00e9 do Rio Preto", "addr:housenumber": "290", "addr:street": "Rua Tocantins", "addr:suburb": "Vila Goyos", "amenity": "place_of_worship", "building": "church", "denomination": "roman_catholic", "name": "Par\u00f3quia Santo Ant\u00f4nio de Lisboa", "phone": "+55 17 3224-2274", "religion": "christian", "wheelchair": "yes"}}, {"type": "way", "id": 718459337, "nodes": [6746938578, 6746938577, 6746938576, 6746938575, 6746938574, 6746938573, 6746938572, 6746938571, 6746938570, 6746938569, 6746938568, 6746938567, 6746938566, 6746938565, 6746938564, 6746938563, 6746938578], "tags": {"addr:city": "S\u00e3o Jos\u00e9 do Rio Preto", "amenity": "school", "name": "Sesi"}}, {"type": "way", "id": 721021615, "nodes": [6765118107, 6765118106, 6765118105, 6765118104, 6765118103, 6765118102, 6765118101, 6765118100, 6765118099, 6765118098, 6765118097, 6765118096, 6765118107], "tags": {"access": "yes", "amenity": "parking", "parking": "surface", "surface": "sett"}}, {"type": "way", "id": 721021616, "nodes": [6765118113, 6765118116]}, {"type": "way", "id": 721021617, "nodes": [6765118114, 6765118113]}, {"type": "way", "id": 721021618, "nodes": [6765118115, 6765118114]}, {"type": "way", "id": 721021623, "nodes": [6765118116, 6765118115]}, {"type": "relation", "id": 9991099, "members": [{"type": "way", "ref": 721021618, "role": "outer"}, {"type": "way", "ref": 721021617, "role": "outer"}, {"type": "way", "ref": 721021616, "role": "outer"}, {"type": "way", "ref": 721021623, "role": "outer"}], "tags": {"addr:city": "S\u00e3o Jos\u00e9 do Rio Preto", "addr:place": "Parque da Represa", "amenity": "police", "name": "Guarda Civil Municipal", "type": "multipolygon"}}]}