{"version": 0.6, "generator": "Overpass API 0.7.61.5 4133829e", "osm3s": {"timestamp_osm_base": "2024-02-26T22:01:14Z", "copyright": "The data included in this document is from www.openstreetmap.org. The data is made available under ODbL."}, "elements": [{"type": "node", "id": 1804295412, "lat": -23.712156, "lon": -46.5419941}, {"type": "node", "id": 1804295424, "lat": -23.7118108, "lon": -46.5424347}, {"type": "node", "id": 1804295461, "lat": -23.712224, "lon": -46.5427074}, {"type": "node", "id": 1899994163, "lat": -23.7127881, "lon": -46.5475045}, {"type": "node", "id": 1899994539, "lat": -23.713389, "lon": -46.5470742}, {"type": "node", "id": 1899994548, "lat": -23.7134365, "lon": -46.5474173}, {"type": "node", "id": 2591915645, "lat": -23.713107, "lon": -46.5460177}, {"type": "node", "id": 2591915647, "lat": -23.7130851, "lon": -46.545821}, {"type": "node", "id": 2591915648, "lat": -23.7132267, "lon": -46.5458002}, {"type": "node", "id": 2591915649, "lat": -23.7132497, "lon": -46.5459964}, {"type": "node", "id": 2591933678, "lat": -23.7127203, "lon": -46.5467533}, {"type": "node", "id": 2591933680, "lat": -23.7126997, "lon": -46.5465789}, {"type": "node", "id": 2591933685, "lat": -23.7129262, "lon": -46.5467244}, {"type": "node", "id": 2591937159, "lat": -23.7130542, "lon": -46.5470558}, {"type": "node", "id": 2652616048, "lat": -23.7138767, "lon": -46.5448131}, {"type": "node", "id": 2652616051, "lat": -23.71382, "lon": -46.5443222}, {"type": "node", "id": 2652616053, "lat": -23.7143022, "lon": -46.5442555}, {"type": "node", "id": 2652616055, "lat": -23.7143248, "lon": -46.5447239}, {"type": "node", "id": 2741065359, "lat": -23.7127255, "lon": -46.5470015}, {"type": "node", "id": 2741065360, "lat": -23.7130432, "lon": -46.546954}, {"type": "node", "id": 2741073925, "lat": -23.7124983, "lon": -46.5461366, "tags": {"addr:city": "S\u00e3o Bernardo do Campo", "addr:country": "BR", "addr:housenumber": "391", "addr:street": "Rua Bela Vista", "amenity": "restaurant", "cuisine": "pizza", "name": "Pizzaria Sala Vip", "opening_hours": "Tu-Su 18:00-24:00; PH off", "phone": "+55 11 4125 5757", "website": "https://www.salavippizzaria.com.br/"}}, {"type": "node", "id": 2845297697, "lat": -23.7130007, "lon": -46.5466721}, {"type": "node", "id": 2845297698, "lat": -23.7129213, "lon": -46.5466832}, {"type": "node", "id": 2845297699, "lat": -23.7129926, "lon": -46.5466035}, {"type": "node", "id": 2845297700, "lat": -23.7129087, "lon": -46.5466153}, {"type": "node", "id": 2845297701, "lat": -23.7129011, "lon": -46.5465505}, {"type": "node", "id": 2845298624, "lat": -23.7125206, "lon": -46.5462457, "tags": {"addr:city": "S\u00e3o Bernardo do Campo", "addr:country": "BR", "addr:housenumber": "671", "addr:postcode": "09715-021", "addr:street": "Rua Am\u00e9rico Brasiliense", "addr:suburb": "Centro", "building": "retail", "building:levels": "2", "name": "Art Luz Jatos de Areia", "phone": "55 11 4330-6333", "smoking": "outside", "website": "https://www.artluzjatodeareia.com.br/"}}, {"type": "node", "id": 2888203095, "lat": -23.7133958, "lon": -46.5447585}, {"type": "node", "id": 2888203096, "lat": -23.713354, "lon": -46.5444205}, {"type": "node", "id": 2888203097, "lat": -23.7136537, "lon": -46.5442247}, {"type": "node", "id": 2888203098, "lat": -23.7135603, "lon": -46.5444608}, {"type": "node", "id": 2888203099, "lat": -23.7134179, "lon": -46.5444983}, {"type": "node", "id": 2888203100, "lat": -23.7134424, "lon": -46.5447478}, {"type": "node", "id": 2973865350, "lat": -23.7122545, "lon": -46.5465792}, {"type": "node", "id": 2973865351, "lat": -23.7122275, "lon": -46.5463754}, {"type": "node", "id": 2973865352, "lat": -23.7124878, "lon": -46.5463378}, {"type": "node", "id": 2973865353, "lat": -23.7125197, "lon": -46.546547}, {"type": "node", "id": 2973865784, "lat": -23.712653, "lon": -46.5464201}, {"type": "node", "id": 2973865785, "lat": -23.712644, "lon": -46.5463415}, {"type": "node", "id": 2973865786, "lat": -23.7129287, "lon": -46.5463052}, {"type": "node", "id": 2973865787, "lat": -23.7129391, "lon": -46.5463766}, {"type": "node", "id": 4040715230, "lat": -23.7157634, "lon": -46.5418351}, {"type": "node", "id": 4040715231, "lat": -23.7157293, "lon": -46.5418149}, {"type": "node", "id": 4040715232, "lat": -23.7156386, "lon": -46.5413808}, {"type": "node", "id": 4040715233, "lat": -23.7158893, "lon": -46.5412851}, {"type": "node", "id": 4040715234, "lat": -23.7159998, "lon": -46.5413955}, {"type": "node", "id": 4040715239, "lat": -23.7158267, "lon": -46.5418542}, {"type": "node", "id": 4063471793, "lat": -23.7156354, "lon": -46.5465126}, {"type": "node", "id": 4063471794, "lat": -23.7149819, "lon": -46.5458973}, {"type": "node", "id": 4063471795, "lat": -23.7153535, "lon": -46.5458262}, {"type": "node", "id": 4063471796, "lat": -23.7158328, "lon": -46.5462569}, {"type": "node", "id": 4063471797, "lat": -23.7150476, "lon": -46.5457685}, {"type": "node", "id": 4063471798, "lat": -23.7150013, "lon": -46.545415}, {"type": "node", "id": 4063471799, "lat": -23.7153707, "lon": -46.5453274}, {"type": "node", "id": 4063471800, "lat": -23.715669, "lon": -46.5456557}, {"type": "node", "id": 4063471801, "lat": -23.7155127, "lon": -46.5456949}, {"type": "node", "id": 4374459460, "lat": -23.7133417, "lon": -46.5443199}, {"type": "node", "id": 4374459461, "lat": -23.7135284, "lon": -46.5443562}, {"type": "node", "id": 4374459462, "lat": -23.7136794, "lon": -46.5443119}, {"type": "node", "id": 4375040526, "lat": -23.7145739, "lon": -46.5449036}, {"type": "node", "id": 4375040527, "lat": -23.7144192, "lon": -46.5447373}, {"type": "node", "id": 4375040528, "lat": -23.714434, "lon": -46.5449438}, {"type": "node", "id": 4437127360, "lat": -23.7121576, "lon": -46.5433172}, {"type": "node", "id": 4437127361, "lat": -23.7119586, "lon": -46.5431333}, {"type": "node", "id": 4437127362, "lat": -23.7120251, "lon": -46.5430475}, {"type": "node", "id": 4437127363, "lat": -23.7122241, "lon": -46.5432314}, {"type": "node", "id": 4437127364, "lat": -23.7163637, "lon": -46.541947}, {"type": "node", "id": 4437127365, "lat": -23.7163795, "lon": -46.5418222}, {"type": "node", "id": 4437127368, "lat": -23.7159512, "lon": -46.5416104}, {"type": "node", "id": 4437127369, "lat": -23.7158835, "lon": -46.5418413}, {"type": "node", "id": 4437127378, "lat": -23.7125778, "lon": -46.5473731, "tags": {"amenity": "parking", "fee": "yes", "park_ride": "no", "parking": "surface", "supervised": "yes"}}, {"type": "node", "id": 4437127379, "lat": -23.7127227, "lon": -46.5468728, "tags": {"amenity": "parking"}}, {"type": "node", "id": 4442425189, "lat": -23.7134212, "lon": -46.5451563, "tags": {"access": "yes", "addr:city": "S\u00e3o Bernardo do Campo", "addr:country": "BR", "addr:housenumber": "7", "addr:street": "Rua Bendito Montenegro", "addr:suburb": "Centro", "amenity": "parking", "capacity": "10", "fee": "yes", "park_ride": "no", "parking": "surface", "supervised": "yes", "surface": "paved"}}, {"type": "node", "id": 4442780337, "lat": -23.7141932, "lon": -46.5479216}, {"type": "node", "id": 4442780338, "lat": -23.7141244, "lon": -46.5474298}, {"type": "node", "id": 4442780339, "lat": -23.7137416, "lon": -46.5474937}, {"type": "node", "id": 4442780340, "lat": -23.7138104, "lon": -46.5479855}, {"type": "node", "id": 4442814506, "lat": -23.7146524, "lon": -46.5465459}, {"type": "node", "id": 4442814510, "lat": -23.7141073, "lon": -46.5465968}, {"type": "node", "id": 4442814511, "lat": -23.7141662, "lon": -46.5470126, "tags": {"barrier": "gate"}}, {"type": "node", "id": 4442814512, "lat": -23.7144339, "lon": -46.5469858}, {"type": "node", "id": 4442814513, "lat": -23.7146991, "lon": -46.5469268}, {"type": "node", "id": 4442814514, "lat": -23.7138936, "lon": -46.5460658, "tags": {"addr:city": "S\u00e3o Bernardo do Campo", "addr:country": "BR", "addr:postcode": "09715-021", "addr:street": "Rua Bela Vista", "description": "Banho e tosa.", "name": "Pelo sim... Pelo n\u00e3o", "phone": "+55 11 4121 9529", "shop": "pet"}}, {"type": "node", "id": 4442814515, "lat": -23.7137659, "lon": -46.5453175}, {"type": "node", "id": 4442814516, "lat": -23.7137463, "lon": -46.5452451}, {"type": "node", "id": 4442814517, "lat": -23.7135502, "lon": -46.5452745}, {"type": "node", "id": 4442814518, "lat": -23.7135572, "lon": -46.5453617}, {"type": "node", "id": 4442814519, "lat": -23.7133583, "lon": -46.5450197}, {"type": "node", "id": 4442814520, "lat": -23.7133411, "lon": -46.5448642}, {"type": "node", "id": 4442814521, "lat": -23.71326, "lon": -46.5448803}, {"type": "node", "id": 4442814522, "lat": -23.7132846, "lon": -46.5450332}, {"type": "node", "id": 4442814523, "lat": -23.7144904, "lon": -46.5441963}, {"type": "node", "id": 4442814524, "lat": -23.7144805, "lon": -46.5441105}, {"type": "node", "id": 4442814525, "lat": -23.7141466, "lon": -46.5441561}, {"type": "node", "id": 4442814526, "lat": -23.7141687, "lon": -46.5442634}, {"type": "node", "id": 4442814527, "lat": -23.7142546, "lon": -46.5441199}, {"type": "node", "id": 4442814528, "lat": -23.7142694, "lon": -46.5441554}, {"type": "node", "id": 4442814529, "lat": -23.7147384, "lon": -46.5447703, "tags": {"access": "yes", "addr:city": "S\u00e3o Bernardo do Campo", "addr:country": "BR", "addr:housenumber": "115", "addr:street": "Rua Napole\u00e3o Laureano", "amenity": "parking", "fee": "yes", "name": "Estacionamento Andrade", "opening_hours": "Mo-Fr 08:00-18:00; Sa,Su,PH off", "park_ride": "no", "parking": "surface", "payment:cash": "yes", "payment:coins": "yes", "payment:notes": "yes", "supervised": "yes", "surface": "paved"}}, {"type": "node", "id": 4442814530, "lat": -23.714095, "lon": -46.5434802, "tags": {"addr:city": "S\u00e3o Bernardo do Campo", "addr:country": "BR", "addr:street": "Rua Tiradentes", "name": "Palmitos", "shop": "greengrocer"}}, {"type": "node", "id": 4442814531, "lat": -23.7131119, "lon": -46.5470489}, {"type": "node", "id": 4442814532, "lat": -23.7131173, "lon": -46.5471086}, {"type": "node", "id": 4442906011, "lat": -23.7147949, "lon": -46.5459183}, {"type": "node", "id": 4442906012, "lat": -23.714844, "lon": -46.5458861}, {"type": "node", "id": 4442906013, "lat": -23.7166686, "lon": -46.5474445}, {"type": "node", "id": 4442906014, "lat": -23.7166072, "lon": -46.5475088}, {"type": "node", "id": 4446769447, "lat": -23.7140579, "lon": -46.5462241}, {"type": "node", "id": 4446769448, "lat": -23.7145957, "lon": -46.5461972}, {"type": "node", "id": 4446769449, "lat": -23.7146448, "lon": -46.5465057}, {"type": "node", "id": 4446769450, "lat": -23.7140947, "lon": -46.5465647}, {"type": "node", "id": 4446769451, "lat": -23.7141892, "lon": -46.5462536}, {"type": "node", "id": 4446769452, "lat": -23.7141997, "lon": -46.5462066}, {"type": "node", "id": 4446769453, "lat": -23.7136428, "lon": -46.5452906, "tags": {"addr:city": "S\u00e3o Bernardo do Campo", "addr:country": "BR", "addr:housenumber": "399", "addr:street": "Rua Silva Jardim", "addr:suburb": "Centro", "amenity": "pub", "contact:mobile": "+55 11 95495 6825", "name": "Big John Bar", "opening_hours": "Th, Fr 17:00-23:00; Sa 17:00-24:00", "smoking": "no"}}, {"type": "node", "id": 4492985766, "lat": -23.7125016, "lon": -46.5423492}, {"type": "node", "id": 4492985772, "lat": -23.7124429, "lon": -46.5435227, "tags": {"addr:city": "S\u00e3o Bernardo do Campo", "addr:country": "BR", "addr:housenumber": "1066", "addr:postcode": "09770-000", "addr:street": "Avenida Francisco Prestes Maia", "amenity": "pharmacy", "brand": "Drogasil", "brand:wikidata": "Q5308185", "brand:wikipedia": "pt:Drogasil", "healthcare": "pharmacy", "name": "Drogasil", "operator": "Drogasil", "wheelchair": "yes"}}, {"type": "node", "id": 4493105479, "lat": -23.7113906, "lon": -46.5437799}, {"type": "node", "id": 4493105480, "lat": -23.7112853, "lon": -46.5435786}, {"type": "node", "id": 4493105482, "lat": -23.7111762, "lon": -46.5436594}, {"type": "node", "id": 4493105483, "lat": -23.7113011, "lon": -46.5438571}, {"type": "node", "id": 4496911423, "lat": -23.716747, "lon": -46.5474474}, {"type": "node", "id": 4496911424, "lat": -23.7168182, "lon": -46.5473643}, {"type": "node", "id": 4496911425, "lat": -23.7165947, "lon": -46.5471765}, {"type": "node", "id": 4496911426, "lat": -23.716526, "lon": -46.547257}, {"type": "node", "id": 4500591990, "lat": -23.7140552, "lon": -46.5460118, "tags": {"addr:city": "S\u00e3o Bernardo do Campo", "addr:country": "BR", "addr:housenumber": "320", "addr:street": "Rua Silva Jardim", "name": "Frawanny", "shop": "dry_cleaning"}}, {"type": "node", "id": 4500592090, "lat": -23.7137767, "lon": -46.5459408, "tags": {"addr:city": "S\u00e3o Bernardo do Campo", "addr:country": "BR", "addr:housenumber": "547", "addr:street": "Rua Bela Vista", "phone": "+55 11 2355 1819", "shop": "pet"}}, {"type": "node", "id": 4500592091, "lat": -23.7138016, "lon": -46.5454637, "tags": {"addr:city": "S\u00e3o Bernardo do Campo", "addr:country": "BR", "addr:housenumber": "377", "addr:street": "Rua Silva Jardim", "amenity": "clinic", "healthcare": "clinic", "name": "Cl\u00ednica Bys"}}, {"type": "node", "id": 4500627491, "lat": -23.7150733, "lon": -46.5448536, "tags": {"addr:city": "S\u00e3o Bernardo do Campo", "addr:country": "BR", "addr:housenumber": "344", "addr:street": "Rua Carlos Gomes", "amenity": "restaurant", "contact:phone": "+55 11 2564 8257", "cuisine": "pizza", "delivery": "yes", "drive_in": "no", "name": "Pizzaria Santo Disco", "smoking": "outside", "takeaway": "yes"}}, {"type": "node", "id": 4500851555, "lat": -23.7163182, "lon": -46.5425401}, {"type": "node", "id": 4500851556, "lat": -23.7163572, "lon": -46.5425178}, {"type": "node", "id": 4500851557, "lat": -23.7162992, "lon": -46.5423819}, {"type": "node", "id": 4500851558, "lat": -23.7162623, "lon": -46.5424087}, {"type": "node", "id": 4501171929, "lat": -23.7149757, "lon": -46.5451124}, {"type": "node", "id": 4501171930, "lat": -23.7149683, "lon": -46.54504}, {"type": "node", "id": 4501171931, "lat": -23.7147522, "lon": -46.5450561}, {"type": "node", "id": 4501171932, "lat": -23.7147645, "lon": -46.5451419}, {"type": "node", "id": 4501171933, "lat": -23.715236, "lon": -46.5450319}, {"type": "node", "id": 4501171934, "lat": -23.7153392, "lon": -46.5448951}, {"type": "node", "id": 4501171935, "lat": -23.7152876, "lon": -46.5448442}, {"type": "node", "id": 4501171936, "lat": -23.7151894, "lon": -46.5449783}, {"type": "node", "id": 4508993090, "lat": -23.714595, "lon": -46.5430818, "tags": {"access": "yes", "amenity": "parking"}}, {"type": "node", "id": 4509005662, "lat": -23.7134805, "lon": -46.5428422, "tags": {"addr:city": "S\u00e3o Bernardo do Campo", "addr:country": "BR", "addr:street": "Avenida Francisco Prestes Maia", "name": "Nova Miami", "shop": "bakery"}}, {"type": "node", "id": 4509005663, "lat": -23.7135615, "lon": -46.5427591, "tags": {"addr:country": "BR", "addr:street": "Avenida Francisco Prestes Maia", "amenity": "pharmacy", "drive_through": "no", "healthcare": "pharmacy"}}, {"type": "node", "id": 4509005664, "lat": -23.7132251, "lon": -46.5425606}, {"type": "node", "id": 4509005665, "lat": -23.7131637, "lon": -46.5425204}, {"type": "node", "id": 4509005666, "lat": -23.7130949, "lon": -46.5426035}, {"type": "node", "id": 4509005667, "lat": -23.7131367, "lon": -46.5426357}, {"type": "node", "id": 4509005668, "lat": -23.7144947, "lon": -46.5432178}, {"type": "node", "id": 4509005669, "lat": -23.7145586, "lon": -46.5431614}, {"type": "node", "id": 4509005670, "lat": -23.7139716, "lon": -46.5426813}, {"type": "node", "id": 4509005671, "lat": -23.713893, "lon": -46.5427806}, {"type": "node", "id": 4509005672, "lat": -23.714313, "lon": -46.5432017}, {"type": "node", "id": 4509005673, "lat": -23.714421, "lon": -46.5431212}, {"type": "node", "id": 4509005681, "lat": -23.7137383, "lon": -46.5436925, "tags": {"access": "permissive", "amenity": "parking", "fee": "yes", "supervised": "yes"}}, {"type": "node", "id": 4509005682, "lat": -23.713591, "lon": -46.5438025, "tags": {"access": "permissive", "amenity": "parking", "fee": "yes", "supervised": "yes"}}, {"type": "node", "id": 4509005789, "lat": -23.7122207, "lon": -46.5436764, "tags": {"addr:city": "S\u00e3o Bernardo do Campo", "addr:country": "BR", "addr:housenumber": "1032", "addr:postcode": "09770-000", "addr:street": "Avenida Francisco Prestes Maia", "addr:suburb": "Centro", "amenity": "fast_food", "brand": "Subway", "brand:wikidata": "Q244457", "brand:wikipedia": "en:Subway (restaurant)", "cuisine": "sandwich", "drive_through": "no", "name": "Subway", "smoking": "outside", "takeaway": "yes"}}, {"type": "node", "id": 4509005790, "lat": -23.712023, "lon": -46.543313}, {"type": "node", "id": 4509005791, "lat": -23.7119027, "lon": -46.5431976}, {"type": "node", "id": 4509005792, "lat": -23.7118118, "lon": -46.5432969}, {"type": "node", "id": 4509005793, "lat": -23.7119383, "lon": -46.543423}, {"type": "node", "id": 4509005795, "lat": -23.7127511, "lon": -46.5435986}, {"type": "node", "id": 4509005796, "lat": -23.7127806, "lon": -46.5435396}, {"type": "node", "id": 4509005797, "lat": -23.7126308, "lon": -46.5434082}, {"type": "node", "id": 4509005798, "lat": -23.7126038, "lon": -46.5434082}, {"type": "node", "id": 4509005799, "lat": -23.7125596, "lon": -46.5434404}, {"type": "node", "id": 4509026589, "lat": -23.7125413, "lon": -46.5434835, "tags": {"addr:city": "S\u00e3o Bernardo do Campo", "addr:country": "BR", "addr:housenumber": "1080", "addr:postcode": "09770-000", "addr:street": "Avenida Francisco Prestes Maia", "addr:suburb": "Centro", "amenity": "fast_food", "cuisine": "pizza", "delivery": "yes", "drive_through": "no", "name": "Hafik Esfihas e Pizzas", "phone": "+55 11 4332 4516", "smoking": "outside", "takeaway": "yes"}}, {"type": "node", "id": 4509026590, "lat": -23.7142243, "lon": -46.5434277, "tags": {"addr:city": "S\u00e3o Bernardo do Campo", "addr:country": "BR", "addr:street": "Rua Tiradentes", "addr:suburb": "Centro", "amenity": "pub", "name": "Casa Via"}}, {"type": "node", "id": 4509505317, "lat": -23.7138669, "lon": -46.5427087}, {"type": "node", "id": 4509505318, "lat": -23.7139249, "lon": -46.5426511}, {"type": "node", "id": 4509505319, "lat": -23.7138294, "lon": -46.5425636}, {"type": "node", "id": 4509505320, "lat": -23.7137522, "lon": -46.5426152}, {"type": "node", "id": 4511318764, "lat": -23.7141062, "lon": -46.5434541, "tags": {"addr:city": "S\u00e3o Bernardo do Campo", "addr:country": "BR", "addr:housenumber": "237", "addr:postcode": "09780-000", "addr:street": "Rua Tiradentes", "addr:suburb": "Santa Terezinha", "contact:phone": "+55 11  4853 0310", "email": "comercial@mundodopalmito.com.b", "name": "Mundo do Palmito", "phone": "+55 11 950 479 898", "shop": "yes", "website": "https://mundodopalmito.com.br/"}}, {"type": "node", "id": 4762309918, "lat": -23.7134434, "lon": -46.5476105}, {"type": "node", "id": 4762309919, "lat": -23.7134192, "lon": -46.5474252}, {"type": "node", "id": 4762309920, "lat": -23.7129335, "lon": -46.5474894}, {"type": "node", "id": 4762320821, "lat": -23.7129546, "lon": -46.5476543}, {"type": "node", "id": 5008419992, "lat": -23.7136805, "lon": -46.5448385, "tags": {"access": "permissive", "amenity": "parking", "fee": "yes", "park_ride": "no", "parking": "surface", "supervised": "yes", "surface": "paved"}}, {"type": "node", "id": 5008419993, "lat": -23.7138897, "lon": -46.5442081, "tags": {"amenity": "parking", "parking": "surface"}}, {"type": "node", "id": 5772159996, "lat": -23.7161801, "lon": -46.5417833}, {"type": "node", "id": 5772159997, "lat": -23.7162088, "lon": -46.5416609}, {"type": "node", "id": 6380979490, "lat": -23.7149987, "lon": -46.5459471}, {"type": "node", "id": 6399659612, "lat": -23.7120273, "lon": -46.5425274}, {"type": "node", "id": 6399659613, "lat": -23.7119747, "lon": -46.5425975}, {"type": "node", "id": 6399659627, "lat": -23.7114773, "lon": -46.5437077}, {"type": "node", "id": 6399659628, "lat": -23.7113634, "lon": -46.5435392}, {"type": "node", "id": 6399659629, "lat": -23.7114128, "lon": -46.5435032}, {"type": "node", "id": 6399659630, "lat": -23.7115671, "lon": -46.5436426}, {"type": "node", "id": 6551856415, "lat": -23.714536, "lon": -46.5446971}, {"type": "node", "id": 6551856416, "lat": -23.7145664, "lon": -46.5446759}, {"type": "node", "id": 6551856419, "lat": -23.7145137, "lon": -46.544213}, {"type": "node", "id": 6668984981, "lat": -23.7141966, "lon": -46.5474025}, {"type": "node", "id": 6668984982, "lat": -23.7144283, "lon": -46.5473733}, {"type": "node", "id": 6668984983, "lat": -23.7144301, "lon": -46.5473518}, {"type": "node", "id": 6668984984, "lat": -23.7145103, "lon": -46.5473518}, {"type": "node", "id": 6669026885, "lat": -23.7144996, "lon": -46.5472778}, {"type": "node", "id": 6669026886, "lat": -23.714177, "lon": -46.547309}, {"type": "node", "id": 7151305500, "lat": -23.7139115, "lon": -46.5460971, "tags": {"addr:housenumber": "295", "addr:street": "Rua Silva Jardim", "amenity": "cafe", "contact:phone": "+55 11 2843 3000", "description": "Venda de salgadinhos e bolos para festas.", "name": "Salgadinhos Nagai", "phone": "+55 11 4122 2254"}}, {"type": "node", "id": 7151333467, "lat": -23.7137739, "lon": -46.5447927, "tags": {"amenity": "fast_food", "contact:mobile": "+55 11 95356 7026", "cuisine": "burger;sandwich", "name": "Lanches D'Al\u00ea", "opening_hours": "Mo-Fr 08:00-18:00"}}, {"type": "node", "id": 7151334976, "lat": -23.7147313, "lon": -46.5448673, "tags": {"addr:housenumber": "100", "addr:street": "Rua Napole\u00e3o Laureano", "clothes": "women", "name": "Fran Vaccari", "shop": "clothes"}}, {"type": "node", "id": 7151903215, "lat": -23.7139321, "lon": -46.5448709}, {"type": "node", "id": 7151903216, "lat": -23.7141283, "lon": -46.5448451}, {"type": "node", "id": 7151903217, "lat": -23.7141283, "lon": -46.544786}, {"type": "node", "id": 7151903218, "lat": -23.7139253, "lon": -46.54481}, {"type": "node", "id": 9395643377, "lat": -23.7117053, "lon": -46.546196, "tags": {"addr:city": "S\u00e3o Bernardo do Campo", "addr:housenumber": "321", "addr:postcode": "09715030", "addr:street": "Rua Bela Vista", "addr:suburb": "Centro", "air_conditioning": "yes", "amenity": "restaurant", "cuisine": "chinese;japanese", "internet_access": "yes", "name": "Restaurante Kirin Culin\u00e1ria Oriental", "phone": "1141233233", "website": "https://www.restaurantekirin.com.br", "wheelchair": "yes"}}, {"type": "node", "id": 9802880041, "lat": -23.7113514, "lon": -46.5438272}, {"type": "node", "id": 9802880042, "lat": -23.7113409, "lon": -46.5438122}, {"type": "node", "id": 9802880043, "lat": -23.7113594, "lon": -46.5437215}, {"type": "node", "id": 9802880044, "lat": -23.7113347, "lon": -46.5437238}, {"type": "node", "id": 9802880045, "lat": -23.7113346, "lon": -46.5436847}, {"type": "node", "id": 9802880046, "lat": -23.7113431, "lon": -46.5436746}, {"type": "node", "id": 9906839222, "lat": -23.7151796, "lon": -46.5416819}, {"type": "node", "id": 9906839223, "lat": -23.7151527, "lon": -46.5415705}, {"type": "node", "id": 9906839224, "lat": -23.7156177, "lon": -46.5414011}, {"type": "node", "id": 9906839225, "lat": -23.7156961, "lon": -46.5417516}, {"type": "node", "id": 9906839226, "lat": -23.7153774, "lon": -46.5416967}, {"type": "node", "id": 9906839227, "lat": -23.7156648, "lon": -46.5425048}, {"type": "node", "id": 9906839228, "lat": -23.7159977, "lon": -46.5423562}, {"type": "node", "id": 9906839229, "lat": -23.7160443, "lon": -46.5423386}, {"type": "node", "id": 9906839230, "lat": -23.7160586, "lon": -46.5422956}, {"type": "node", "id": 9906839231, "lat": -23.7160604, "lon": -46.5422428}, {"type": "node", "id": 9906839232, "lat": -23.7160103, "lon": -46.5421645}, {"type": "node", "id": 9906839233, "lat": -23.7159225, "lon": -46.5421352}, {"type": "node", "id": 9906839234, "lat": -23.715552, "lon": -46.542057}, {"type": "node", "id": 9906839235, "lat": -23.7155233, "lon": -46.5420492}, {"type": "node", "id": 9906839236, "lat": -23.7153139, "lon": -46.5420492}, {"type": "node", "id": 9906839237, "lat": -23.715253, "lon": -46.5420453}, {"type": "node", "id": 9906839238, "lat": -23.7152226, "lon": -46.5420648}, {"type": "node", "id": 9906839239, "lat": -23.7152047, "lon": -46.5420942}, {"type": "node", "id": 9906839240, "lat": -23.7152154, "lon": -46.5421333}, {"type": "node", "id": 9915204585, "lat": -23.7149442, "lon": -46.5418094}, {"type": "node", "id": 9915204586, "lat": -23.7149147, "lon": -46.5416608}, {"type": "node", "id": 9915204587, "lat": -23.7150937, "lon": -46.5415865}, {"type": "node", "id": 9915204588, "lat": -23.7151393, "lon": -46.5417898}, {"type": "node", "id": 9915209830, "lat": -23.7141241, "lon": -46.5415275}, {"type": "node", "id": 9915209831, "lat": -23.714254, "lon": -46.5413072}, {"type": "node", "id": 9915209832, "lat": -23.7146285, "lon": -46.5415893}, {"type": "node", "id": 9915209833, "lat": -23.714468, "lon": -46.541788}, {"type": "node", "id": 9915263927, "lat": -23.7138521, "lon": -46.5419296}, {"type": "node", "id": 9915263928, "lat": -23.7138906, "lon": -46.5418778}, {"type": "node", "id": 9915263929, "lat": -23.7140285, "lon": -46.541999}, {"type": "node", "id": 9915263930, "lat": -23.7139855, "lon": -46.5420557}, {"type": "node", "id": 9915263931, "lat": -23.7139032, "lon": -46.5420939, "tags": {"addr:housenumber": "199", "addr:street": "Avenida Francisco Prestes Maia", "addr:suburb": "Santa Terezinha", "name": "Evelyn Casa de Carnes", "phone": "+55 11 4127 7261", "shop": "butcher"}}, {"type": "node", "id": 9943508206, "lat": -23.7162901, "lon": -46.542474}, {"type": "node", "id": 10093703326, "lat": -23.7153397, "lon": -46.5427924}, {"type": "node", "id": 10093703327, "lat": -23.7154643, "lon": -46.5427313}, {"type": "node", "id": 10093703328, "lat": -23.7156036, "lon": -46.5428464}, {"type": "node", "id": 10093703329, "lat": -23.7155312, "lon": -46.5429508}, {"type": "node", "id": 10093718228, "lat": -23.7156168, "lon": -46.543894}, {"type": "node", "id": 10093718229, "lat": -23.7157725, "lon": -46.5436859}, {"type": "node", "id": 10093718230, "lat": -23.7159072, "lon": -46.5438077}, {"type": "node", "id": 10093718231, "lat": -23.7157562, "lon": -46.5440158}, {"type": "node", "id": 10093718232, "lat": -23.7148369, "lon": -46.543104}, {"type": "node", "id": 10093718233, "lat": -23.7149171, "lon": -46.5431837}, {"type": "node", "id": 10093718234, "lat": -23.7150546, "lon": -46.5430414}, {"type": "node", "id": 10093718235, "lat": -23.7150246, "lon": -46.5430105}, {"type": "node", "id": 10093718236, "lat": -23.7149779, "lon": -46.5430084}, {"type": "node", "id": 10093718237, "lat": -23.7148339, "lon": -46.5431505, "tags": {"addr:housenumber": "316", "addr:street": "Rua Tiradentes", "contact:mobile": "+55 11 93294 3754", "name": "Rebeca Pet Shop", "phone": "+55 11 4345 1125", "shop": "pet"}}, {"type": "node", "id": 10233364054, "lat": -23.7114772, "lon": -46.5433208, "tags": {"addr:housenumber": "957", "addr:street": "Avenida Francisco Prestes Maia", "brand": "a+ Medicina Diagn\u00f3stica", "brand:wikidata": "Q111392264", "healthcare": "laboratory", "name": "a+ Medicina Diagn\u00f3stica", "operator": "Grupo Fleury", "website": "https://www.amaissaude.com.br/sp/"}}, {"type": "node", "id": 10942318429, "lat": -23.7164046, "lon": -46.5423581}, {"type": "node", "id": 10942318430, "lat": -23.716477, "lon": -46.5423304}, {"type": "node", "id": 10942318431, "lat": -23.7165295, "lon": -46.5424511}, {"type": "node", "id": 10942318432, "lat": -23.7164498, "lon": -46.5424866}, {"type": "node", "id": 10942348236, "lat": -23.716615, "lon": -46.5423932}, {"type": "node", "id": 10942348237, "lat": -23.7166765, "lon": -46.5423635}, {"type": "node", "id": 10942348238, "lat": -23.7166367, "lon": -46.5422518}, {"type": "node", "id": 10942348239, "lat": -23.7165769, "lon": -46.5422844}, {"type": "node", "id": 10942348240, "lat": -23.7163869, "lon": -46.542403, "tags": {"addr:housenumber": "504", "addr:street": "Rua Tiradentes", "addr:suburb": "Centro", "name": "Barbearia Rico Ogawa", "phone": "+55 11 98828 2840", "shop": "hairdresser"}}, {"type": "node", "id": 10942348241, "lat": -23.71589, "lon": -46.5426058}, {"type": "node", "id": 10942348242, "lat": -23.7159369, "lon": -46.5425339}, {"type": "node", "id": 10942348243, "lat": -23.7160369, "lon": -46.5426116}, {"type": "node", "id": 10942348244, "lat": -23.7159901, "lon": -46.5426836}, {"type": "node", "id": 10942348245, "lat": -23.714946, "lon": -46.5431452}, {"type": "node", "id": 10942348246, "lat": -23.7149315, "lon": -46.5431289}, {"type": "node", "id": 10942348247, "lat": -23.7149469, "lon": -46.5431099}, {"type": "node", "id": 10942348248, "lat": -23.7149718, "lon": -46.5431181}, {"type": "node", "id": 10942348249, "lat": -23.7150222, "lon": -46.5430521}, {"type": "node", "id": 10942348250, "lat": -23.7150391, "lon": -46.543063}, {"type": "node", "id": 10942348251, "lat": -23.7143985, "lon": -46.5435048, "tags": {"addr:housenumber": "250", "addr:street": "Rua Tiradentes", "addr:suburb": "Centro", "name": "Lua's Papelaria e Doces", "phone": "+55 11 4127 0582", "shop": "stationery"}}, {"type": "node", "id": 11084389652, "lat": -23.7156395, "lon": -46.541409}, {"type": "node", "id": 11084670993, "lat": -23.7132011, "lon": -46.5476201}, {"type": "node", "id": 11084670994, "lat": -23.7132033, "lon": -46.5476438}, {"type": "way", "id": 169263236, "nodes": [1804295461, 6399659612, 6399659613, 1804295424, 1804295412, 4492985766, 1804295461], "tags": {"addr:city": "S\u00e3o Bernardo do Campo", "addr:country": "BR", "addr:street": "Avenida Francisco Prestes Maia", "addr:suburb": "Santa Terezinha", "brand": "Carrefour", "brand:wikidata": "Q217599", "brand:wikipedia": "fr:Carrefour (enseigne)", "building": "yes", "name": "Carrefour", "operator": "Groupe Carrefour", "operator:wikidata": "Q3117359", "operator:wikipedia": "fr:Groupe Carrefour", "shop": "supermarket"}}, {"type": "way", "id": 179598506, "nodes": [1899994548, 1899994539, 4442814532, 4442814531, 2591937159, 2741065360, 2741065359, 1899994163, 1899994548], "tags": {"addr:city": "S\u00e3o Bernardo do Campo", "addr:country": "BR", "addr:housename": "Hospital IFOR ortopedia e Traumatologia", "addr:housenumber": "596", "addr:postcode": "09715-021", "addr:street": "Rua Am\u00e9rico Brasiliense", "addr:suburb": "Vila Alvaro Marques", "amenity": "hospital", "emergency": "yes", "healthcare": "hospital", "healthcare:speciality": "orthopaedics;surgery", "name": "IFOR", "operator": "Rede D\u2019Or S\u00e3o Luiz", "operator:type": "private", "phone": "+55 11 4083 6700", "ref": "INEP-2080591", "ref:CNES": "2080591", "ref:vatin": "BR06047087007222", "start_date": "1968-03", "website": "https://www.rededorsaoluiz.com.br/hospital/ifor", "wheelchair": "yes"}}, {"type": "way", "id": 253234375, "nodes": [2591915645, 2591915647, 2591915648, 2591915649, 2591915645], "tags": {"addr:city": "S\u00e3o Bernardo do Campo", "addr:country": "BR", "addr:housenumber": "491", "addr:postcode": "09715-030", "addr:street": "Rua Bela Vista", "amenity": "clinic", "building": "yes", "building:levels": "2", "healthcare": "clinic", "healthcare:speciality": "hemodialysis", "name": "DaVita - Silva Jardim", "opening_hours": "Mo-Sa 05:10-21:00; Su,PH off", "operator": "DaVita", "operator:type": "private", "phone": "+55 11 4125 0290", "ref:CNES": "2035413", "ref:vatin": "BR55055198000100", "smoking": "outside", "website": "https://www.davita.com.br/tratamento-renal/"}}, {"type": "way", "id": 253237141, "nodes": [2591933678, 2591933680, 2845297701, 2845297700, 2845297699, 2845297697, 2845297698, 2591933685, 2591933678], "tags": {"addr:city": "S\u00e3o Bernardo do Campo", "addr:country": "BR", "addr:housename": "Lumen Centro de Diagn\u00f3sticos", "addr:housenumber": "628", "addr:postcode": "09715-021", "addr:street": "Rua Am\u00e9rico Brasiliense", "building": "yes", "building:levels": "1", "contact:mobile": "+55 11 97695 4712", "contact:phone": "+55 11 4433  6666", "healthcare": "laboratory", "name": "Lumen", "opening_hours": "Mo-Fr 06:00-23:00; Sa,Su,PH 07:00-19:00", "phone": "+55 11 4126 4444", "wheelchair": "yes"}}, {"type": "way", "id": 259805391, "nodes": [2652616048, 2652616051, 2652616053, 6551856419, 6551856416, 2652616055, 2652616048], "tags": {"addr:city": "S\u00e3o Bernardo do Campo", "addr:country": "BR", "addr:housename": "Hospital Ensino Padre Anchieta", "addr:housenumber": "470", "addr:postcode": "09715-090", "addr:street": "Rua Silva Jardim", "addr:suburb": "Vila Alvaro Marques", "amenity": "hospital", "emergency": "yes", "healthcare": "hospital", "healthcare:speciality": "general;paediatrics;surgery", "name": "Hospital Anchieta", "official_name": "Hospital de Ensino Padre Anchieta", "operator": "Funda\u00e7\u00e3o ABC", "operator:type": "private_non_profit", "phone": "+55 11 4345 4011", "ref:CNES": "7761465", "ref:vatin": "BR61047007001710", "source": "http://www.fuabc.org.br/mantidas/hospital-ensino-padre-anchieta/"}}, {"type": "way", "id": 285147032, "nodes": [2888203095, 2888203096, 4374459460, 2888203097, 4374459462, 4374459461, 2888203098, 2888203099, 2888203100, 2888203095], "tags": {"addr:city": "S\u00e3o Bernardo do Campo", "addr:country": "BR", "addr:housenumber": "38", "addr:street": "Rua Fioravanti Demarchi", "addr:suburb": "Vila Alvaro Marques", "amenity": "clinic", "building": "yes", "healthcare": "clinic", "healthcare:speciality": "general", "name": "Ambulat\u00f3rio Hospital Anchieta", "wheelchair": "yes"}}, {"type": "way", "id": 293802008, "nodes": [2973865350, 2973865351, 2973865352, 2973865353, 2973865350], "tags": {"access": "customers", "addr:city": "S\u00e3o Bernardo do Campo", "addr:country": "BR", "addr:street": "Rua Am\u00e9rico Brasiliense", "amenity": "parking", "fee": "no", "name": "Lumen", "park_ride": "no", "parking": "surface", "surface": "dirt"}}, {"type": "way", "id": 293802033, "nodes": [2973865784, 2973865785, 2973865786, 2973865787, 2973865784], "tags": {"addr:city": "S\u00e3o Bernardo do Campo", "addr:country": "BR", "addr:housenumber": "656", "addr:street": "Rua Am\u00e9rico Brasiliense", "addr:suburb": "Centro", "amenity": "kindergarten", "email": "alfamaior.secretaria@objetivoinfantil.com", "name": "Alpha Maior Centro Pedag\u00f3gico", "opening_hours": "Mo-Fr 08:00-18:00; Sa,Su,PH off", "operator": "Objetivo", "operator:type": "private", "phone": "+55 11 4930 2302", "ref": "292278", "website": "https://www.objetivoinfantil.com.br/"}}, {"type": "way", "id": 401658851, "nodes": [4040715230, 4040715231, 11084389652, 4040715232, 4040715233, 4040715234, 4040715239, 4040715230], "tags": {"addr:city": "S\u00e3o Bernardo do Campo", "addr:housenumber": "1501", "addr:street": "Avenida Francisco Prestes Maia", "landuse": "residential", "name": "Condom\u00ednio Hill House"}}, {"type": "way", "id": 404073973, "nodes": [4063471793, 6380979490, 4063471794, 4063471795, 4063471796, 4063471793], "tags": {"addr:city": "S\u00e3o Bernardo do Campo", "addr:country": "BR", "addr:housenumber": "724", "addr:postcode": "09715-030", "addr:street": "Rua Bela Vista", "addr:suburb": "Vila Alvaro Marques", "building:levels": "15", "landuse": "residential", "name": "Condom\u00ednio Ville Dummont"}}, {"type": "way", "id": 404073977, "nodes": [4063471797, 4063471798, 4063471799, 4063471800, 4063471801, 4063471797], "tags": {"addr:city": "S\u00e3o Bernardo do Campo", "addr:country": "BR", "addr:housenumber": "263", "addr:postcode": "09715-130", "addr:street": "Rua Carlos Gomes", "addr:suburb": "Vila Alvaro Marques", "building:levels": "17", "landuse": "residential", "name": "Large Bela Vista"}}, {"type": "way", "id": 439827082, "nodes": [4375040526, 6551856415, 4375040527, 4375040528, 4375040526], "tags": {"addr:city": "S\u00e3o Bernardo do Campo", "addr:country": "BR", "addr:housenumber": "52", "addr:street": "Rua Bendito Montenegro", "amenity": "clinic", "building": "yes", "healthcare": "clinic", "healthcare:speciality": "chemotherapy", "name": "QualiRad Centro de Radioterapia", "opening_hours": "Mo-Fr 07:00-19:00; Sa,Su,PH off", "phone": "+55 11 2178 0039", "website": "http://www.ghelfond.com.br/qualirad.php"}}, {"type": "way", "id": 446440366, "nodes": [4437127360, 4437127361, 4437127362, 4437127363, 4437127360], "tags": {"addr:city": "S\u00e3o Bernardo do Campo", "addr:country": "BR", "addr:street": "Avenida Francisco Prestes Maia", "addr:suburb": "Santa Terezinha", "amenity": "fast_food", "brand": "McDonald's", "brand:wikidata": "Q38076", "brand:wikipedia": "en:McDonald's", "building": "yes", "cuisine": "burger", "name": "McDonald's", "smoking": "outside", "takeaway": "yes"}}, {"type": "way", "id": 446440367, "nodes": [4437127364, 4437127365, 5772159996, 5772159997, 4437127368, 4437127369, 4437127364], "tags": {"addr:city": "S\u00e3o Bernardo do Campo", "addr:country": "BR", "addr:housenumber": "1547", "addr:street": "Avenida Francisco Prestes Maia", "addr:suburb": "Santa Terezinha", "amenity": "clinic", "building:levels": "2", "emergency": "yes", "healthcare": "clinic", "name": "Centro M\u00e9dico Green Line ABC", "operator": "Green Line", "operator:type": "private", "phone": "+55 11 3674 6015"}}, {"type": "way", "id": 447083378, "nodes": [4442780337, 4442780338, 4442780339, 4442780340, 4442780337], "tags": {"addr:city": "S\u00e3o Bernardo do Campo", "addr:country": "BR", "addr:housenumber": "699", "addr:street": "Rua Jo\u00e3o Pessoa", "email": "atendimento@fleming.med.br", "healthcare": "laboratory", "name": "Fleming Medicina Diagn\u00f3stica", "opening_hours": "Mo-Fr 06:30-18:00; Sa 06:30-13:00; Su,PH off", "website": "https://www.flemingdiagnosticos.com.br/"}}, {"type": "way", "id": 447086981, "nodes": [4442814506, 4442814510, 4442814511, 4442814512, 4442814513, 4442814506], "tags": {"addr:city": "S\u00e3o Bernardo do Campo", "addr:housenumber": "222", "addr:street": "Rua Silva Jardim", "landuse": "residential", "name": "Kamayur\u00e1 Park"}}, {"type": "way", "id": 447086982, "nodes": [4442814515, 4442814516, 4442814517, 4442814518, 4442814515], "tags": {"addr:city": "S\u00e3o Bernardo do Campo", "addr:country": "BR", "addr:housenumber": "399", "addr:street": "Rua Silva Jardim", "addr:suburb": "Centro", "amenity": "restaurant", "building": "yes", "cuisine": "regional", "name": "Big John Restaurante", "opening_hours": "Mo-Fr 11:30-15:00", "phone": "+55 11 2677 3477", "smoking": "no"}}, {"type": "way", "id": 447086983, "nodes": [4442814519, 4442814520, 4442814521, 4442814522, 4442814519], "tags": {"addr:city": "S\u00e3o Bernardo do Campo", "addr:country": "BR", "addr:street": "Rua Fioravanti Demarchi", "amenity": "parking", "fee": "yes", "parking": "surface", "supervised": "yes"}}, {"type": "way", "id": 447086984, "nodes": [4442814523, 4442814524, 4442814528, 4442814527, 4442814525, 4442814526, 4442814523], "tags": {"access": "yes", "addr:city": "S\u00e3o Bernardo do Campo", "addr:street": "Rua Napole\u00e3o Laureano", "amenity": "parking", "fee": "yes", "park_ride": "no", "parking": "surface", "payment:cash": "yes", "supervised": "yes", "surface": "paved"}}, {"type": "way", "id": 447095100, "nodes": [4442906011, 4442906012, 4442906013, 4442906014, 4442906011], "tags": {"addr:city": "S\u00e3o Bernardo do Campo", "addr:country": "BR", "addr:street": "Rua Santos Dumont", "addr:suburb": "Centro", "amenity": "marketplace", "name": "Feira Municipal", "opening_hours": "Th 06:00 - 14:00"}}, {"type": "way", "id": 447586906, "nodes": [4446769447, 4446769452, 4446769451, 4446769448, 4446769449, 4446769450, 4446769447], "tags": {"addr:city": "S\u00e3o Bernardo do Campo", "addr:housenumber": "290", "addr:street": "Rua Silva Jardim", "landuse": "residential"}}, {"type": "way", "id": 452520905, "nodes": [4493105479, 9802880043, 9802880044, 9802880045, 9802880046, 4493105480, 4493105482, 4493105483, 9802880041, 9802880042, 4493105479], "tags": {"addr:city": "S\u00e3o Bernardo do Campo", "addr:country": "BR", "addr:housenumber": "1001", "addr:street": "Avenida Francisco Prestes Maia", "addr:suburb": "Santa Terezinha", "amenity": "fast_food", "brand": "Burger King", "brand:wikidata": "Q177054", "brand:wikipedia": "en:Burger King", "building": "yes", "cuisine": "burger", "name": "Burger King", "smoking": "outside", "takeaway": "yes", "website": "http://www.burgerking.com.br/"}}, {"type": "way", "id": 452876203, "nodes": [4496911423, 4496911424, 4496911425, 4496911426, 4496911423], "tags": {"addr:city": "S\u00e3o Bernardo do Campo", "addr:country": "BR", "addr:housenumber": "18", "addr:street": "Rua Santos Dumont", "building": "yes", "name": "Maur\u00edcio Barotti Arquitetos Associados", "office": "architect"}}, {"type": "way", "id": 453340191, "nodes": [4500851555, 4500851556, 4500851557, 4500851558, 9943508206, 4500851555], "tags": {"addr:city": "S\u00e3o Bernardo do Campo", "addr:country": "BR", "addr:housenumber": "492", "addr:street": "Rua Tiradentes", "amenity": "fast_food", "brand": "Domino's", "brand:wikidata": "Q839466", "brand:wikipedia": "en:Domino's Pizza", "building": "yes", "cuisine": "pizza", "delivery": "yes", "drive_through": "no", "name": "Domino's", "phone": "+55 11 4335 7025", "smoking": "outside", "takeaway": "yes", "website": "https://www.dominos.com.br/"}}, {"type": "way", "id": 453376257, "nodes": [4501171929, 4501171930, 4501171931, 4501171932, 4501171929], "tags": {"addr:city": "S\u00e3o Bernardo do Campo", "addr:country": "BR", "addr:housenumber": "51", "addr:street": "Rua Bendito Montenegro", "building": "apartments", "building:levels": "3", "name": "Residencial Sonoma Valley"}}, {"type": "way", "id": 453376258, "nodes": [4501171933, 4501171934, 4501171935, 4501171936, 4501171933], "tags": {"addr:city": "S\u00e3o Bernardo do Campo", "addr:country": "BR", "addr:housenumber": "296", "addr:postcode": "09715-130", "addr:street": "Rua Carlos Gomes", "amenity": "place_of_worship", "building": "church", "denomination": "protestant", "name": "Igreja Nova Apost\u00f3lica", "religion": "christian", "wikidata": "Q512232", "wikipedia": "pt:Igreja Nova Apost\u00f3lica"}}, {"type": "way", "id": 454335360, "nodes": [4509005664, 4509005665, 4509005666, 4509005667, 4509005664], "tags": {"addr:city": "S\u00e3o Bernardo do Campo", "addr:country": "BR", "addr:street": "Avenida Francisco Prestes Maia", "building": "yes", "name": "Qutanda", "shop": "greengrocer"}}, {"type": "way", "id": 454335361, "nodes": [4509005668, 4509005669, 4509005670, 4509005671, 4509005672, 4509005673, 4509005668], "tags": {"access": "permissive", "amenity": "parking", "fee": "yes", "park_ride": "no", "parking": "surface", "supervised": "yes", "surface": "paved"}}, {"type": "way", "id": 454335364, "nodes": [4509005790, 4509005791, 4509005792, 4509005793, 4509005790], "tags": {"addr:city": "S\u00e3o Bernardo do Campo", "addr:country": "BR", "addr:street": "Avenida Francisco Prestes Maia", "building": "yes", "name": "Americanas Express", "payment:cash": "yes", "payment:coins": "yes", "payment:credit_cards": "yes", "payment:debit_cards": "yes", "payment:notes": "yes", "shop": "variety_store"}}, {"type": "way", "id": 454335365, "nodes": [4509005795, 4509005796, 4509005797, 4509005798, 4509005799, 4509005795], "tags": {"addr:city": "S\u00e3o Bernardo do Campo", "addr:country": "BR", "addr:housenumber": "1078", "addr:street": "Avenida Francisco Prestes Maia", "building": "yes"}}, {"type": "way", "id": 454390542, "nodes": [4509505317, 4509505318, 4509505319, 4509505320, 4509505317], "tags": {"addr:city": "S\u00e3o Bernardo do Campo", "addr:country": "BR", "addr:housenumber": "143", "addr:postcode": "09777-240", "addr:street": "Rua Andr\u00e9 Ritucci", "addr:suburb": "Santa Terezinha", "building": "yes", "name": "Espetinhos Mimi", "opening_hours": "Mo-Fr 09:00-18:00; Sa, Su, PH 09:00-17:00", "phone": "+55 11 4335 0351", "shop": "butcher", "website": "https://espetinhosmimi.com.br/index"}}, {"type": "way", "id": 483490310, "nodes": [4762309918, 4762309919, 4762309920, 4762320821, 11084670993, 11084670994, 4762309918], "tags": {"addr:city": "S\u00e3o Bernardo do Campo", "addr:country": "BR", "addr:housenumber": "526", "addr:postcode": "09715-021", "addr:street": "Rua Am\u00e9rico Brasiliense", "addr:suburb": "Vila Alvaro Marques", "building": "yes", "name": "Hirota Food S\u00e3o Bernardo do Campo", "opening_hours": "Mo-Sa 08:00-21:00; Su,PH 09:00-14:00", "payment:cash": "yes", "payment:coins": "yes", "payment:credit_cards": "yes", "payment:debit_cards": "yes", "payment:notes": "yes", "phone": "+55 11 4335 9747", "shop": "supermarket", "website": "https://hirotafood.com.br/"}}, {"type": "way", "id": 683256763, "nodes": [6399659627, 6399659628, 6399659629, 6399659630, 6399659627], "tags": {"addr:street": "Avenida Francisco Prestes Maia", "addr:suburb": "Santa Terezinha", "amenity": "pharmacy", "brand": "Droga Raia", "brand:wikidata": "Q10357101", "building": "yes", "dispensing": "yes", "healthcare": "pharmacy", "name": "Droga Raia"}}, {"type": "way", "id": 709514322, "nodes": [6668984981, 6668984982, 6668984983, 6668984984, 6669026885, 6669026886, 6668984981], "tags": {"amenity": "parking"}}, {"type": "way", "id": 765776657, "nodes": [7151903215, 7151903216, 7151903217, 7151903218, 7151903215], "tags": {"addr:street": "Rua Silva Jardim", "healthcare": "laboratory", "name": "Ghenfold Medicina Diagn\u00f3stica"}}, {"type": "way", "id": 1080856645, "nodes": [9906839222, 9906839223, 9906839224, 9906839225, 9906839226, 9906839222], "tags": {"addr:housenumber": "1491", "addr:street": "Avenida Francisco Prestes Maia", "addr:suburb": "Santa Terezinha", "branch": "S\u00e3o Bernardo do Campo", "building": "yes", "email": "delivery.sbc@redeoba.com.br", "name": "Oba Hortifruti", "opening_hours": "Mo-Sa,PH 07:00-22:00", "operator": "Grupo Fartura de Hortifruti S.A.", "organic": "yes", "phone": "+55 19 99691 4158", "shop": "greengrocer", "website": "https://obahortifruti.com.br"}}, {"type": "way", "id": 1080856646, "nodes": [9906839227, 9906839228, 9906839229, 9906839230, 9906839231, 9906839232, 9906839233, 9906839234, 9906839235, 9906839236, 9906839237, 9906839238, 9906839239, 9906839240, 9906839227], "tags": {"addr:housenumber": "30", "addr:postcode": "09770-250", "addr:street": "Rua Nuncio Interlich", "addr:suburb": "Santa Terezinha", "amenity": "kindergarten", "contact:phone": "+55 11 4338 6968", "email": "vinicius.morais@saobernardo.sp.gov.br", "name": "Escola Municipal de Educa\u00e7\u00e3o B\u00e1sica V\u00ednicius de Moraes", "operator": "Secretaria Municipal da Educa\u00e7\u00e3o", "operator:type": "government", "phone": "+55 11 4127 5355", "preschool": "yes", "ref": "INEP-35050957", "source": "CADMEC 2017;https://geo.saobernardo.sp.gov.br/"}}, {"type": "way", "id": 1081852926, "nodes": [9915209830, 9915209831, 9915209832, 9915209833, 9915209830], "tags": {"addr:housenumber": "33", "addr:postcode": "09780-120", "addr:street": "Rua Dois de Outubro", "addr:suburb": "Santa Terezinha", "amenity": "school", "denomination": "seventh_day_adventist", "name": "Col\u00e9gio Adventista", "phone": "+55 11 4334 7800", "religion": "christian", "website": "https://saobernardo.educacaoadventista.org.br/"}}, {"type": "way", "id": 1081854489, "nodes": [9915204585, 9915204586, 9915204587, 9915204588, 9915204585], "tags": {"addr:housenumber": "1941", "addr:street": "Avenida Francisco Prestes Maia", "addr:suburb": "Santa Terezinha", "amenity": "events_venue", "building": "yes", "contact:mobile": "+55 11 94532 3725", "name": "KidBeeruta", "phone": "+55 11 4335 1886", "website": "https://www.kidbeeruta.com.br/kid-beeruta-do-campo/"}}, {"type": "way", "id": 1081858235, "nodes": [9915263927, 9915263928, 9915263929, 9915263930, 9915263927], "tags": {"addr:housenumber": "1321", "addr:street": "Avenida Francisco Prestes Maia", "addr:suburb": "Santa Terezinha", "building": "yes", "clothes": "children", "name": "Arena Baby", "phone": "+55 11 4127 2239", "shop": "clothes", "website": "https://www.arenababy.com.br/"}}, {"type": "way", "id": 1103034641, "nodes": [10093718228, 10093718229, 10093718230, 10093718231, 10093718228], "tags": {"addr:housenumber": "341", "addr:street": "Rua Sarmento de Beires", "addr:suburb": "Centro", "description": "Regional SBC", "name": "CIESP - Centro das Ind\u00fastrias do Estado de S\u00e3o Paulo", "office": "association", "phone": "+55 11 4125 7500"}}, {"type": "way", "id": 1103034642, "nodes": [10093718232, 10093718233, 10942348245, 10942348246, 10942348247, 10942348248, 10942348249, 10942348250, 10093718234, 10093718235, 10093718236, 10093718232], "tags": {"addr:street": "Rua Tiradentes", "building": "yes", "building:levels": "1", "contact:mobile": "+55 11 99721 1963", "contact:phone": "+55 11 43335 2602", "name": "Casa de Carnes MP"}}, {"type": "way", "id": 1103036950, "nodes": [10093703326, 10093703327, 10093703328, 10093703329, 10093703326], "tags": {"addr:housenumber": "398", "addr:postcode": "09780-000", "addr:street": "Rua Tiradentes", "amenity": "kindergarten", "contact:mobile": "+55 11 99563 0128", "description": "Unidade SIII", "name": "Instituto J\u00easue Educa\u00e7\u00e3o Infantil", "operator": "Associa\u00e7\u00e3o Assistencial Pentagonal da B\u00edblia", "operator:type": "private_non_profit", "phone": "+55 11 4317 2704", "preschool": "yes", "website": "http://www.institutojesue.org.br/"}}, {"type": "way", "id": 1177911775, "nodes": [10942318429, 10942318430, 10942318431, 10942318432, 10942318429], "tags": {"addr:housenumber": "508", "addr:street": "Rua Tiradentes", "addr:suburb": "Centro", "amenity": "veterinary", "building": "yes", "contact:instagram": "@hvetlab", "contact:mobile": "+55 11 94777 9176", "name": "HVet Centro de Diagn\u00f3stico Veterin\u00e1rio", "phone": "+55 11 4334 8590"}}, {"type": "way", "id": 1177915311, "nodes": [10942348236, 10942348237, 10942348238, 10942348239, 10942348236], "tags": {"addr:street": "Rua Tiradentes", "addr:suburb": "Centro", "amenity": "veterinary", "building": "yes", "name": "VetHealtHato"}}, {"type": "way", "id": 1177915312, "nodes": [10942348241, 10942348242, 10942348243, 10942348244, 10942348241], "tags": {"addr:street": "Rua Giovani Giusti", "amenity": "dentist", "building": "yes", "healthcare": "dentist", "phone": "+55 11 4335 1080"}}]}