{"version": 0.6, "generator": "Overpass API 0.7.61.5 4133829e", "osm3s": {"timestamp_osm_base": "2024-02-26T22:12:26Z", "copyright": "The data included in this document is from www.openstreetmap.org. The data is made available under ODbL."}, "elements": [{"type": "node", "id": 4496869987, "lat": -23.4401728, "lon": -46.4070721}, {"type": "node", "id": 4496869988, "lat": -23.4402659, "lon": -46.4068708}, {"type": "node", "id": 4496870389, "lat": -23.4386886, "lon": -46.4065315}, {"type": "node", "id": 4496870390, "lat": -23.4386482, "lon": -46.4067574}, {"type": "node", "id": 4496870417, "lat": -23.4408147, "lon": -46.4102956}, {"type": "node", "id": 4496870419, "lat": -23.4403082, "lon": -46.4099456}, {"type": "node", "id": 4496870420, "lat": -23.4403319, "lon": -46.4101143}, {"type": "node", "id": 4496870421, "lat": -23.4409169, "lon": -46.409802}, {"type": "node", "id": 4496870422, "lat": -23.4408484, "lon": -46.410175}, {"type": "node", "id": 4496870424, "lat": -23.4404202, "lon": -46.4095501}, {"type": "node", "id": 4496870425, "lat": -23.4407851, "lon": -46.409663}, {"type": "node", "id": 4496870426, "lat": -23.4408431, "lon": -46.4096869}, {"type": "node", "id": 4496870427, "lat": -23.440818, "lon": -46.4097646}, {"type": "node", "id": 4496870430, "lat": -23.44097, "lon": -46.4097453}, {"type": "node", "id": 4496870432, "lat": -23.4403702, "lon": -46.4099616}, {"type": "node", "id": 4496870433, "lat": -23.4404633, "lon": -46.4101213}, {"type": "node", "id": 4496870434, "lat": -23.4404473, "lon": -46.4101689}, {"type": "node", "id": 4496870435, "lat": -23.4406441, "lon": -46.4101783}, {"type": "node", "id": 4496870436, "lat": -23.4406401, "lon": -46.4102253}, {"type": "node", "id": 4496870439, "lat": -23.4413801, "lon": -46.4087142}, {"type": "node", "id": 4496870440, "lat": -23.441823, "lon": -46.4086766}, {"type": "node", "id": 4496870441, "lat": -23.4418476, "lon": -46.4086498}, {"type": "node", "id": 4496870442, "lat": -23.4417911, "lon": -46.4079712}, {"type": "node", "id": 4496870443, "lat": -23.4413013, "lon": -46.4086966}, {"type": "node", "id": 4496870444, "lat": -23.4410585, "lon": -46.4079912}, {"type": "node", "id": 4496870445, "lat": -23.441743, "lon": -46.4079646}, {"type": "node", "id": 4496870446, "lat": -23.441102, "lon": -46.4077969}, {"type": "node", "id": 4551478950, "lat": -23.4431043, "lon": -46.4085859}, {"type": "node", "id": 4551478951, "lat": -23.4430943, "lon": -46.4080234}, {"type": "node", "id": 4551478952, "lat": -23.4431505, "lon": -46.407976}, {"type": "node", "id": 4551478953, "lat": -23.4446961, "lon": -46.4080385}, {"type": "node", "id": 4551478954, "lat": -23.4444764, "lon": -46.4085031}, {"type": "node", "id": 4551478967, "lat": -23.4447105, "lon": -46.4083412}, {"type": "node", "id": 4551478968, "lat": -23.4444565, "lon": -46.4083728}, {"type": "node", "id": 4551478969, "lat": -23.4435516, "lon": -46.4084559}, {"type": "node", "id": 4551478970, "lat": -23.4442757, "lon": -46.408418}, {"type": "node", "id": 4857976971, "lat": -23.4404832, "lon": -46.4078875}, {"type": "node", "id": 4857976972, "lat": -23.4405005, "lon": -46.4077882}, {"type": "node", "id": 4857976973, "lat": -23.4408179, "lon": -46.4078499}, {"type": "node", "id": 4857976974, "lat": -23.4408081, "lon": -46.4079545}, {"type": "node", "id": 4857976975, "lat": -23.4407602, "lon": -46.4079515}, {"type": "node", "id": 4857976976, "lat": -23.4407525, "lon": -46.4080198}, {"type": "node", "id": 4857976977, "lat": -23.4407884, "lon": -46.4080261}, {"type": "node", "id": 4857976978, "lat": -23.4407774, "lon": -46.4080777}, {"type": "node", "id": 4857976979, "lat": -23.440594, "lon": -46.408043}, {"type": "node", "id": 4857976980, "lat": -23.4405975, "lon": -46.4079873}, {"type": "node", "id": 4857976981, "lat": -23.4406363, "lon": -46.4079944}, {"type": "node", "id": 4857976982, "lat": -23.4406429, "lon": -46.4079256}, {"type": "node", "id": 4867930216, "lat": -23.4415272, "lon": -46.4118409}, {"type": "node", "id": 4867930217, "lat": -23.4417053, "lon": -46.4116024}, {"type": "node", "id": 4867930218, "lat": -23.4416563, "lon": -46.4108563}, {"type": "node", "id": 4867930219, "lat": -23.4411943, "lon": -46.4107071}, {"type": "node", "id": 4867930220, "lat": -23.4409154, "lon": -46.4115542}, {"type": "node", "id": 4867933722, "lat": -23.4413132, "lon": -46.4116758}, {"type": "node", "id": 8439077331, "lat": -23.4405939, "lon": -46.4075038, "tags": {"addr:city": "Guarulhos", "addr:housenumber": "4458", "addr:postcode": "07252-000", "addr:street": "Estrada Presidente Juscelino Kubitschek de Oliveira", "addr:suburb": "Jardim Albertina", "amenity": "restaurant", "name": "Lanchonete Point do Pimentas"}}, {"type": "node", "id": 8439077332, "lat": -23.4402909, "lon": -46.4077025, "tags": {"addr:city": "Guarulhos", "addr:housenumber": "4491", "addr:postcode": "07252-000", "addr:street": "Estrada Presidente Juscelino Kubitschek de Oliveira", "addr:suburb": "Jardim Albertina", "amenity": "restaurant", "name": "Ilha do Pastel"}}, {"type": "node", "id": 8439083519, "lat": -23.4398972, "lon": -46.4076676, "tags": {"addr:city": "Guarulhos", "addr:housenumber": "4529", "addr:postcode": "07252-000", "addr:street": "Estrada Presidente Juscelino Kubitschek de Oliveira", "addr:suburb": "Jardim Albertina", "amenity": "bank", "brand": "Caixa Econ\u00f4mica Federal", "brand:wikidata": "Q835283", "brand:wikipedia": "pt:Caixa Econ\u00f4mica Federal", "name": "Caixa Econ\u00f4mica Federal"}}, {"type": "node", "id": 8740215589, "lat": -23.4435499, "lon": -46.408558}, {"type": "node", "id": 8740215590, "lat": -23.444283, "lon": -46.4085125}, {"type": "node", "id": 8758886580, "lat": -23.4386719, "lon": -46.406625}, {"type": "node", "id": 9872586604, "lat": -23.4409366, "lon": -46.4097342}, {"type": "node", "id": 9921535270, "lat": -23.4409805, "lon": -46.4079468, "tags": {"addr:street": "Estrada Presidente Juscelino Kubitschek de Oliveira", "amenity": "pharmacy", "dispensing": "yes", "drive_through": "no", "healthcare": "pharmacy", "name": "Drogaria Guarulhos"}}, {"type": "node", "id": 9921535271, "lat": -23.440895, "lon": -46.4080688, "tags": {"addr:street": "Estrada Presidente Juscelino Kubitschek de Oliveira", "amenity": "fast_food", "contact:instagram": "https://www.instagram.com/101coxinhasoficial/", "name": "101 Coxinhas", "phone": "+55 11 99881 5907"}}, {"type": "node", "id": 9921536729, "lat": -23.4401998, "lon": -46.4068911}, {"type": "node", "id": 9921536730, "lat": -23.4402614, "lon": -46.4068957}, {"type": "node", "id": 9921536731, "lat": -23.4408518, "lon": -46.4075254}, {"type": "node", "id": 9921536732, "lat": -23.4408533, "lon": -46.4072876}, {"type": "node", "id": 9921536733, "lat": -23.4409511, "lon": -46.4072876}, {"type": "node", "id": 9921536734, "lat": -23.4409466, "lon": -46.4075172}, {"type": "node", "id": 9932737858, "lat": -23.4394719, "lon": -46.4099203}, {"type": "node", "id": 9932737859, "lat": -23.4396324, "lon": -46.4099722}, {"type": "node", "id": 9932737860, "lat": -23.4396607, "lon": -46.4099016}, {"type": "node", "id": 9932737861, "lat": -23.4394853, "lon": -46.4098413}, {"type": "way", "id": 452872354, "nodes": [4496869987, 9921536729, 9921536730, 4496869988, 4496870389, 8758886580, 4496870390, 4496869987], "tags": {"addr:street": "Estrada Presidente Juscelino Kubitschek de Oliveira", "amenity": "bus_station", "building": "roof", "bus": "yes", "layer": "+1", "name": "Terminal Pimentas", "public_transport": "station"}}, {"type": "way", "id": 452872359, "nodes": [4496870417, 4496870422, 4496870430, 9872586604, 4496870421, 4496870427, 4496870426, 4496870425, 4496870424, 4496870419, 4496870432, 4496870420, 4496870434, 4496870433, 4496870435, 4496870436, 4496870417], "tags": {"addr:city": "Guarulhos", "addr:housenumber": "100", "addr:postcode": "07243-550", "addr:street": "Rua S\u00e3o Jos\u00e9 do Para\u00edso", "addr:suburb": "Parque das Na\u00e7\u00f5es", "amenity": "hospital", "emergency": "yes", "healthcare": "hospital", "healthcare:speciality": "general;neurology;orthopaedics;emergency;acupuncture", "loc_name": "Hospital Pimentas Bonsucesso", "name": "Hospital Municipal Manuel de Paiva", "operator": "SPDM", "operator:type": "private_non_profit", "phone": "+55 11 2489 6610", "ref:CNES": "5200105", "short_name": "Hospital Municipal Pimentas Bonsucesso", "source": "CNES", "website": "https://www.spdm.org.br/onde-estamos/hospitais/hospital-municipal-pimentas-bonsucesso-guarulhos"}}, {"type": "way", "id": 452872360, "nodes": [4496870439, 4496870440, 4496870441, 4496870442, 4496870445, 4496870446, 4496870444, 4496870443, 4496870439], "tags": {"addr:city": "Guarulhos", "addr:housenumber": "1760", "addr:postcode": "07252-000", "addr:street": "Estrada Presidente Juscelino Kubitschek de Oliveira", "addr:suburb": "Jardim Albertina", "amenity": "place_of_worship", "name": "A Igreja Jesus Cristo dos Santos dos \u00daltimos Dias", "phone": "55 11 3537 2419", "religion": "christian", "service_times": "Su 09:00", "website": "https://www.lds.org.br/"}}, {"type": "way", "id": 459247351, "nodes": [4551478950, 4551478951, 4551478952, 4551478953, 4551478967, 4551478968, 4551478954, 8740215590, 4551478970, 4551478969, 8740215589, 4551478950], "tags": {"access": "customers", "addr:city": "Guarulhos", "addr:suburb": "Pq. Jurema", "amenity": "parking", "operator": "Supermercado Nagumo", "park_ride": "no", "parking": "surface"}}, {"type": "way", "id": 493944688, "nodes": [4857976971, 4857976972, 4857976973, 4857976974, 4857976975, 4857976976, 4857976977, 4857976978, 4857976979, 4857976980, 4857976981, 4857976982, 4857976971], "tags": {"addr:street": "Rua S\u00e3o Jos\u00e9 do Para\u00edso", "amenity": "fuel", "building": "roof", "name": "Rede Confian\u00e7a", "self_service": "no"}}, {"type": "way", "id": 495012338, "nodes": [4867930216, 4867930217, 4867930218, 4867930219, 4867930220, 4867933722, 4867930216], "tags": {"addr:city": "Guarulhos", "addr:country": "BR", "addr:housenumber": "99", "addr:postcode": "07243-340", "addr:street": "Rua Imperial", "addr:suburb": "Parque das Na\u00e7\u00f5es", "amenity": "school", "contact:phone": "+11 55 2480 5148", "email": "e913832a@educacao.sp.gov.br", "name": "Escola Estadual Professora Maria Aparecida F\u00e9lix Porto", "operator": "Secretaria da Educa\u00e7\u00e3o do Estado de S\u00e3o Paulo", "operator:type": "government", "phone": "+55 11 2480 2298", "ref": "INEP-35913832", "religion": "none", "source": "CADMEC 2017"}}, {"type": "way", "id": 1082584321, "nodes": [9921536731, 9921536732, 9921536733, 9921536734, 9921536731], "tags": {"addr:street": "Estrada Presidente Juscelino Kubitschek de Oliveira", "amenity": "fast_food", "brand": "McDonald's", "brand:wikidata": "Q38076", "building": "yes", "cuisine": "burger", "name": "McDonald's", "takeaway": "yes"}}, {"type": "way", "id": 1083896169, "nodes": [9932737858, 9932737859, 9932737860, 9932737861, 9932737858], "tags": {"addr:housenumber": "115", "addr:street": "Rua S\u00e3o Jos\u00e9 do Para\u00edso", "addr:suburb": "Jardim Albertina", "amenity": "place_of_worship", "building": "yes", "denomination": "pentecostal", "name": "Assembl\u00e9ia de Deus", "religion": "christian"}}]}