{"version": 0.6, "generator": "Overpass API 0.7.61.5 4133829e", "osm3s": {"timestamp_osm_base": "2024-02-26T22:01:14Z", "copyright": "The data included in this document is from www.openstreetmap.org. The data is made available under ODbL."}, "elements": [{"type": "node", "id": 1701823790, "lat": -23.585398, "lon": -46.7384962}, {"type": "node", "id": 1701823791, "lat": -23.5854798, "lon": -46.73903}, {"type": "node", "id": 1701823793, "lat": -23.5854927, "lon": -46.7384962}, {"type": "node", "id": 1701823797, "lat": -23.5855272, "lon": -46.7390128}, {"type": "node", "id": 1701823799, "lat": -23.5865469, "lon": -46.7397452}, {"type": "node", "id": 1701823800, "lat": -23.5865491, "lon": -46.7403461}, {"type": "node", "id": 1701823801, "lat": -23.5855546, "lon": -46.7406054}, {"type": "node", "id": 1701823802, "lat": -23.5856864, "lon": -46.7384747}, {"type": "node", "id": 1701823806, "lat": -23.5857768, "lon": -46.7385135}, {"type": "node", "id": 1701823810, "lat": -23.5858758, "lon": -46.738535}, {"type": "node", "id": 1701823811, "lat": -23.5858578, "lon": -46.7402322}, {"type": "node", "id": 1701823812, "lat": -23.5858778, "lon": -46.7400743}, {"type": "node", "id": 1701823814, "lat": -23.5859041, "lon": -46.7400109}, {"type": "node", "id": 1701823815, "lat": -23.5859294, "lon": -46.7397256}, {"type": "node", "id": 1701823817, "lat": -23.5859921, "lon": -46.7385436}, {"type": "node", "id": 1701823822, "lat": -23.5860781, "lon": -46.7385952}, {"type": "node", "id": 1701823829, "lat": -23.5860625, "lon": -46.7400276}, {"type": "node", "id": 1701823831, "lat": -23.5860878, "lon": -46.7397423}, {"type": "node", "id": 1701823832, "lat": -23.5861411, "lon": -46.7402748}, {"type": "node", "id": 1701823833, "lat": -23.586161, "lon": -46.7401169}, {"type": "node", "id": 1701823836, "lat": -23.5861871, "lon": -46.7397734}, {"type": "node", "id": 1701823837, "lat": -23.5861671, "lon": -46.7399314}, {"type": "node", "id": 1701823839, "lat": -23.5862755, "lon": -46.7403062}, {"type": "node", "id": 1701823842, "lat": -23.5863008, "lon": -46.7400209}, {"type": "node", "id": 1701823847, "lat": -23.5864397, "lon": -46.7388966}, {"type": "node", "id": 1701823850, "lat": -23.5864339, "lon": -46.7403229}, {"type": "node", "id": 1701823851, "lat": -23.5864592, "lon": -46.7400376}, {"type": "node", "id": 1701823852, "lat": -23.5864504, "lon": -46.7399741}, {"type": "node", "id": 1701823853, "lat": -23.5864704, "lon": -46.7398161}, {"type": "node", "id": 1701823857, "lat": -23.5866722, "lon": -46.7391118}, {"type": "node", "id": 1701823860, "lat": -23.5867968, "lon": -46.7398053}, {"type": "node", "id": 1701823863, "lat": -23.5868401, "lon": -46.7392022}, {"type": "node", "id": 1701823867, "lat": -23.587018, "lon": -46.7398158}, {"type": "node", "id": 1701823890, "lat": -23.5877096, "lon": -46.739327}, {"type": "node", "id": 1701823893, "lat": -23.5877388, "lon": -46.73948}, {"type": "node", "id": 1701823895, "lat": -23.5877809, "lon": -46.7396893}, {"type": "node", "id": 1701823897, "lat": -23.5878275, "lon": -46.739821}, {"type": "node", "id": 1701823898, "lat": -23.5871842, "lon": -46.740344}, {"type": "node", "id": 1701823899, "lat": -23.5880943, "lon": -46.7407877}, {"type": "node", "id": 1768204793, "lat": -23.5841219, "lon": -46.7382556}, {"type": "node", "id": 1768204794, "lat": -23.5841634, "lon": -46.7383339}, {"type": "node", "id": 1768204795, "lat": -23.5842365, "lon": -46.7384875}, {"type": "node", "id": 1768204796, "lat": -23.5842872, "lon": -46.738335}, {"type": "node", "id": 1768204797, "lat": -23.5842821, "lon": -46.73867}, {"type": "node", "id": 1768204798, "lat": -23.5842941, "lon": -46.7388695}, {"type": "node", "id": 1768204799, "lat": -23.5843042, "lon": -46.7391944}, {"type": "node", "id": 1768204800, "lat": -23.5842902, "lon": -46.7397654}, {"type": "node", "id": 1768204804, "lat": -23.5843929, "lon": -46.7384264}, {"type": "node", "id": 1768204808, "lat": -23.584502, "lon": -46.7385801}, {"type": "node", "id": 1768204809, "lat": -23.584567, "lon": -46.7386873}, {"type": "node", "id": 1768204821, "lat": -23.5847323, "lon": -46.739007}, {"type": "node", "id": 1768204822, "lat": -23.5847457, "lon": -46.739115}, {"type": "node", "id": 1769088979, "lat": -23.5866859, "lon": -46.7369291, "tags": {"addr:city": "S\u00e3o Paulo", "addr:country": "BR", "addr:housenumber": "340;344;348", "addr:postcode": "05537-000", "addr:state": "SP", "addr:street": "Avenida Ministro Laudo Ferreira de Camargo", "alt_name": "Droga Raia Peri Peri", "amenity": "pharmacy", "brand": "Drogaria S\u00e3o Paulo", "brand:wikidata": "Q5308184", "brand:wikipedia": "en:Grupo DPSP", "contact:phone": "+55 11 3507-6286", "contact:website": "http://www.drogaraia.com.br", "healthcare": "pharmacy", "name": "Drogaria S\u00e3o Paulo", "opening_hours": "Mo-Fr 07:30-23:00; Sa 07:30-23:30; Su 07:30-23:30", "wheelchair": "yes"}}, {"type": "node", "id": 1965972992, "lat": -23.5833023, "lon": -46.7377007}, {"type": "node", "id": 1965972993, "lat": -23.5834607, "lon": -46.7379206}, {"type": "node", "id": 1965972994, "lat": -23.5836302, "lon": -46.7379255}, {"type": "node", "id": 1965972995, "lat": -23.583762, "lon": -46.7371989}, {"type": "node", "id": 1965972996, "lat": -23.5838012, "lon": -46.7379485}, {"type": "node", "id": 1965972997, "lat": -23.5838436, "lon": -46.7372562}, {"type": "node", "id": 1965972998, "lat": -23.583931, "lon": -46.7379795}, {"type": "node", "id": 1965972999, "lat": -23.5840526, "lon": -46.7379927}, {"type": "node", "id": 1965973001, "lat": -23.584108, "lon": -46.7371816}, {"type": "node", "id": 1965973002, "lat": -23.5841865, "lon": -46.7379485}, {"type": "node", "id": 1965973003, "lat": -23.5842635, "lon": -46.737891}, {"type": "node", "id": 3773999567, "lat": -23.5847303, "lon": -46.7408941}, {"type": "node", "id": 3773999568, "lat": -23.5848325, "lon": -46.7408962}, {"type": "node", "id": 3773999569, "lat": -23.5847365, "lon": -46.740533}, {"type": "node", "id": 3773999570, "lat": -23.5848387, "lon": -46.7405351}, {"type": "node", "id": 3823814765, "lat": -23.5809826, "lon": -46.7357812}, {"type": "node", "id": 3823814766, "lat": -23.581232, "lon": -46.735177}, {"type": "node", "id": 3823814767, "lat": -23.5815578, "lon": -46.7365308}, {"type": "node", "id": 3823814768, "lat": -23.5818403, "lon": -46.7362619}, {"type": "node", "id": 4358485362, "lat": -23.5842111, "lon": -46.7382896}, {"type": "node", "id": 4358485364, "lat": -23.5844581, "lon": -46.7384853}, {"type": "node", "id": 6108010368, "lat": -23.5845474, "lon": -46.739467}, {"type": "node", "id": 6888746698, "lat": -23.5860553, "lon": -46.7376078, "tags": {"amenity": "bank", "atm": "yes", "brand": "Bradesco", "brand:wikidata": "Q806181", "brand:wikipedia": "en:Banco Bradesco", "name": "Bradesco", "wheelchair": "yes"}}, {"type": "node", "id": 11200672240, "lat": -23.5828128, "lon": -46.7403478}, {"type": "node", "id": 11200672241, "lat": -23.5827966, "lon": -46.7401383}, {"type": "node", "id": 11200672242, "lat": -23.5829397, "lon": -46.7401035}, {"type": "node", "id": 11200672243, "lat": -23.5829794, "lon": -46.740232}, {"type": "node", "id": 11200678686, "lat": -23.5831233, "lon": -46.7400453}, {"type": "node", "id": 11200678687, "lat": -23.5831453, "lon": -46.7401012}, {"type": "node", "id": 11200678688, "lat": -23.5830754, "lon": -46.7401641}, {"type": "node", "id": 11210701786, "lat": -23.5829766, "lon": -46.7401629}, {"type": "node", "id": 11210701787, "lat": -23.5829812, "lon": -46.7401938}, {"type": "node", "id": 11210701788, "lat": -23.582964, "lon": -46.7401364}, {"type": "node", "id": 11330917116, "lat": -23.5855668, "lon": -46.7394075}, {"type": "node", "id": 11330917117, "lat": -23.5855638, "lon": -46.7403007}, {"type": "node", "id": 11331011237, "lat": -23.585467, "lon": -46.7402895}, {"type": "node", "id": 11331011238, "lat": -23.5854913, "lon": -46.739924}, {"type": "node", "id": 11331011239, "lat": -23.5854923, "lon": -46.7394084}, {"type": "node", "id": 11331011254, "lat": -23.5878561, "lon": -46.7399364}, {"type": "node", "id": 11331011255, "lat": -23.5879681, "lon": -46.74036}, {"type": "node", "id": 11331011256, "lat": -23.587189, "lon": -46.7399484}, {"type": "node", "id": 11331281623, "lat": -23.5878396, "lon": -46.7398659}, {"type": "node", "id": 11331281636, "lat": -23.5878169, "lon": -46.7397911, "tags": {"barrier": "gate"}}, {"type": "node", "id": 11331523872, "lat": -23.5872216, "lon": -46.7367192}, {"type": "node", "id": 11331523873, "lat": -23.5872657, "lon": -46.7366817}, {"type": "node", "id": 11331523874, "lat": -23.5872589, "lon": -46.7366267}, {"type": "node", "id": 11331523875, "lat": -23.5871834, "lon": -46.7364345}, {"type": "node", "id": 11331523876, "lat": -23.5871223, "lon": -46.7364624}, {"type": "node", "id": 11331523877, "lat": -23.5871742, "lon": -46.7367397}, {"type": "node", "id": 11331523879, "lat": -23.5870763, "lon": -46.7367845}, {"type": "node", "id": 11331523880, "lat": -23.5869953, "lon": -46.7365737}, {"type": "node", "id": 11331523881, "lat": -23.5870931, "lon": -46.7365289}, {"type": "node", "id": 11331523882, "lat": -23.5866535, "lon": -46.7369984}, {"type": "node", "id": 11331523883, "lat": -23.5866234, "lon": -46.7369709}, {"type": "node", "id": 11331523884, "lat": -23.5866693, "lon": -46.7368013}, {"type": "node", "id": 11331523885, "lat": -23.5866978, "lon": -46.7367879}, {"type": "node", "id": 11331523886, "lat": -23.5867239, "lon": -46.7368539}, {"type": "node", "id": 11331523887, "lat": -23.5867409, "lon": -46.7368459}, {"type": "node", "id": 11331523888, "lat": -23.5867781, "lon": -46.7369397}, {"type": "node", "id": 11331523889, "lat": -23.5866372, "lon": -46.7369198}, {"type": "node", "id": 11331523890, "lat": -23.586758, "lon": -46.7366928}, {"type": "node", "id": 11331523891, "lat": -23.5868515, "lon": -46.7366468}, {"type": "node", "id": 11331523892, "lat": -23.5869455, "lon": -46.736874}, {"type": "node", "id": 11331523893, "lat": -23.5868519, "lon": -46.73692}, {"type": "way", "id": 157963866, "nodes": [1701823851, 1701823842, 1701823839, 1701823850, 1701823851], "tags": {"addr:housename": "Torre 4", "addr:street": "Rua Eugene Carriere", "building": "residential", "building:levels": "13", "building:use": "residential", "max_level": "12", "min_level": "0", "roof:levels": "15"}}, {"type": "way", "id": 157963868, "nodes": [1701823812, 1701823811, 1701823832, 1701823833, 1701823812], "tags": {"addr:housename": "Torre 2", "addr:street": "Rua Eugene Carriere", "building": "residential", "building:levels": "13", "building:material": "concrete", "building:use": "residential", "max_level": "12", "min_level": "0", "roof:levels": "15"}}, {"type": "way", "id": 157963871, "nodes": [1701823831, 1701823815, 1701823814, 1701823829, 1701823831], "tags": {"addr:housename": "Torre 1", "addr:street": "Rua Eugene Carriere", "building": "residential", "building:levels": "13", "building:use": "residential", "max_level": "12", "min_level": "0", "roof:levels": "15"}}, {"type": "way", "id": 157963876, "nodes": [1701823836, 1701823837, 1701823852, 1701823853, 1701823836], "tags": {"addr:housename": "Torre 3", "addr:street": "Rua Eugene Carriere", "building": "residential", "building:levels": "12", "building:material": "concrete", "building:use": "residential", "max_level": "11", "min_level": "0", "roof:levels": "14"}}, {"type": "way", "id": 157963882, "nodes": [1701823800, 1701823898, 11331011256, 11331011254, 11331281623, 1701823897, 1701823867, 1701823860, 1701823799, 1701823800], "tags": {"addr:city": "S\u00e3o Paulo", "addr:housenumber": "155", "addr:street": "Rua Trajano Reis", "landuse": "residential", "name": "Residencial El Greco", "residential": "apartments"}}, {"type": "way", "id": 157963883, "nodes": [1701823799, 1701823860, 1701823867, 1701823897, 11331281636, 1701823895, 1701823893, 1701823890, 1701823863, 1701823857, 1701823847, 1701823822, 1701823817, 1701823810, 1701823806, 1701823802, 1701823793, 1701823790, 1701823791, 1701823797, 11330917116, 1701823799], "tags": {"addr:city": "S\u00e3o Paulo", "addr:housenumber": "185", "addr:street": "Rua Trajano Reis", "landuse": "residential", "name": "Costa do Sol", "residential": "apartments", "source": "Bing"}}, {"type": "way", "id": 157963884, "nodes": [1701823801, 11330917117, 1701823800, 1701823898, 11331011255, 1701823899, 1701823801], "tags": {"addr:city": "S\u00e3o Paulo", "addr:housenumber": "17", "addr:street": "Rua Eugene Carriere", "landuse": "residential", "name": "Villes de France", "residential": "apartments", "source": "Bing"}}, {"type": "way", "id": 165265046, "nodes": [1768204799, 1768204798, 1768204797, 1768204795, 1768204794, 1768204793, 4358485362, 1768204796, 1768204804, 4358485364, 1768204808, 1768204809, 1768204821, 1768204822, 6108010368, 1768204800, 1768204799], "tags": {"addr:housenumber": "1125", "addr:postcode": "05594-001", "addr:street": "Rua Augusto Farina", "amenity": "hospital", "emergency": "yes", "healthcare": "hospital", "name": "Pronto Socorro Municipal Doutor Caetano Virg\u00edlio Neto", "operator": "Prefeitura do Munic\u00edpio de S\u00e3o Paulo", "operator:ref:vatin": "BR46392130000380", "operator:type": "government", "ref:CNES": "2027100"}}, {"type": "way", "id": 185908297, "nodes": [1965972993, 1965972994, 1965972996, 1965972998, 1965972999, 1965973002, 1965973003, 1965973001, 1965972997, 1965972995, 1965972992, 1965972993], "tags": {"addr:city": "S\u00e3o Paulo", "addr:housenumber": "800", "addr:postcode": "05593-090", "addr:street": "Rua Az\u00e9m Abdalla Az\u00e9m", "amenity": "fire_station", "name": "4\u00ba GB - S\u00e3o Paulo/1\u00ba PB Butant\u00e3"}}, {"type": "way", "id": 373983729, "nodes": [3773999567, 3773999568, 3773999570, 3773999569, 3773999567], "tags": {"addr:city": "S\u00e3o Paulo", "addr:housenumber": "176", "addr:street": "Rua Ari Aps", "amenity": "fuel", "brand": "BR", "brand:wikidata": "Q4836468", "brand:wikipedia": "pt:Vibra Energia", "building": "roof", "name": "BR", "roof:material": "metal"}}, {"type": "way", "id": 379035895, "nodes": [3823814768, 3823814767, 3823814765, 3823814766, 3823814768], "tags": {"addr:city": "S\u00e3o Paulo", "addr:housenumber": "25", "addr:postcode": "05594040", "addr:street": "Rua Dr. Jos\u00e9 Aires Neto", "addr:suburb": "Jardim Bonfiglioli", "amenity": "school", "name": "EMEF J\u00falio de Mesquita"}}, {"type": "way", "id": 1208875124, "nodes": [11200672240, 11200672241, 11200672242, 11210701788, 11210701786, 11210701787, 11200672243, 11200672240], "tags": {"addr:city": "S\u00e3o Paulo", "addr:housenumber": "404", "addr:postcode": "05594-000", "addr:street": "Rua Augusto Farina", "addr:suburb": "Jardim Bonfiglioli", "building": "house", "building:colour": "#ffa348", "building:levels": "2", "fixme": "Approximate height", "height": "4", "house": "semi-detached"}}, {"type": "way", "id": 1208876696, "nodes": [11200672243, 11210701787, 11210701786, 11210701788, 11200672242, 11200678686, 11200678687, 11200678688, 11200672243], "tags": {"addr:street": "Rua Claudionor Alves Bastos", "leisure": "park"}}, {"type": "way", "id": 1221756305, "nodes": [11330917117, 11331011237, 11331011238, 11331011239, 11330917116, 1701823799, 1701823800, 11330917117], "tags": {"addr:city": "S\u00e3o Paulo", "addr:housenumber": "30", "addr:street": "Rua Eugene Carriere", "landuse": "residential", "name": "Ecolife Butant\u00e3", "residential": "apartments"}}, {"type": "way", "id": 1221808847, "nodes": [11331523872, 11331523873, 11331523874, 11331523875, 11331523876, 11331523872], "tags": {"addr:city": "S\u00e3o Paulo", "addr:housenumber": "284", "addr:street": "Avenida Ministro Laudo Ferreira de Camargo", "addr:suburb": "Peri Peri", "amenity": "restaurant", "bar": "yes", "building": "yes", "cuisine": "kebab;steak_house;brazilian", "diet:meat": "yes", "live_music": "yes", "name": "Reino do Churrasco", "opening_hours": "Tu-Fr 15:30-23:00; Sa 12:30-23:00", "outdoor_seating": "yes", "phone": "+55 11 2737 0937", "television": "yes", "website": "http://reinodochurrascolp.com.br/"}}, {"type": "way", "id": 1221808849, "nodes": [11331523877, 11331523879, 11331523880, 11331523881, 11331523877], "tags": {"addr:city": "S\u00e3o Paulo", "addr:housenumber": "300", "addr:street": "Avenida Ministro Laudo Ferreira de Camargo", "addr:suburb": "Peri Peri", "building": "yes", "name": "Ponk\u00e3", "opening_hours": "Mo-Sa 08:00-18:00", "shop": "general"}}, {"type": "way", "id": 1221808850, "nodes": [11331523882, 11331523883, 11331523889, 11331523884, 11331523885, 11331523886, 11331523887, 11331523888, 11331523882], "tags": {"addr:housenumber": "340;344;348", "addr:street": "Avenida Ministro Laudo Ferreira de Camargo", "amenity": "pharmacy", "brand": "Drogaria S\u00e3o Paulo", "brand:wikidata": "Q5308184", "building": "yes", "dispensing": "yes", "healthcare": "pharmacy", "name": "Drogaria S\u00e3o Paulo", "opening_hours": "Mo-Fr 07:30-23:00; Sa 07:30-23:30; Su 07:30-23:30", "phone": "+55 11 3507-6286"}}, {"type": "way", "id": 1221808851, "nodes": [11331523890, 11331523891, 11331523892, 11331523893, 11331523890], "tags": {"addr:street": "Avenida Ministro Laudo Ferreira de Camargo", "building": "yes", "name": "Big Pel", "shop": "stationery"}}]}