{"version": 0.6, "generator": "Overpass API 0.7.61.5 4133829e", "osm3s": {"timestamp_osm_base": "2024-02-26T22:03:15Z", "copyright": "The data included in this document is from www.openstreetmap.org. The data is made available under ODbL."}, "elements": [{"type": "node", "id": 3120764332, "lat": -22.7820291, "lon": -47.2958583}, {"type": "node", "id": 5290362783, "lat": -22.7812673, "lon": -47.2969955}, {"type": "node", "id": 5290362784, "lat": -22.7816228, "lon": -47.2966599}, {"type": "node", "id": 5290362785, "lat": -22.7821959, "lon": -47.2965463}, {"type": "node", "id": 5366748431, "lat": -22.7821067, "lon": -47.3022642}, {"type": "node", "id": 5366748432, "lat": -22.7821908, "lon": -47.3021086}, {"type": "node", "id": 5366748433, "lat": -22.7827645, "lon": -47.3025539}, {"type": "node", "id": 5366748434, "lat": -22.7826705, "lon": -47.3026961}, {"type": "node", "id": 5366748514, "lat": -22.7799898, "lon": -47.2997859}, {"type": "node", "id": 5366748515, "lat": -22.7806946, "lon": -47.2988068}, {"type": "node", "id": 5366748516, "lat": -22.7807911, "lon": -47.2987264}, {"type": "node", "id": 5366748517, "lat": -22.7808727, "lon": -47.2987103}, {"type": "node", "id": 5366748518, "lat": -22.7809914, "lon": -47.2987478}, {"type": "node", "id": 5366748519, "lat": -22.7811521, "lon": -47.2988739}, {"type": "node", "id": 5366748520, "lat": -22.7811719, "lon": -47.2989222}, {"type": "node", "id": 5366748521, "lat": -22.7811274, "lon": -47.2990295}, {"type": "node", "id": 5366748522, "lat": -22.7804152, "lon": -47.3000943}, {"type": "node", "id": 5366748523, "lat": -22.779881, "lon": -47.2999522}, {"type": "node", "id": 5366748524, "lat": -22.7803014, "lon": -47.3002579}, {"type": "node", "id": 5920400864, "lat": -22.7800802, "lon": -47.2987344}, {"type": "node", "id": 5920400865, "lat": -22.7799244, "lon": -47.297962}, {"type": "node", "id": 5920400866, "lat": -22.7800827, "lon": -47.2979271}, {"type": "node", "id": 5920400867, "lat": -22.7802335, "lon": -47.2986969}, {"type": "node", "id": 5920414048, "lat": -22.7810708, "lon": -47.2960795}, {"type": "node", "id": 10023123404, "lat": -22.7790232, "lon": -47.2994105}, {"type": "node", "id": 10023123405, "lat": -22.7790544, "lon": -47.299491}, {"type": "node", "id": 10023123406, "lat": -22.7791589, "lon": -47.2994433}, {"type": "node", "id": 10023123407, "lat": -22.7791277, "lon": -47.2993628}, {"type": "node", "id": 10023135650, "lat": -22.7794604, "lon": -47.3001567}, {"type": "node", "id": 10023135651, "lat": -22.7795556, "lon": -47.3002337}, {"type": "node", "id": 10023135652, "lat": -22.7796209, "lon": -47.3001259}, {"type": "node", "id": 10023135653, "lat": -22.7796223, "lon": -47.3001074}, {"type": "node", "id": 10023135654, "lat": -22.7796195, "lon": -47.3000874}, {"type": "node", "id": 10023135655, "lat": -22.7795683, "lon": -47.3000365}, {"type": "way", "id": 547506428, "nodes": [5290362783, 5290362784, 5290362785, 3120764332, 5920414048, 5290362783], "tags": {"addr:city": "Nova Odessa", "addr:country": "BR", "addr:housenumber": "500", "addr:postcode": "13460-000", "addr:street": "Rua Independ\u00eancia", "addr:suburb": "Centro", "amenity": "school", "contact:phone": "+55 19 3466 2983", "email": "e017309a@educacao.sp.gov.br", "name": "Escola Estadual Doutor Jo\u00e3o Thienne", "operator": "Secretaria da Educa\u00e7\u00e3o do Estado de S\u00e3o Paulo", "operator:type": "government", "phone": "+55 19 3466 1245", "ref": "INEP-35017309", "religion": "none", "source": "CADMEC 2017"}}, {"type": "way", "id": 556341325, "nodes": [5366748431, 5366748432, 5366748433, 5366748434, 5366748431], "tags": {"addr:city": "Nova Odessa", "addr:housenumber": "1300", "addr:postcode": "13380-094", "addr:street": "Avenida Jo\u00e3o Pessoa", "addr:suburb": "Bosque dos Cedros", "amenity": "courthouse", "building": "yes", "name": "F\u00f3rum de Nova Odessa", "phone": "+55 19 3466 5996"}}, {"type": "way", "id": 556341333, "nodes": [5366748514, 5366748515, 5366748516, 5366748517, 5366748518, 5366748519, 5366748520, 5366748521, 5366748522, 5366748514], "tags": {"addr:city": "Nova Odessa", "addr:housenumber": "310", "addr:postcode": "13380-086", "addr:street": "Rua Arist\u00eddes Bassora", "addr:suburb": "Centro", "amenity": "hospital", "emergency": "yes", "healthcare": "hospital", "healthcare:speciality": "general;paediatrics;emergency;maternity", "name": "Hospital e Maternidade Municipal Doutor Acilio Carrion", "operator:ref:vatin": "BR45781184000102", "phone": "+55 19 3476 8194", "ref:CNES": "2058308", "ref:vatin": "BR45781184000374"}}, {"type": "way", "id": 556341337, "nodes": [5366748523, 5366748514, 5366748522, 5366748524, 5366748523], "tags": {"addr:city": "Nova Odessa", "addr:housenumber": "833", "addr:postcode": "13380-017", "addr:street": "Avenida Jo\u00e3o Pessoa", "addr:suburb": "Centro", "amenity": "hospital", "emergency": "no", "healthcare": "hospital", "healthcare:speciality": "dermatology;psychiatry;orthopaedics;ophthalmology;cardiology", "name": "Coordenadoria de Sa\u00fade e Ambulat\u00f3rio de Especialidades", "operator:ref:vatin": "BR45781184000102", "ref:CNES": "2053446"}}, {"type": "way", "id": 627145007, "nodes": [5920400864, 5920400865, 5920400866, 5920400867, 5920400864], "tags": {"addr:city": "Nova Odessa", "addr:housenumber": "777", "addr:postcode": "13380-017", "addr:street": "Avenida Jo\u00e3o Pessoa", "addr:suburb": "Centro", "amenity": "townhall", "building": "public", "building:levels": "2", "name": "Prefeitura de Nova Odessa", "phone": "+55 19 3475 8600", "website": "http://www.novaodessa.sp.gov.br/"}}, {"type": "way", "id": 1094378326, "nodes": [10023123404, 10023123405, 10023123406, 10023123407, 10023123404], "tags": {"amenity": "fast_food", "building": "yes"}}, {"type": "way", "id": 1094378930, "nodes": [10023135650, 10023135651, 10023135652, 10023135653, 10023135654, 10023135655, 10023135650], "tags": {"amenity": "fast_food", "building": "yes"}}]}