{"version": 0.6, "generator": "Overpass API 0.7.61.5 4133829e", "osm3s": {"timestamp_osm_base": "2024-02-26T22:04:15Z", "copyright": "The data included in this document is from www.openstreetmap.org. The data is made available under ODbL."}, "elements": [{"type": "node", "id": 365204252, "lat": -23.1825087, "lon": -46.8911729, "tags": {"addr:housenumber": "620", "addr:street": "Rua Anchieta", "amenity": "clinic", "healthcare": "clinic", "healthcare:speciality": "otolaryngology", "name": "Oto.com Otorrinolaringologia"}}, {"type": "node", "id": 367943048, "lat": -23.1799658, "lon": -46.8882119, "tags": {"amenity": "school", "name": "Col\u00e9gio Tableau"}}, {"type": "node", "id": 3334662362, "lat": -23.1832706, "lon": -46.8924122}, {"type": "node", "id": 3334662363, "lat": -23.1829249, "lon": -46.891837}, {"type": "node", "id": 3334662364, "lat": -23.1825352, "lon": -46.8921395}, {"type": "node", "id": 3334662368, "lat": -23.1828671, "lon": -46.8928687}, {"type": "node", "id": 3334662369, "lat": -23.1824509, "lon": -46.8922407}, {"type": "node", "id": 3334709616, "lat": -23.1811428, "lon": -46.8912629, "tags": {"amenity": "taxi", "capacity": "3"}}, {"type": "node", "id": 3334717521, "lat": -23.1813811, "lon": -46.891066}, {"type": "node", "id": 3334717522, "lat": -23.1810038, "lon": -46.8905564}, {"type": "node", "id": 3334717523, "lat": -23.1806759, "lon": -46.8908032}, {"type": "node", "id": 3334717524, "lat": -23.1808, "lon": -46.8910215}, {"type": "node", "id": 3334717525, "lat": -23.1810565, "lon": -46.8912655}, {"type": "node", "id": 3590609212, "lat": -23.1827292, "lon": -46.8900079}, {"type": "node", "id": 3590609213, "lat": -23.182641, "lon": -46.8895604}, {"type": "node", "id": 3590609216, "lat": -23.1822158, "lon": -46.8898964}, {"type": "node", "id": 3590609217, "lat": -23.1824043, "lon": -46.8902408}, {"type": "node", "id": 3590609775, "lat": -23.1825274, "lon": -46.8896489}, {"type": "node", "id": 3590609776, "lat": -23.1825708, "lon": -46.8894334}, {"type": "node", "id": 3590609778, "lat": -23.1821059, "lon": -46.8899523}, {"type": "node", "id": 3590609779, "lat": -23.182038, "lon": -46.889828}, {"type": "node", "id": 3683152823, "lat": -23.1811739, "lon": -46.8908032}, {"type": "node", "id": 3775743972, "lat": -23.1842284, "lon": -46.8892335}, {"type": "node", "id": 3775743974, "lat": -23.183987, "lon": -46.8894064}, {"type": "node", "id": 3775743975, "lat": -23.1840262, "lon": -46.8894952}, {"type": "node", "id": 3775743976, "lat": -23.1838191, "lon": -46.8896401}, {"type": "node", "id": 3775743977, "lat": -23.1836712, "lon": -46.8897608}, {"type": "node", "id": 3775743978, "lat": -23.1836638, "lon": -46.8897903}, {"type": "node", "id": 3775743979, "lat": -23.1836934, "lon": -46.8898144}, {"type": "node", "id": 3775743980, "lat": -23.1837068, "lon": -46.8899348}, {"type": "node", "id": 3775743981, "lat": -23.1837525, "lon": -46.8900129}, {"type": "node", "id": 3775743982, "lat": -23.1840076, "lon": -46.8898382}, {"type": "node", "id": 3775743983, "lat": -23.1841271, "lon": -46.8900246}, {"type": "node", "id": 3775754195, "lat": -23.1837351, "lon": -46.8899039}, {"type": "node", "id": 3775754196, "lat": -23.1842529, "lon": -46.8900246}, {"type": "node", "id": 3775754197, "lat": -23.1842097, "lon": -46.8899777}, {"type": "node", "id": 3775754198, "lat": -23.184542, "lon": -46.8897888}, {"type": "node", "id": 3775754199, "lat": -23.1842785, "lon": -46.8893197}, {"type": "node", "id": 3775754200, "lat": -23.1840976, "lon": -46.8893192}, {"type": "node", "id": 4933420086, "lat": -23.1830503, "lon": -46.8881084}, {"type": "node", "id": 4933420087, "lat": -23.1828019, "lon": -46.8884418}, {"type": "node", "id": 4933420088, "lat": -23.1825964, "lon": -46.8880674}, {"type": "node", "id": 4933420089, "lat": -23.1826866, "lon": -46.8879464}, {"type": "node", "id": 4933420090, "lat": -23.1825873, "lon": -46.8878589}, {"type": "node", "id": 4933420091, "lat": -23.1826587, "lon": -46.8877631}, {"type": "node", "id": 6418648626, "lat": -23.1822736, "lon": -46.8915907, "tags": {"addr:city": "Jundia\u00ed", "addr:housenumber": "679", "addr:street": "Rua Anchieta", "amenity": "cafe", "contact:facebook": "https://www.facebook.com/V%C2%B2-Caf%C3%A9-Restaurante-1278867138924028/", "contact:phone": "+55 11 4431-1988", "cuisine": "coffee_shop", "diet:vegan": "only", "name": "V\u00b2 Caf\u00e9 & Restaurante", "opening_hours": "Mo-Fr 08:00-18:00; Sa 08:00-15:00"}}, {"type": "node", "id": 7313942191, "lat": -23.1826799, "lon": -46.8925696}, {"type": "node", "id": 7313942196, "lat": -23.1827003, "lon": -46.8882165}, {"type": "node", "id": 7313942197, "lat": -23.1827262, "lon": -46.8881818}, {"type": "node", "id": 9204857680, "lat": -23.1816386, "lon": -46.8898781, "tags": {"addr:city": "Jundia\u00ed", "addr:housenumber": "430", "addr:postcode": "13201-814", "addr:street": "Rua Campos Salles", "addr:suburb": "Vila Boaventura", "amenity": "restaurant", "cuisine": "regional;international", "diet:vegetarian": "yes", "name": "Titan Restaurante", "opening_hours": "Mo-Sa 11:00-14:00", "phone": "+55 11 4522-2880", "website": "https://www.titanrestaurante.com.br"}}, {"type": "way", "id": 326793805, "nodes": [3334662362, 3334662363, 3334662364, 3334662369, 7313942191, 3334662368, 3334662362], "tags": {"addr:city": "Jundia\u00ed", "addr:housenumber": "70", "addr:postcode": "13201-838", "addr:street": "Rua Socrates Fernandes de Oliveira", "addr:suburb": "Chacara Urbana", "amenity": "hospital", "emergency": "yes", "healthcare": "hospital", "healthcare:speciality": "maternity;paediatrics;general;surgery", "name": "Hospital e Maternidade Santa Elisa", "phone": "+55 11 4583 4444", "ref:CNES": "9215131", "ref:vatin": "BR08899529000281", "website": "https://hse.com.br/"}}, {"type": "way", "id": 326798287, "nodes": [3334717521, 3683152823, 3334717522, 3334717523, 3334717524, 3334717525, 3334717521], "tags": {"addr:city": "Jundia\u00ed", "addr:street": "Avenida Professor Luiz Rosa", "addr:suburb": "Centro", "amenity": "parking", "fee": "yes", "operator": "Cidade Vicentina Frederico Ozanan", "parking": "surface", "source": "https://pt-br.facebook.com/pages/Cidade-Vicentina-Frederico-Ozanam-Jundia%C3%AD-Sp/270134839762348", "supervised": "yes"}}, {"type": "way", "id": 353276807, "nodes": [3590609212, 3590609775, 3590609213, 3590609776, 3590609779, 3590609778, 3590609216, 3590609217, 3590609212], "tags": {"addr:city": "Jundia\u00ed", "addr:postcode": "13201-814", "addr:street": "Avenida Professor Luiz Rosa", "addr:suburb": "Vila Padre Nobrega", "amenity": "hospital", "emergency": "no", "healthcare": "hospital", "name": "Hospital Regional de Jundia\u00ed", "phone": "+55 11 4527 4700", "source": "http://www.irssl.org.br/unidades_servicos/pagina.php?cod=14&alias="}}, {"type": "way", "id": 374182770, "nodes": [3775754198, 3775754199, 3775743972, 3775754200, 3775743974, 3775743975, 3775743976, 3775743977, 3775743978, 3775743979, 3775754195, 3775743980, 3775743981, 3775743982, 3775743983, 3775754197, 3775754196, 3775754198], "tags": {"addr:city": "Jundia\u00ed", "addr:housenumber": "223", "addr:postcode": "13201-625", "addr:street": "Rua S\u00e3o Vicente de Paulo", "addr:suburb": "Vila Argos Velha", "amenity": "hospital", "email": "sac@hsvicente.org.br", "healthcare": "hospital", "name": "Hospital de Caridade S\u00e3o Vicente de Paulo", "phone": "+55 11 4583 8155", "ref:CNES": "2786435", "ref:vatin": "BR50944198000130", "website": "https://hsvicente.org.br/"}}, {"type": "way", "id": 502985794, "nodes": [4933420086, 4933420087, 7313942196, 7313942197, 4933420088, 4933420089, 4933420090, 4933420091, 4933420086], "tags": {"addr:city": "Jundia\u00ed", "addr:housenumber": "240", "addr:postcode": "13201-013", "addr:street": "Rua Leonardo Cavalcanti", "addr:suburb": "Centro", "amenity": "place_of_worship", "building": "yes", "denomination": "baptist", "name": "Igreja Batista Casa de Deus", "phone": "+55 11 4522-5900", "religion": "christian", "website": "https://casadedeus.com.br/"}}]}