{"version": 0.6, "generator": "Overpass API 0.7.61.5 4133829e", "osm3s": {"timestamp_osm_base": "2024-02-26T22:06:10Z", "copyright": "The data included in this document is from www.openstreetmap.org. The data is made available under ODbL."}, "elements": [{"type": "node", "id": 4416325049, "lat": -22.915198, "lon": -47.0692183}, {"type": "node", "id": 4416325050, "lat": -22.9150672, "lon": -47.0689789}, {"type": "node", "id": 4416325051, "lat": -22.9154621, "lon": -47.0686948}, {"type": "node", "id": 4416325052, "lat": -22.9155905, "lon": -47.0689447}, {"type": "node", "id": 8861506306, "lat": -22.9163846, "lon": -47.0648097}, {"type": "node", "id": 8861506914, "lat": -22.9159185, "lon": -47.0654786}, {"type": "node", "id": 8861506915, "lat": -22.9159393, "lon": -47.0646709}, {"type": "node", "id": 8861506916, "lat": -22.9170454, "lon": -47.0650368}, {"type": "node", "id": 8861512317, "lat": -22.9167628, "lon": -47.065744}, {"type": "node", "id": 8861524234, "lat": -22.9167986, "lon": -47.0656823}, {"type": "node", "id": 8861524235, "lat": -22.9168466, "lon": -47.065575}, {"type": "node", "id": 8861524236, "lat": -22.9169258, "lon": -47.0656108}, {"type": "node", "id": 8861524237, "lat": -22.9169508, "lon": -47.0655278}, {"type": "node", "id": 8861524238, "lat": -22.9170412, "lon": -47.0655599}, {"type": "node", "id": 8861524239, "lat": -22.9169845, "lon": -47.0657483}, {"type": "node", "id": 8861524240, "lat": -22.917268, "lon": -47.0657846}, {"type": "node", "id": 8861524241, "lat": -22.9171482, "lon": -47.065683}, {"type": "node", "id": 8861524242, "lat": -22.9174328, "lon": -47.0653415}, {"type": "node", "id": 8861524243, "lat": -22.9175302, "lon": -47.0654553}, {"type": "node", "id": 8863852852, "lat": -22.916973, "lon": -47.0664981}, {"type": "node", "id": 8863852853, "lat": -22.9171149, "lon": -47.0660813}, {"type": "node", "id": 8863852854, "lat": -22.9174449, "lon": -47.0662138}, {"type": "node", "id": 8863852855, "lat": -22.9173028, "lon": -47.0666305}, {"type": "node", "id": 8863852856, "lat": -22.916583, "lon": -47.0664102}, {"type": "node", "id": 8863852857, "lat": -22.9167729, "lon": -47.0664921}, {"type": "node", "id": 8863852858, "lat": -22.9169401, "lon": -47.0660353}, {"type": "node", "id": 8863852859, "lat": -22.9167502, "lon": -47.0659534}, {"type": "node", "id": 8863852860, "lat": -22.9151885, "lon": -47.0663684}, {"type": "node", "id": 8863852861, "lat": -22.9152179, "lon": -47.0659791}, {"type": "node", "id": 8863852862, "lat": -22.915772, "lon": -47.0661454}, {"type": "node", "id": 8863852863, "lat": -22.9156808, "lon": -47.0665453}, {"type": "node", "id": 8863852868, "lat": -22.9177126, "lon": -47.0671351}, {"type": "node", "id": 8863852869, "lat": -22.9177955, "lon": -47.0671677}, {"type": "node", "id": 8863852870, "lat": -22.9179455, "lon": -47.0667175}, {"type": "node", "id": 8863852871, "lat": -22.9178626, "lon": -47.0666849}, {"type": "node", "id": 8870317172, "lat": -22.9159481, "lon": -47.0692046}, {"type": "node", "id": 8870317173, "lat": -22.9159844, "lon": -47.0691803}, {"type": "node", "id": 8870317174, "lat": -22.9162019, "lon": -47.0695636}, {"type": "node", "id": 8870317175, "lat": -22.9161656, "lon": -47.0695879}, {"type": "way", "id": 444138504, "nodes": [4416325049, 4416325050, 4416325051, 4416325052, 4416325049], "tags": {"addr:city": "Campinas", "addr:housenumber": "450", "addr:postcode": "13036-225", "addr:street": "Avenida das Amoreiras", "addr:suburb": "Vila Industrial", "amenity": "theatre", "building": "yes", "name": "Teatro do SESI", "operator": "SESI"}}, {"type": "way", "id": 957693094, "nodes": [8861506914, 8861506915, 8861506306, 8861506916, 8861512317, 8861506914], "tags": {"addr:city": "Campinas", "addr:housenumber": "100", "addr:street": "Rua Donato Paschoal", "addr:suburb": "Parque It\u00e1lia", "building": "yes", "name": "Hotel Vila Rica", "tourism": "hotel"}}, {"type": "way", "id": 957693766, "nodes": [8861524234, 8861524235, 8861524236, 8861524237, 8861524238, 8861524239, 8861524234], "tags": {"building": "yes", "name": "Secretaria Municipal de Habita\u00e7\u00e3o"}}, {"type": "way", "id": 957693767, "nodes": [8861524240, 8861524241, 8861524242, 8861524243, 8861524240], "tags": {"building": "yes", "name": "COHAB"}}, {"type": "way", "id": 957947837, "nodes": [8863852852, 8863852853, 8863852854, 8863852855, 8863852852], "tags": {"building": "yes", "healthcare": "yes", "name": "Centro de Sa\u00fade Faria Lima"}}, {"type": "way", "id": 957947838, "nodes": [8863852856, 8863852857, 8863852858, 8863852859, 8863852856], "tags": {"addr:city": "Campinas", "addr:housenumber": "720", "addr:street": "Rua S\u00e3o Carlos", "addr:suburb": "Parque It\u00e1lia", "building": "yes", "name": "Instituto Adolfo Lutz", "office": "research"}}, {"type": "way", "id": 957947839, "nodes": [8863852860, 8863852861, 8863852862, 8863852863, 8863852860], "tags": {"addr:city": "Campinas", "addr:housenumber": "191", "addr:street": "Avenida das Amoreiras", "addr:suburb": "Parque It\u00e1lia", "amenity": "police", "building": "yes", "name": "Pol\u00edcia Militar Ambiental"}}, {"type": "way", "id": 957947841, "nodes": [8863852868, 8863852869, 8863852870, 8863852871, 8863852868], "tags": {"building": "yes"}}, {"type": "way", "id": 958674461, "nodes": [8870317175, 8870317174, 8870317173, 8870317172, 8870317175], "tags": {"amenity": "bus_station", "building": "roof", "name": "Esta\u00e7\u00e3o Mario Gatti", "network": "EMDEC", "public_transport": "station", "shelter": "yes"}}]}