{"version": 0.6, "generator": "Overpass API 0.7.61.5 4133829e", "osm3s": {"timestamp_osm_base": "2024-02-26T22:05:15Z", "copyright": "The data included in this document is from www.openstreetmap.org. The data is made available under ODbL."}, "elements": [{"type": "node", "id": 1492976793, "lat": -23.6118941, "lon": -46.4933166, "tags": {"entrance": "yes"}}, {"type": "node", "id": 2596068687, "lat": -23.6123346, "lon": -46.4930057}, {"type": "node", "id": 3971686561, "lat": -23.6125723, "lon": -46.4903287}, {"type": "node", "id": 3971686562, "lat": -23.6126571, "lon": -46.4903256}, {"type": "node", "id": 3971686563, "lat": -23.6126477, "lon": -46.4900212}, {"type": "node", "id": 3971686564, "lat": -23.6125629, "lon": -46.4900244}, {"type": "node", "id": 4768901391, "lat": -23.6130183, "lon": -46.4900565}, {"type": "node", "id": 4768901394, "lat": -23.613675, "lon": -46.490147}, {"type": "node", "id": 4768901395, "lat": -23.6131601, "lon": -46.4901916}, {"type": "node", "id": 4768901397, "lat": -23.613107, "lon": -46.4901266}, {"type": "node", "id": 4768901398, "lat": -23.6135782, "lon": -46.4901884}, {"type": "node", "id": 4768901402, "lat": -23.6136298, "lon": -46.4901736}, {"type": "node", "id": 5599501330, "lat": -23.6103002, "lon": -46.4936166}, {"type": "node", "id": 5599501331, "lat": -23.6105264, "lon": -46.4931848}, {"type": "node", "id": 5599501332, "lat": -23.611362, "lon": -46.493732}, {"type": "node", "id": 5599501333, "lat": -23.6113865, "lon": -46.4937883}, {"type": "node", "id": 5599501334, "lat": -23.6113349, "lon": -46.4938312}, {"type": "node", "id": 5599501335, "lat": -23.6106787, "lon": -46.4938151}, {"type": "node", "id": 5599501336, "lat": -23.6105534, "lon": -46.4937883}, {"type": "node", "id": 5599504757, "lat": -23.6096685, "lon": -46.4953452}, {"type": "node", "id": 5599504758, "lat": -23.6104451, "lon": -46.4938941}, {"type": "node", "id": 5599504759, "lat": -23.6094528, "lon": -46.4932188}, {"type": "node", "id": 5599504760, "lat": -23.6093441, "lon": -46.4933013}, {"type": "node", "id": 5599504761, "lat": -23.6092138, "lon": -46.4930841}, {"type": "node", "id": 5599504762, "lat": -23.6091131, "lon": -46.4931136}, {"type": "node", "id": 5599504763, "lat": -23.6087186, "lon": -46.4927729}, {"type": "node", "id": 5599504764, "lat": -23.6090854, "lon": -46.4929808}, {"type": "node", "id": 5599504765, "lat": -23.6087668, "lon": -46.492775}, {"type": "node", "id": 5599504766, "lat": -23.6091204, "lon": -46.4930197, "tags": {"addr:city": "S\u00e3o Paulo", "addr:street": "Rua Vict\u00f3ria Marconato Zonta", "addr:suburb": "Jardim Sapopemba", "amenity": "school", "name": "EMEI Vicente de Carvalho"}}, {"type": "node", "id": 5599504767, "lat": -23.6099905, "lon": -46.4926657}, {"type": "node", "id": 5599504768, "lat": -23.6105164, "lon": -46.4917402}, {"type": "node", "id": 5599504769, "lat": -23.6113136, "lon": -46.4922848}, {"type": "node", "id": 5599504770, "lat": -23.6111578, "lon": -46.4925473}, {"type": "node", "id": 5599504771, "lat": -23.6110967, "lon": -46.4925292}, {"type": "node", "id": 5599504772, "lat": -23.6108297, "lon": -46.4932236}, {"type": "node", "id": 5641479515, "lat": -23.6121754, "lon": -46.4941116, "tags": {"addr:city": "S\u00e3o Paulo", "addr:postcode": "03975-110", "addr:street": "Avenida Jo\u00e3o Rodrigues Ruiz", "addr:suburb": "Jardim Sapopemba", "amenity": "restaurant", "cuisine": "pizza;sandwich", "delivery": "yes", "description": "cozinha \u00e1rabe r\u00e1pida em espa\u00e7o informal", "name": "HABIB'S", "outdoor_seating": "no", "takeaway": "only"}}, {"type": "node", "id": 5889354985, "lat": -23.6119135, "lon": -46.4932819}, {"type": "node", "id": 5889354987, "lat": -23.6118599, "lon": -46.4933778}, {"type": "node", "id": 5889354988, "lat": -23.6118955, "lon": -46.4933142}, {"type": "node", "id": 5889354998, "lat": -23.6110379, "lon": -46.4928542}, {"type": "node", "id": 5889354999, "lat": -23.6108986, "lon": -46.4931025}, {"type": "node", "id": 6759448592, "lat": -23.6101607, "lon": -46.4925587}, {"type": "node", "id": 6759448593, "lat": -23.6103843, "lon": -46.4921523}, {"type": "node", "id": 6759448594, "lat": -23.6106924, "lon": -46.4923542}, {"type": "node", "id": 6759448595, "lat": -23.6104689, "lon": -46.4927606}, {"type": "node", "id": 9246647992, "lat": -23.6130464, "lon": -46.4897721}, {"type": "node", "id": 9246647993, "lat": -23.6136992, "lon": -46.4897565}, {"type": "node", "id": 9246648000, "lat": -23.6136989, "lon": -46.4901214}, {"type": "node", "id": 9246648008, "lat": -23.613699, "lon": -46.4899075, "tags": {"addr:city": "S\u00e3o Paulo", "addr:housenumber": "179", "addr:postcode": "03977-414", "addr:street": "Rua Alexandre Groppali", "entrance": "yes"}}, {"type": "node", "id": 9869682549, "lat": -23.61222, "lon": -46.4931093}, {"type": "node", "id": 9869682550, "lat": -23.6122691, "lon": -46.4930664}, {"type": "node", "id": 9869682551, "lat": -23.6115994, "lon": -46.4937041}, {"type": "node", "id": 9869682552, "lat": -23.6110237, "lon": -46.4927695}, {"type": "node", "id": 9869682553, "lat": -23.6110306, "lon": -46.4927098}, {"type": "node", "id": 9869682554, "lat": -23.6110077, "lon": -46.4926936}, {"type": "node", "id": 9869682555, "lat": -23.6110679, "lon": -46.4928005}, {"type": "node", "id": 9869682556, "lat": -23.6121659, "lon": -46.4931495}, {"type": "node", "id": 9869682557, "lat": -23.6115687, "lon": -46.4937245}, {"type": "way", "id": 394145516, "nodes": [3971686561, 3971686562, 3971686563, 3971686564, 3971686561], "tags": {"addr:city": "S\u00e3o Paulo", "addr:housenumber": "12500", "addr:street": "Avenida Sapopemba", "amenity": "fuel", "brand": "Ipiranga"}}, {"type": "way", "id": 484154809, "nodes": [4768901391, 9246647992, 9246647993, 9246648008, 9246648000, 4768901394, 4768901402, 4768901398, 4768901395, 4768901397, 4768901391], "tags": {"addr:city": "S\u00e3o Paulo", "addr:housenumber": "179", "addr:postcode": "03977-414", "addr:street": "Rua Alexandre Groppali", "addr:suburb": "Fazenda da Juta", "amenity": "kindergarten", "barrier": "wall", "name": "EMEI Aparecida Candida dos Santos de Jesus", "phone": "+55 11 2962-4441;+55 11 2011-8238", "short_name": "Escola Municipal de Ensino Infantil Aparecida Candida dos Santos de Jesus"}}, {"type": "way", "id": 585997945, "nodes": [5599504757, 5599504758, 5599504759, 5599504760, 5599504761, 5599504762, 5599504764, 5599504765, 5599504763, 5599504757], "tags": {"addr:city": "S\u00e3o Paulo", "addr:country": "BR", "addr:postcode": "03975-090", "addr:state": "SP", "addr:street": "Rua Manuel Quirino de Mattos", "addr:suburb": "Jardim Sapopemba", "amenity": "school", "loc_name": "CEU Sapopemba", "name": "Centro Educacional Unificado Dora Mancini", "note": "Sem numera\u00e7\u00e3o", "phone": "+55 11 3793-0131"}}, {"type": "way", "id": 585997946, "nodes": [5599504767, 5599504768, 5599504769, 5599504770, 5599504771, 9869682554, 9869682553, 9869682552, 9869682555, 5889354998, 5889354999, 5599504772, 5599504767], "tags": {"addr:city": "S\u00e3o Paulo", "addr:housenumber": "174", "addr:postcode": "03975-130", "addr:street": "Rua Manuel Fran\u00e7a dos Santos", "addr:suburb": "Sapopemba", "amenity": "hospital", "email": "sac@hesap.org.br", "emergency": "yes", "healthcare": "hospital", "healthcare:speciality": "general;orthopaedics;paediatrics;gynaecology;maternity;surgery", "loc_name": "HESAP", "name": "Hospital Estadual de Sapopemba", "operator": "Servi\u00e7o Social da Constru\u00e7\u00e3o Civil do Estado de S\u00e3o Paulo", "operator:ref:vatin": "BR46374500000194", "phone": "+55 11 2014 6000", "ref:CNES": "2091585", "ref:vatin": "BR46374500015116", "start_date": "2003-04-05", "website": "http://www.hesap.org.br/"}}, {"type": "way", "id": 585998314, "nodes": [5599501330, 5599501331, 5599501332, 5599501333, 5599501334, 5599501335, 5599501336, 5599501330], "tags": {"addr:city": "S\u00e3o Paulo", "addr:housenumber": "248", "addr:postcode": "03975-110", "addr:street": "Avenida Jo\u00e3o Rodrigues Ruiz", "addr:suburb": "Jardim Sapopemba", "amenity": "school", "email": "emefcosta@prefeitura.sp.gov.br", "name": "Escola Municipal de Educa\u00e7\u00e3o Fundamental Olival Costa", "phone": "+55 11 2019-4786", "short_name": "EMEF Olival Costa"}}, {"type": "way", "id": 720205958, "nodes": [6759448595, 6759448592, 6759448593, 6759448594, 6759448595], "tags": {"access": "customers", "amenity": "parking", "parking": "surface", "surface": "asphalt"}}, {"type": "way", "id": 1076258999, "nodes": [5599504772, 9869682557, 9869682551, 5889354987, 1492976793, 5889354988, 5889354985, 9869682556, 9869682549, 9869682550, 2596068687, 5599504769, 5599504770, 5599504771, 9869682554, 9869682553, 9869682552, 9869682555, 5889354998, 5889354999, 5599504772], "tags": {"amenity": "hospital", "name": "AE / AMA Sapopemba"}}]}