{"version": 0.6, "generator": "Overpass API 0.7.61.5 4133829e", "osm3s": {"timestamp_osm_base": "2024-02-26T22:04:15Z", "copyright": "The data included in this document is from www.openstreetmap.org. The data is made available under ODbL."}, "elements": [{"type": "node", "id": 2449353527, "lat": -22.538509, "lon": -44.7751459}, {"type": "node", "id": 2449353528, "lat": -22.5384434, "lon": -44.7747669}, {"type": "node", "id": 2449353529, "lat": -22.5386306, "lon": -44.7747181}, {"type": "node", "id": 2449353530, "lat": -22.5387138, "lon": -44.7750912}, {"type": "node", "id": 2613010676, "lat": -22.5375492, "lon": -44.7729001}, {"type": "node", "id": 2613010677, "lat": -22.5374823, "lon": -44.7732512}, {"type": "node", "id": 2613010678, "lat": -22.5376416, "lon": -44.7733018}, {"type": "node", "id": 2613010679, "lat": -22.5377147, "lon": -44.7729327}, {"type": "node", "id": 4527249486, "lat": -22.5383817, "lon": -44.7723187, "tags": {"addr:housenumber": "11", "addr:postcode": "12800-000", "addr:street": "Ladeira Ant\u00f4nio Carlos", "addr:suburb": "Centro", "amenity": "pharmacy", "healthcare": "pharmacy", "name": "Drogaria Santa Terezinha", "shop": "chemist"}}, {"type": "node", "id": 4527249487, "lat": -22.539224, "lon": -44.7733416, "tags": {"amenity": "townhall", "name": "Prefeitura Municipal de Queluz"}}, {"type": "node", "id": 4527249488, "lat": -22.5384616, "lon": -44.7722526, "tags": {"addr:street": "Ladeira Ant\u00f4nio Carlos", "addr:suburb": "Centro", "amenity": "restaurant", "internet_access": "no", "name": "Restaurante Sabor da Terra", "smoking": "no", "takeaway": "yes"}}, {"type": "node", "id": 4768592222, "lat": -22.5389103, "lon": -44.7739471, "tags": {"amenity": "police", "operator": "Secretaria da Seguran\u00e7a P\u00fablica do Estado de S\u00e3o Paulo"}}, {"type": "node", "id": 4768592226, "lat": -22.5408408, "lon": -44.7739181, "tags": {"amenity": "bank", "atm": "yes", "brand": "Banco Santander", "brand:en": "Santander Bank", "brand:es": "Banco Santander", "brand:wikidata": "Q6496310", "brand:wikipedia": "es:Banco Santander", "name": "Banco Santander", "name:en": "Santander Bank", "name:es": "Banco Santander", "official_name": "Santander Group", "opening_hours": "09:00-15:00"}}, {"type": "node", "id": 4768592227, "lat": -22.5391173, "lon": -44.7730641, "tags": {"addr:postcode": "12800-000", "addr:street": "Rua Padre Manoel Eufr\u00e1sio", "addr:suburb": "Centro", "amenity": "bank", "atm": "yes", "brand": "Bradesco", "brand:wikidata": "Q806181", "brand:wikipedia": "en:Banco Bradesco", "name": "Bradesco", "opening_hours": "09:00 - 15:00"}}, {"type": "node", "id": 4768605025, "lat": -22.5366121, "lon": -44.7752619, "tags": {"amenity": "police", "name": "Policia Militar do Estado de Sao Paulo"}}, {"type": "node", "id": 5888450723, "lat": -22.5384619, "lon": -44.7743768, "tags": {"amenity": "shelter", "leisure": "bandstand", "name": "Coreto Municipal", "shelter_type": "gazebo"}}, {"type": "node", "id": 5888462757, "lat": -22.5396026, "lon": -44.7738046, "tags": {"addr:city": "Queluz", "addr:housenumber": "157", "addr:postcode": "12800000", "addr:street": "Rua Prudente de Moraes", "addr:suburb": "Centro", "amenity": "restaurant", "capacity": "200", "cuisine": "burger;pizza", "delivery": "yes", "name": "Quiosque do LIgadinho", "opening_hours": "Mo-Su 19:00-00:00", "outdoor_seating": "yes", "shop": "kiosk", "smoking": "separated", "takeaway": "yes"}}, {"type": "node", "id": 5904214000, "lat": -22.5382809, "lon": -44.7743512}, {"type": "node", "id": 5904214001, "lat": -22.5384617, "lon": -44.7751827}, {"type": "node", "id": 5904214002, "lat": -22.5381174, "lon": -44.7752793}, {"type": "node", "id": 5904214003, "lat": -22.5377507, "lon": -44.7745256}, {"type": "node", "id": 7851731020, "lat": -22.538481, "lon": -44.774711}, {"type": "node", "id": 7851731021, "lat": -22.5384747, "lon": -44.7747482}, {"type": "node", "id": 7851731022, "lat": -22.5385579, "lon": -44.7746898}, {"type": "node", "id": 7851731023, "lat": -22.5385707, "lon": -44.7747384}, {"type": "node", "id": 7851734520, "lat": -22.5404212, "lon": -44.7710599}, {"type": "node", "id": 7851734521, "lat": -22.5405834, "lon": -44.7710498}, {"type": "node", "id": 7851734522, "lat": -22.5405834, "lon": -44.7709352}, {"type": "node", "id": 7851734523, "lat": -22.5404188, "lon": -44.7709429}, {"type": "node", "id": 7855386700, "lat": -22.5388752, "lon": -44.772705}, {"type": "node", "id": 7855386701, "lat": -22.5389243, "lon": -44.772664}, {"type": "node", "id": 7855386702, "lat": -22.5388668, "lon": -44.7725653}, {"type": "node", "id": 7855386703, "lat": -22.5388149, "lon": -44.7726063}, {"type": "node", "id": 7855593062, "lat": -22.5382685, "lon": -44.7733882}, {"type": "node", "id": 7855593063, "lat": -22.5382282, "lon": -44.7730879}, {"type": "node", "id": 7855593064, "lat": -22.5384415, "lon": -44.7726584}, {"type": "node", "id": 7855593065, "lat": -22.5385583, "lon": -44.7725784}, {"type": "node", "id": 7855593066, "lat": -22.5387199, "lon": -44.7727063}, {"type": "node", "id": 7855593067, "lat": -22.5388345, "lon": -44.7731384}, {"type": "node", "id": 7855772299, "lat": -22.5375654, "lon": -44.7740435}, {"type": "node", "id": 7855772300, "lat": -22.5376667, "lon": -44.774014}, {"type": "node", "id": 7855772301, "lat": -22.5376219, "lon": -44.7738474}, {"type": "node", "id": 7855772302, "lat": -22.5376453, "lon": -44.7738326}, {"type": "node", "id": 7855772303, "lat": -22.5376375, "lon": -44.7738052}, {"type": "node", "id": 7855772304, "lat": -22.5375109, "lon": -44.7738453}, {"type": "node", "id": 7856762325, "lat": -22.536971, "lon": -44.7746891}, {"type": "node", "id": 7856762326, "lat": -22.5370686, "lon": -44.7746657}, {"type": "node", "id": 7856762327, "lat": -22.5370419, "lon": -44.7745352}, {"type": "node", "id": 7856762328, "lat": -22.5369443, "lon": -44.7745585}, {"type": "node", "id": 7866648770, "lat": -22.5402337, "lon": -44.7703254, "tags": {"amenity": "place_of_worship", "denomination": "catholic", "name": "Igreja de Nossa Senhora do Ros\u00e1rio", "religion": "christian"}}, {"type": "node", "id": 8349037204, "lat": -22.5382174, "lon": -44.7729073}, {"type": "node", "id": 8349133593, "lat": -22.5385277, "lon": -44.7733228}, {"type": "node", "id": 8349133594, "lat": -22.5385555, "lon": -44.7732122}, {"type": "node", "id": 10292935709, "lat": -22.539204, "lon": -44.7732837, "tags": {"addr:housenumber": "100", "addr:postcode": "12800000", "addr:street": "Rua Prudente de Morais", "amenity": "townhall", "name": "Prefeitura Municipal de Queluz", "name:en": "Queluz City Hall", "name:pt": "Prefeitura de Queluz", "opening_hours": "Mo-Fr 08:00-17:00", "phone": "(12) 31479020", "website": "http://www.queluz.sp.gov.br"}}, {"type": "node", "id": 10294339109, "lat": -22.5403377, "lon": -44.7728829, "tags": {"addr:housenumber": "178", "addr:postcode": "12800000", "addr:street": "Pra\u00e7a Marechal Floriano Peixoto", "amenity": "fast_food", "name": "Point do A\u00e7a\u00ed"}}, {"type": "node", "id": 10294339110, "lat": -22.5401234, "lon": -44.7727894, "tags": {"addr:postcode": "12800000", "addr:street": "Pra\u00e7a Marechal Floriano Peixoto", "amenity": "fast_food", "name": "Quiosque Bate Papo"}}, {"type": "node", "id": 10294344009, "lat": -22.5394446, "lon": -44.7734092, "tags": {"addr:postcode": "12800000", "addr:street": "Rua Prudente de Morais", "amenity": "fast_food", "name": "Quiosque", "name:pt": "Quiosque Millenium"}}, {"type": "node", "id": 10294344010, "lat": -22.5384058, "lon": -44.7736977, "tags": {"addr:housenumber": "168", "addr:postcode": "12800000", "addr:street": "Pra\u00e7a Padre Francisco das Chagas Lima", "amenity": "school", "name": "Escola Municipal Capit\u00e3o Jos\u00e9 Carlos de Oliveira Garcez"}}, {"type": "node", "id": 11047899505, "lat": -22.5401094, "lon": -44.7721016, "tags": {"addr:housenumber": "96", "addr:postcode": "12800000", "addr:street": "Pra\u00e7a Marechal Floriano Peixoto", "amenity": "pharmacy", "name": "Farm\u00e1cia Santa Terezinha", "name:pt": "Drogaria Farmavale", "opening_hours": "Mo-Su 08:00-20:00", "phone": "(12)99687-2780"}}, {"type": "way", "id": 236983136, "nodes": [2449353527, 2449353528, 7851731021, 7851731020, 7851731022, 7851731023, 2449353529, 2449353530, 2449353527], "tags": {"addr:city": "Queluz", "addr:postcode": "12800000", "addr:street": "Pra\u00e7a Padre Francisco das Chaga Lima", "addr:suburb": "Centro", "amenity": "place_of_worship", "building": "church", "denomination": "roman_catholic", "name": "Igreja Matriz de S\u00e3o Jo\u00e3o Batista", "religion": "christian"}}, {"type": "way", "id": 255625037, "nodes": [2613010676, 2613010677, 2613010678, 2613010679, 2613010676], "tags": {"addr:suburb": "Centro", "amenity": "bus_station", "building": "transportation", "bus": "yes", "name": "Rodoviaria de Queluz", "public_transport": "station", "tourist_bus": "yes"}}, {"type": "way", "id": 625302092, "nodes": [5904214000, 5904214001, 5904214002, 5904214003, 5904214000], "tags": {"addr:city": "Queluz - SP", "addr:housenumber": "272", "addr:postcode": "12800-000", "addr:street": "Pra\u00e7a Padre Francisco das Chagas Lima", "addr:suburb": "Centro", "alt_name": "Casa de Malba Tahan", "amenity": "arts_centre", "name": "Centro Cultural Malba Tahan", "start_date": "1824", "tourism": "attraction"}}, {"type": "way", "id": 841547062, "nodes": [7851734520, 7851734521, 7851734522, 7851734523, 7851734520], "tags": {"addr:housenumber": "174", "addr:postcode": "12800-000", "addr:street": "Pra\u00e7a Portugal", "addr:suburb": "Centro", "amenity": "courthouse", "building": "yes", "name": "Forum - Minist\u00e9rio P\u00fablico do Estado de S\u00e3o Paulo"}}, {"type": "way", "id": 842005702, "nodes": [7855386700, 7855386701, 7855386702, 7855386703, 7855386700], "tags": {"addr:postcode": "12800-000", "addr:street": "Rua Padre Manoel Eufr\u00e1sio", "addr:suburb": "Centro", "amenity": "post_office", "building": "yes", "name": "Correios"}}, {"type": "way", "id": 842029173, "nodes": [7855593062, 7855593063, 8349037204, 7855593064, 7855593065, 7855593066, 7855593067, 8349133594, 8349133593, 7855593062], "tags": {"addr:city": "Queluz", "addr:housenumber": "65", "addr:postcode": "12800-000", "addr:street": "Ladeira Nossa Senhora de F\u00e1tima", "addr:suburb": "Centro", "amenity": "hospital", "emergency": "yes", "healthcare": "hospital", "healthcare:speciality": "general", "name": "Hospital Municipal de Queluz", "operator:ref:vatin": "BR46670931000106", "operator:type": "private", "phone": "+55 12 3147 1560", "ref:CNES": "2058340"}}, {"type": "way", "id": 842050577, "nodes": [7855772299, 7855772300, 7855772301, 7855772302, 7855772303, 7855772304, 7855772299], "tags": {"addr:street": "Avenida Virg\u00edlio Camargo da Silva", "amenity": "fuel", "building": "roof", "compressed_air": "yes", "fuel:diesel": "yes", "fuel:etanol_comum": "yes", "fuel:ethanol": "yes", "fuel:octane_87": "yes", "name": "Posto Meneguzzi", "self_service": "no"}}, {"type": "way", "id": 842170297, "nodes": [7856762325, 7856762326, 7856762327, 7856762328, 7856762325], "tags": {"addr:street": "Rua Cust\u00f3dio Martins", "amenity": "place_of_worship", "building": "yes", "denomination": "pentecostal", "name": "Assembl\u00e9ia de Deus", "religion": "christian", "service_times": "Tu,Th 19:30; Su 19:00"}}]}