{"version": 0.6, "generator": "Overpass API 0.7.61.5 4133829e", "osm3s": {"timestamp_osm_base": "2024-02-26T22:07:13Z", "copyright": "The data included in this document is from www.openstreetmap.org. The data is made available under ODbL."}, "elements": [{"type": "node", "id": 10018192313, "lat": -23.6376837, "lon": -46.8098703}, {"type": "node", "id": 10018192314, "lat": -23.6379365, "lon": -46.8098904}, {"type": "node", "id": 10018192315, "lat": -23.6379707, "lon": -46.8092178}, {"type": "node", "id": 10018192316, "lat": -23.6377153, "lon": -46.8092034}, {"type": "node", "id": 10018233327, "lat": -23.6380506, "lon": -46.8099459}, {"type": "node", "id": 10018233328, "lat": -23.6380752, "lon": -46.8092179}, {"type": "node", "id": 10018233329, "lat": -23.6383215, "lon": -46.8092134}, {"type": "node", "id": 10018233330, "lat": -23.6382927, "lon": -46.8099571}, {"type": "node", "id": 10018233331, "lat": -23.6382825, "lon": -46.8089446}, {"type": "node", "id": 10018233332, "lat": -23.6385164, "lon": -46.8089424}, {"type": "node", "id": 10018233333, "lat": -23.6385308, "lon": -46.8082189}, {"type": "node", "id": 10018233334, "lat": -23.6382886, "lon": -46.8082279}, {"type": "node", "id": 10018233335, "lat": -23.6383235, "lon": -46.810255}, {"type": "node", "id": 10018233336, "lat": -23.6383687, "lon": -46.8092896}, {"type": "node", "id": 10018233337, "lat": -23.638617, "lon": -46.8092918}, {"type": "node", "id": 10018233338, "lat": -23.6385841, "lon": -46.8102662}, {"type": "node", "id": 10018233339, "lat": -23.6387421, "lon": -46.8099839}, {"type": "node", "id": 10018233340, "lat": -23.6389719, "lon": -46.8099862}, {"type": "node", "id": 10018233341, "lat": -23.6389863, "lon": -46.8092112}, {"type": "node", "id": 10018233342, "lat": -23.6387626, "lon": -46.8092313}, {"type": "node", "id": 10018233343, "lat": -23.6390827, "lon": -46.8100108}, {"type": "node", "id": 10018233344, "lat": -23.6391053, "lon": -46.8092358}, {"type": "node", "id": 10018233345, "lat": -23.639212, "lon": -46.8092179}, {"type": "node", "id": 10018233346, "lat": -23.6393187, "lon": -46.8100063}, {"type": "node", "id": 10018233347, "lat": -23.6391987, "lon": -46.8099907}, {"type": "node", "id": 10018233348, "lat": -23.6393474, "lon": -46.8092358}, {"type": "node", "id": 10018233349, "lat": -23.6393659, "lon": -46.8102214}, {"type": "node", "id": 10018233350, "lat": -23.6393946, "lon": -46.8092985}, {"type": "node", "id": 10018233351, "lat": -23.6397763, "lon": -46.8092806}, {"type": "node", "id": 10018233352, "lat": -23.6397496, "lon": -46.8102214}, {"type": "node", "id": 11287215623, "lat": -23.6427968, "lon": -46.809852}, {"type": "node", "id": 11287215624, "lat": -23.6425624, "lon": -46.8095008}, {"type": "node", "id": 11287215625, "lat": -23.6429559, "lon": -46.8090898}, {"type": "node", "id": 11287215626, "lat": -23.6434796, "lon": -46.8086751}, {"type": "node", "id": 11287215627, "lat": -23.6431681, "lon": -46.8093177}, {"type": "node", "id": 11287215628, "lat": -23.6431322, "lon": -46.8094466}, {"type": "way", "id": 1093816596, "nodes": [10018192313, 10018192314, 10018192315, 10018192316, 10018192313], "tags": {"addr:housenumber": "235", "addr:postcode": "06785-290", "addr:street": "Rua Francisco D'Amico", "addr:suburb": "Parque Industrial", "building": "industrial", "industrial": "factory", "name": "Brasmeca Cilindros Hidralicos", "phone": "+55 11 4137 3611", "website": "http://www.brasmeca.com.br/"}}, {"type": "way", "id": 1093816599, "nodes": [10018233327, 10018233328, 10018233329, 10018233330, 10018233327], "tags": {"addr:housenumber": "195", "addr:street": "Rua Francisco D'Amico", "addr:suburb": "Parque Industrial", "building": "industrial", "name": "Casa Victoriana P\u00e3es Especiais", "website": "http://www.casavictoriana.com.br/"}}, {"type": "way", "id": 1093816600, "nodes": [10018233331, 10018233332, 10018233333, 10018233334, 10018233331], "tags": {"addr:street": "Rua Francisco D'Amico", "addr:suburb": "Parque Industrial", "building": "industrial", "name": "Iron Mountien", "website": "https://www.ironmountain.com/br"}}, {"type": "way", "id": 1093816601, "nodes": [10018233335, 10018233336, 10018233337, 10018233338, 10018233335], "tags": {"addr:housenumber": "175", "addr:street": "Rua Francisco D'Amico", "addr:suburb": "Parque Industrial", "building": "industrial"}}, {"type": "way", "id": 1093816602, "nodes": [10018233339, 10018233340, 10018233341, 10018233342, 10018233339], "tags": {"addr:housenumber": "155", "addr:street": "Rua Francisco D'Amico", "addr:suburb": "Parque Industrial", "building": "industrial"}}, {"type": "way", "id": 1093816603, "nodes": [10018233343, 10018233344, 10018233345, 10018233348, 10018233346, 10018233347, 10018233343], "tags": {"addr:housenumber": "75", "addr:street": "Rua Francisco D'Amico", "addr:suburb": "Parque Industrial", "building": "industrial"}}, {"type": "way", "id": 1093816604, "nodes": [10018233349, 10018233350, 10018233351, 10018233352, 10018233349], "tags": {"addr:housenumber": "35", "addr:street": "Rua Francisco D'Amico", "addr:suburb": "Parque Industrial", "building": "industrial"}}, {"type": "way", "id": 1218119680, "nodes": [11287215623, 11287215624, 11287215625, 11287215626, 11287215627, 11287215628, 11287215623], "tags": {"addr:city": "Embu das Artes", "addr:housenumber": "3444", "addr:postcode": "06817-000", "addr:street": "Avenida Jo\u00e3o Paulo I", "addr:suburb": "Jardim Santa B\u00e1rbara", "building": "yes", "name": "Conibase Home Center | Embu - Pirajussara", "phone": "+551121412222", "shop": "hardware", "toilets": "yes", "website": "https://www.conibase.com.br/", "wheelchair": "yes"}}]}