{"version": 0.6, "generator": "Overpass API 0.7.61.5 4133829e", "osm3s": {"timestamp_osm_base": "2024-02-19T19:46:06Z", "copyright": "The data included in this document is from www.openstreetmap.org. The data is made available under ODbL."}, "elements": [{"type": "node", "id": 1865607204, "lat": -23.8381992, "lon": -46.1382847}, {"type": "node", "id": 1867245892, "lat": -23.8431245, "lon": -46.1397123}, {"type": "node", "id": 1867246469, "lat": -23.8430035, "lon": -46.1398437}, {"type": "node", "id": 1867246493, "lat": -23.843065, "lon": -46.1398545}, {"type": "node", "id": 1867246526, "lat": -23.8430778, "lon": -46.1396797}, {"type": "node", "id": 2596087416, "lat": -23.8403062, "lon": -46.1355475}, {"type": "node", "id": 2596087429, "lat": -23.8408609, "lon": -46.1353951}, {"type": "node", "id": 3427566612, "lat": -23.8420197, "lon": -46.1358709}, {"type": "node", "id": 3427566613, "lat": -23.8405769, "lon": -46.1352785}, {"type": "node", "id": 3427566614, "lat": -23.8374636, "lon": -46.1392612}, {"type": "node", "id": 3427566615, "lat": -23.8384183, "lon": -46.1399369}, {"type": "node", "id": 3427566616, "lat": -23.8385479, "lon": -46.1399369}, {"type": "node", "id": 3427566617, "lat": -23.8386909, "lon": -46.1398295}, {"type": "node", "id": 3427566618, "lat": -23.8388979, "lon": -46.1399744}, {"type": "node", "id": 3427566619, "lat": -23.8420093, "lon": -46.1359214}, {"type": "node", "id": 5935918306, "lat": -23.84186, "lon": -46.1371879}, {"type": "node", "id": 5935918307, "lat": -23.8418575, "lon": -46.136615}, {"type": "node", "id": 5935918308, "lat": -23.8428079, "lon": -46.1370449}, {"type": "node", "id": 5935918309, "lat": -23.842544, "lon": -46.1374726}, {"type": "node", "id": 7114586641, "lat": -23.8420575, "lon": -46.1395608}, {"type": "node", "id": 7114586642, "lat": -23.8420747, "lon": -46.1397582}, {"type": "node", "id": 7114586643, "lat": -23.8421473, "lon": -46.1399399}, {"type": "node", "id": 7114586644, "lat": -23.8422683, "lon": -46.1400876}, {"type": "node", "id": 7114586645, "lat": -23.8424254, "lon": -46.1401867}, {"type": "node", "id": 7114586646, "lat": -23.842603, "lon": -46.1402271}, {"type": "node", "id": 7114586647, "lat": -23.8427832, "lon": -46.1402049}, {"type": "node", "id": 7114586648, "lat": -23.8431794, "lon": -46.1394226}, {"type": "node", "id": 7114586649, "lat": -23.8430906, "lon": -46.1392281}, {"type": "node", "id": 7114586650, "lat": -23.8429464, "lon": -46.1390783}, {"type": "node", "id": 7114586651, "lat": -23.842764, "lon": -46.1389915}, {"type": "node", "id": 7114586652, "lat": -23.8425655, "lon": -46.138978}, {"type": "node", "id": 7114586653, "lat": -23.8423747, "lon": -46.1390394}, {"type": "node", "id": 7114586654, "lat": -23.8422146, "lon": -46.1391684}, {"type": "node", "id": 7114586655, "lat": -23.8429481, "lon": -46.1401223}, {"type": "node", "id": 7114586656, "lat": -23.8430811, "lon": -46.1399875}, {"type": "node", "id": 7114586657, "lat": -23.8431689, "lon": -46.1398141}, {"type": "node", "id": 7114586658, "lat": -23.8432028, "lon": -46.1396193}, {"type": "node", "id": 7114586659, "lat": -23.8421045, "lon": -46.1393495}, {"type": "node", "id": 8356656733, "lat": -23.8382482, "lon": -46.1382839}, {"type": "node", "id": 8356656734, "lat": -23.8395505, "lon": -46.1365865}, {"type": "node", "id": 8830474475, "lat": -23.8452428, "lon": -46.1381794}, {"type": "node", "id": 8830474476, "lat": -23.8454793, "lon": -46.1381957}, {"type": "node", "id": 8830474478, "lat": -23.84527, "lon": -46.138104}, {"type": "node", "id": 8881642655, "lat": -23.8438522, "lon": -46.1379663, "tags": {"addr:city": "Bertioga", "addr:housenumber": "1.3600", "addr:postcode": "11250-117", "addr:street": "Rua Luiz Pereira de Campos", "addr:suburb": "Centro", "name": "Jeferson Barber's", "opening_hours": "Mo-Su 09:00-19:00; PH off", "payment:cash": "yes", "payment:mastercard": "yes", "payment:visa": "yes", "phone": "+5513996301154", "shop": "hairdresser", "website": "https://www.instagram.com/jefersonbarbers/"}}, {"type": "node", "id": 10600243207, "lat": -23.8439219, "lon": -46.1369251, "tags": {"addr:housenumber": "537", "addr:street": "Rua Ant\u00f4nio Rodrigues de Almeida", "addr:suburb": "Centro", "contact:facebook": "https://www.facebook.com/andrelimatatto/", "contact:instagram": "https://www.instagram.com/andrelimatattoo/", "name": "Andr\u00e9 Lima Tattoo", "shop": "tattoo", "website": "https://andre-lima-tattoo.negocio.site"}}, {"type": "node", "id": 10600243208, "lat": -23.8439341, "lon": -46.1369002, "tags": {"addr:housenumber": "537", "addr:street": "Rua Ant\u00f4nio Rodrigues de Almeida", "addr:suburb": "Centro"}}, {"type": "node", "id": 10732836116, "lat": -23.8419067, "lon": -46.1365603}, {"type": "node", "id": 10732836117, "lat": -23.842425, "lon": -46.1368241}, {"type": "node", "id": 10732836118, "lat": -23.8426365, "lon": -46.1363193}, {"type": "node", "id": 10732836119, "lat": -23.842154, "lon": -46.1361174}, {"type": "node", "id": 10733370858, "lat": -23.8454332, "lon": -46.1382719}, {"type": "way", "id": 176167881, "nodes": [1867246469, 1867246526, 1867245892, 1867246493, 1867246469], "tags": {"amenity": "parking"}}, {"type": "way", "id": 335657648, "nodes": [1865607204, 3427566614, 3427566615, 3427566616, 3427566617, 3427566618, 3427566619, 3427566612, 2596087429]}, {"type": "way", "id": 628714283, "nodes": [5935918306, 5935918307, 5935918308, 5935918309, 5935918306], "tags": {"addr:city": "Bertioga", "addr:housenumber": "600", "addr:postcode": "11250-000", "addr:street": "Rua Bartolomeu Fernandes Gon\u00e7alves", "addr:suburb": "Vila Itapanha\u00fa", "amenity": "school", "contact:phone": "+55 13 3317 3146", "email": "e011605a@educacao.sp.gov.br", "name": "Escola Estadual Professor Armando Bellegard", "operator": "Secretaria da Educa\u00e7\u00e3o do Estado de S\u00e3o Paulo", "operator:type": "government", "phone": "+55 13 3317 1430", "ref": "INEP-35011605", "religion": "none", "source": "CADMEC 2017;INEP"}}, {"type": "way", "id": 761480684, "nodes": [7114586659, 7114586641, 7114586642, 7114586643, 7114586644, 7114586645, 7114586646, 7114586647, 7114586655, 7114586656, 7114586657, 7114586658, 7114586648, 7114586649, 7114586650, 7114586651, 7114586652, 7114586653, 7114586654, 7114586659], "tags": {"addr:street": "Pra\u00e7a Vicente Molinari", "addr:suburb": "Vila Itapanha\u00fa", "amenity": "hospital", "emergency": "yes", "healthcare": "hospital", "healthcare:speciality": "general", "name": "Hospital Municipal de Bertioga", "operator": "Prefeitura de Bertioga", "operator:type": "government"}}, {"type": "way", "id": 899393911, "nodes": [2596087429, 3427566613, 2596087416, 8356656734, 8356656733, 1865607204]}, {"type": "way", "id": 954083453, "nodes": [8830474475, 10733370858, 8830474476, 8830474478, 8830474475], "tags": {"addr:housenumber": "573", "addr:postcode": "11250-000", "addr:street": "Rua Estev\u00e3o da Costa", "addr:suburb": "Vila Itapanha\u00fa", "amenity": "place_of_worship", "building": "yes", "contact:mobile": "+55 13 98163 5401", "denomination": "jehovahs_witness", "name": "Sal\u00e3o do Reino das Testemunhas de Jeov\u00e1", "phone": "+55 13 98110 0053", "religion": "christian", "service_times": "We,Th 19:30; Sa 19:00; Su 09:30"}}, {"type": "way", "id": 1154034895, "nodes": [10732836116, 10732836117, 10732836118, 10732836119, 10732836116], "tags": {"addr:postcode": "11250-288", "addr:street": "Avenida Manoel da N\u00f3brega", "addr:suburb": "Centro", "amenity": "kindergarten", "name": "Escola Municipal Professor Delphino Stockler de Lima", "operator": "Secretaria de educa\u00e7\u00e3o", "operator:type": "government", "phone": "+55 13 3317 5060"}}, {"type": "relation", "id": 7845295, "members": [{"type": "way", "ref": 335657648, "role": "outer"}, {"type": "way", "ref": 899393911, "role": "outer"}], "tags": {"addr:city": "Bertioga", "addr:housenumber": "1541", "addr:postcode": "11250-000", "addr:street": "Avenida Anchieta", "landuse": "residential", "name": "Condom\u00ednio Centerville", "type": "multipolygon"}}]}