{"version": 0.6, "generator": "Overpass API 0.7.61.5 4133829e", "osm3s": {"timestamp_osm_base": "2024-02-26T21:59:07Z", "copyright": "The data included in this document is from www.openstreetmap.org. The data is made available under ODbL."}, "elements": [{"type": "node", "id": 2362602083, "lat": -20.8276545, "lon": -49.3962644, "tags": {"addr:city": "S\u00e3o Jos\u00e9 do Rio Preto", "addr:housenumber": "5416", "addr:state": "S\u00e3o Paulo", "addr:street": "Avenida Brigadeiro Faria Lima", "amenity": "university", "name": "Famerp", "official_name": "Faculdade de Medicina de S\u00e3o Jos\u00e9 do Rio Preto", "phone": "+55 17 3201 5700"}}, {"type": "node", "id": 2362602111, "lat": -20.8281174, "lon": -49.3978607}, {"type": "node", "id": 2362602112, "lat": -20.82821, "lon": -49.3979257}, {"type": "node", "id": 2362602125, "lat": -20.8285987, "lon": -49.3981987}, {"type": "node", "id": 3685965272, "lat": -20.8282644, "lon": -49.3948626}, {"type": "node", "id": 3888450974, "lat": -20.8287193, "lon": -49.3980021}, {"type": "node", "id": 3908479120, "lat": -20.8295898, "lon": -49.3948076, "tags": {"addr:housenumber": "170", "addr:street": "Rua Roberto Mange", "amenity": "school", "name": "E E Professor Jos\u00e9 Fel\u00edcio Miziara"}}, {"type": "node", "id": 4179899553, "lat": -20.8300228, "lon": -49.3977928, "tags": {"addr:city": "S\u00e3o Jos\u00e9 do Rio Preto", "addr:housenumber": "5700", "addr:postcode": "15090-000", "addr:street": "Avenida Brigadeiro Faria Lima", "amenity": "restaurant", "cuisine": "steak_house", "name": "Churrascaria Porto Alegre", "phone": "+55 17 3227 3299"}}, {"type": "node", "id": 4179899554, "lat": -20.8294989, "lon": -49.3974776, "tags": {"addr:city": "S\u00e3o Jos\u00e9 do Rio Preto", "addr:housenumber": "5660", "addr:postcode": "15090-000", "addr:street": "Avenida Brigadeiro Faria Lima", "amenity": "pharmacy", "email": "saude1@drogariasaude1.com.br", "healthcare": "pharmacy", "name": "Drogaria Sa\u00fade 1", "phone": "+55 17 2137 6869"}}, {"type": "node", "id": 4179899555, "lat": -20.8293121, "lon": -49.3973583, "tags": {"addr:city": "S\u00e3o Jos\u00e9 do Rio Preto", "addr:housenumber": "5622", "addr:postcode": "15090-000", "addr:street": "Avenida Brigadeiro Faria Lima", "amenity": "clinic", "healthcare": "clinic", "name": "Instituto de Neurologia Rio Preto", "phone": "+55 17 3226 1102"}}, {"type": "node", "id": 4179899560, "lat": -20.8303438, "lon": -49.3982158}, {"type": "node", "id": 4179899561, "lat": -20.8304115, "lon": -49.3982587}, {"type": "node", "id": 4179899562, "lat": -20.8304177, "lon": -49.3980825}, {"type": "node", "id": 4179899563, "lat": -20.8304853, "lon": -49.3981254}, {"type": "node", "id": 4179979520, "lat": -20.8304098, "lon": -49.3983529}, {"type": "node", "id": 4179979521, "lat": -20.8305054, "lon": -49.3981817}, {"type": "node", "id": 4179979522, "lat": -20.8305063, "lon": -49.3984146}, {"type": "node", "id": 4179979523, "lat": -20.8305819, "lon": -49.398167, "tags": {"access": "customers", "amenity": "parking", "parking": "surface"}}, {"type": "node", "id": 4179979524, "lat": -20.8306019, "lon": -49.3982434}, {"type": "node", "id": 4179979525, "lat": -20.8306424, "lon": -49.3984891}, {"type": "node", "id": 4179979526, "lat": -20.8307249, "lon": -49.3985482}, {"type": "node", "id": 4179979527, "lat": -20.8307528, "lon": -49.3983126}, {"type": "node", "id": 4179979528, "lat": -20.8308352, "lon": -49.3983717}, {"type": "node", "id": 4181957498, "lat": -20.8261171, "lon": -49.3950471, "tags": {"access": "customers", "amenity": "parking", "operator": "Livraria e Papelaria Casanova", "parking": "surface"}}, {"type": "node", "id": 4410300391, "lat": -20.8284685, "lon": -49.3966931, "tags": {"addr:city": "S\u00e3o Jos\u00e9 do Rio Preto", "addr:state": "SP", "amenity": "taxi", "name": "Ponto de T\u00e1xi HB", "opening_hours": "24/7", "phone": "+55 17 3227 5720"}}, {"type": "node", "id": 5257554957, "lat": -20.8286307, "lon": -49.3963741, "tags": {"addr:city": "S\u00e3o Jos\u00e9 do Rio Preto", "addr:housenumber": "5600", "addr:street": "Avenida Brigadeiro Faria Lima", "addr:suburb": "S\u00e3o Manoel", "amenity": "hospital", "healthcare": "hospital", "name": "Ambulat\u00f3rio Geral e de Especialidades", "operator": "Funfarme"}}, {"type": "node", "id": 5262799899, "lat": -20.8292081, "lon": -49.3969049}, {"type": "node", "id": 5262799900, "lat": -20.8293595, "lon": -49.3970009}, {"type": "node", "id": 5262799901, "lat": -20.8294359, "lon": -49.3968649}, {"type": "node", "id": 5262799902, "lat": -20.8293017, "lon": -49.3967561}, {"type": "node", "id": 5262799903, "lat": -20.8271157, "lon": -49.3994962}, {"type": "node", "id": 5262799904, "lat": -20.8269478, "lon": -49.3989007}, {"type": "node", "id": 5262799905, "lat": -20.8272072, "lon": -49.3988203}, {"type": "node", "id": 5262799906, "lat": -20.8273702, "lon": -49.3994412}, {"type": "node", "id": 5262799907, "lat": -20.8271446, "lon": -49.399568}, {"type": "node", "id": 5262799908, "lat": -20.8273792, "lon": -49.3995004}, {"type": "node", "id": 5262799909, "lat": -20.8274613, "lon": -49.3998163}, {"type": "node", "id": 5262799910, "lat": -20.8271991, "lon": -49.3998856}, {"type": "node", "id": 5262799911, "lat": -20.827162, "lon": -49.3997226}, {"type": "node", "id": 5262799912, "lat": -20.8271747, "lon": -49.399709}, {"type": "node", "id": 5384575626, "lat": -20.8305016, "lon": -49.3947177}, {"type": "node", "id": 5384575627, "lat": -20.8306546, "lon": -49.3948732}, {"type": "node", "id": 5384575628, "lat": -20.8309341, "lon": -49.3949617}, {"type": "node", "id": 5384575629, "lat": -20.8314705, "lon": -49.3943562}, {"type": "node", "id": 5384575630, "lat": -20.8311754, "lon": -49.3940699}, {"type": "node", "id": 5384575631, "lat": -20.8310795, "lon": -49.3941772}, {"type": "node", "id": 5384575632, "lat": -20.8310212, "lon": -49.3941249}, {"type": "node", "id": 5387298154, "lat": -20.828928, "lon": -49.397022}, {"type": "node", "id": 5387298155, "lat": -20.8290108, "lon": -49.3970801}, {"type": "node", "id": 5387298165, "lat": -20.8285701, "lon": -49.3974844}, {"type": "node", "id": 5387298166, "lat": -20.8285137, "lon": -49.3974066}, {"type": "node", "id": 5387298167, "lat": -20.828461, "lon": -49.3973556}, {"type": "node", "id": 5387298168, "lat": -20.8284134, "lon": -49.397314}, {"type": "node", "id": 5387298169, "lat": -20.828352, "lon": -49.3972886}, {"type": "node", "id": 5387298170, "lat": -20.8282805, "lon": -49.3972805}, {"type": "node", "id": 5387298171, "lat": -20.8282291, "lon": -49.3972524}, {"type": "node", "id": 5387298172, "lat": -20.8281201, "lon": -49.3970646}, {"type": "node", "id": 5387298173, "lat": -20.828372, "lon": -49.3966368}, {"type": "node", "id": 5387298174, "lat": -20.8290218, "lon": -49.3970876}, {"type": "node", "id": 5387298175, "lat": -20.8287167, "lon": -49.3975863}, {"type": "node", "id": 5387298176, "lat": -20.8291203, "lon": -49.3957946}, {"type": "node", "id": 5387298177, "lat": -20.8294713, "lon": -49.3960708}, {"type": "node", "id": 5387298178, "lat": -20.8297521, "lon": -49.396264}, {"type": "node", "id": 5387298179, "lat": -20.8301682, "lon": -49.3955049}, {"type": "node", "id": 5387298180, "lat": -20.8298072, "lon": -49.3952179}, {"type": "node", "id": 5387298181, "lat": -20.829376, "lon": -49.3948102}, {"type": "node", "id": 5387298182, "lat": -20.8287869, "lon": -49.3955049}, {"type": "node", "id": 5387298183, "lat": -20.8296925, "lon": -49.3960673}, {"type": "node", "id": 5387298184, "lat": -20.8289655, "lon": -49.3954879}, {"type": "node", "id": 5387298185, "lat": -20.8290602, "lon": -49.395352}, {"type": "node", "id": 5387298186, "lat": -20.8297872, "lon": -49.3959314}, {"type": "node", "id": 5387298187, "lat": -20.8295068, "lon": -49.3955024}, {"type": "node", "id": 5387298188, "lat": -20.8296597, "lon": -49.3952691}, {"type": "node", "id": 5387298189, "lat": -20.8295164, "lon": -49.3951616}, {"type": "node", "id": 5387298190, "lat": -20.8293635, "lon": -49.3953949}, {"type": "node", "id": 5387298191, "lat": -20.8297747, "lon": -49.3957704}, {"type": "node", "id": 5387298192, "lat": -20.8299878, "lon": -49.3954432}, {"type": "node", "id": 5387298193, "lat": -20.8297395, "lon": -49.3952581}, {"type": "node", "id": 5387298194, "lat": -20.8295264, "lon": -49.3955854}, {"type": "node", "id": 5387298195, "lat": -20.8268752, "lon": -49.3969065}, {"type": "node", "id": 5387298196, "lat": -20.8269655, "lon": -49.3967495}, {"type": "node", "id": 5387298197, "lat": -20.826839, "lon": -49.3966663}, {"type": "node", "id": 5387298198, "lat": -20.8267488, "lon": -49.3968232}, {"type": "node", "id": 5387298199, "lat": -20.8276923, "lon": -49.3946305}, {"type": "node", "id": 5387298200, "lat": -20.8277976, "lon": -49.3946775}, {"type": "node", "id": 5387298201, "lat": -20.8277461, "lon": -49.3948072}, {"type": "node", "id": 5387298202, "lat": -20.8276433, "lon": -49.3947568}, {"type": "node", "id": 5387298210, "lat": -20.8274363, "lon": -49.3954231}, {"type": "node", "id": 5387298211, "lat": -20.8274645, "lon": -49.3954506}, {"type": "node", "id": 5387298212, "lat": -20.8274701, "lon": -49.3954566}, {"type": "node", "id": 5387298213, "lat": -20.8274796, "lon": -49.395462}, {"type": "node", "id": 5387298214, "lat": -20.8274895, "lon": -49.395462}, {"type": "node", "id": 5387298215, "lat": -20.8274956, "lon": -49.395458}, {"type": "node", "id": 5387298216, "lat": -20.8275014, "lon": -49.3954472}, {"type": "node", "id": 5387298217, "lat": -20.8277461, "lon": -49.3948083}, {"type": "node", "id": 5387298218, "lat": -20.8276434, "lon": -49.3947582}, {"type": "node", "id": 5387298219, "lat": -20.8274288, "lon": -49.3953606}, {"type": "node", "id": 5387299845, "lat": -20.8280203, "lon": -49.3952148}, {"type": "node", "id": 5387299846, "lat": -20.8280684, "lon": -49.3951637}, {"type": "node", "id": 5387299847, "lat": -20.8280561, "lon": -49.3951504}, {"type": "node", "id": 5387299848, "lat": -20.8280063, "lon": -49.3952033}, {"type": "node", "id": 5387299849, "lat": -20.8279547, "lon": -49.395108}, {"type": "node", "id": 5387299850, "lat": -20.8279444, "lon": -49.3950969}, {"type": "node", "id": 5387299851, "lat": -20.8279976, "lon": -49.3950403}, {"type": "node", "id": 5387299852, "lat": -20.8278666, "lon": -49.3952016}, {"type": "node", "id": 5387299853, "lat": -20.8277579, "lon": -49.3950845}, {"type": "node", "id": 5387299854, "lat": -20.8278969, "lon": -49.3949368}, {"type": "node", "id": 5387299855, "lat": -20.8281993, "lon": -49.3952196}, {"type": "node", "id": 5387299856, "lat": -20.8281809, "lon": -49.3951997}, {"type": "node", "id": 5387299857, "lat": -20.828093, "lon": -49.3952931}, {"type": "node", "id": 5387299858, "lat": -20.8279435, "lon": -49.3951357}, {"type": "node", "id": 5387299859, "lat": -20.8280153, "lon": -49.3950594}, {"type": "node", "id": 5387299860, "lat": -20.8278793, "lon": -49.3949179}, {"type": "node", "id": 5387299861, "lat": -20.8279408, "lon": -49.3948526}, {"type": "node", "id": 5387299862, "lat": -20.8282407, "lon": -49.3951757}, {"type": "node", "id": 5387299863, "lat": -20.8279999, "lon": -49.3954524}, {"type": "node", "id": 5387299864, "lat": -20.8276939, "lon": -49.3956014}, {"type": "node", "id": 5387299865, "lat": -20.8279508, "lon": -49.3959045}, {"type": "node", "id": 5387299866, "lat": -20.8280879, "lon": -49.3955432}, {"type": "node", "id": 5387299867, "lat": -20.8282076, "lon": -49.3955006}, {"type": "node", "id": 5387299868, "lat": -20.8280346, "lon": -49.3953223}, {"type": "node", "id": 5387299869, "lat": -20.8279571, "lon": -49.3954083}, {"type": "node", "id": 5387299870, "lat": -20.8281301, "lon": -49.3955867}, {"type": "node", "id": 5562335311, "lat": -20.8267005, "lon": -49.3954922, "tags": {"addr:city": "S\u00e3o Jos\u00e9 do Rio Preto", "addr:housenumber": "5288", "addr:street": "Avenida Brigadeiro Faria Lima", "addr:suburb": "Vila S\u00e3o Jos\u00e9", "amenity": "pharmacy", "healthcare": "pharmacy", "name": "Drogaria Paz", "phone": "+55 17 3227 1104"}}, {"type": "node", "id": 6116869929, "lat": -20.8293516, "lon": -49.3970024}, {"type": "node", "id": 6116869930, "lat": -20.8293423, "lon": -49.3970005}, {"type": "node", "id": 6116869931, "lat": -20.8293654, "lon": -49.3969964}, {"type": "node", "id": 6116869932, "lat": -20.8293718, "lon": -49.3969902}, {"type": "node", "id": 6116869933, "lat": -20.829333, "lon": -49.3969952}, {"type": "node", "id": 7596694409, "lat": -20.8309017, "lon": -49.398508}, {"type": "node", "id": 7596694410, "lat": -20.8308274, "lon": -49.3986274}, {"type": "node", "id": 7596694411, "lat": -20.830822, "lon": -49.3986235}, {"type": "node", "id": 7596694412, "lat": -20.8307826, "lon": -49.3986868}, {"type": "node", "id": 7596694413, "lat": -20.8306856, "lon": -49.3986177}, {"type": "node", "id": 7596694414, "lat": -20.8307993, "lon": -49.398435}, {"type": "node", "id": 7780750846, "lat": -20.8288327, "lon": -49.397653}, {"type": "node", "id": 7780754602, "lat": -20.8277754, "lon": -49.3976319}, {"type": "node", "id": 7780754603, "lat": -20.8288227, "lon": -49.3976639}, {"type": "node", "id": 7780754604, "lat": -20.8288587, "lon": -49.3976732}, {"type": "node", "id": 7780754605, "lat": -20.8288046, "lon": -49.3977581}, {"type": "node", "id": 7780754606, "lat": -20.8288496, "lon": -49.3977897}, {"type": "node", "id": 7780825646, "lat": -20.8289732, "lon": -49.3970537}, {"type": "node", "id": 9884356261, "lat": -20.8282844, "lon": -49.3961733}, {"type": "node", "id": 9884356262, "lat": -20.8287502, "lon": -49.3956053}, {"type": "node", "id": 9884356263, "lat": -20.8287325, "lon": -49.3955986}, {"type": "node", "id": 9884356264, "lat": -20.8282667, "lon": -49.3962351}, {"type": "node", "id": 9884356265, "lat": -20.8282923, "lon": -49.3961827}, {"type": "node", "id": 9884356266, "lat": -20.8282858, "lon": -49.3961767}, {"type": "node", "id": 9884356267, "lat": -20.8282842, "lon": -49.3961616}, {"type": "node", "id": 9884356268, "lat": -20.8282901, "lon": -49.3961512}, {"type": "node", "id": 9884356269, "lat": -20.828241, "lon": -49.3961111}, {"type": "node", "id": 9884356270, "lat": -20.8286932, "lon": -49.3956135}, {"type": "node", "id": 9884356271, "lat": -20.8287092, "lon": -49.3956028}, {"type": "node", "id": 9884356272, "lat": -20.8287716, "lon": -49.3956229}, {"type": "node", "id": 9884356273, "lat": -20.8294694, "lon": -49.3961889}, {"type": "node", "id": 9884356274, "lat": -20.8290852, "lon": -49.3968058}, {"type": "node", "id": 9884426115, "lat": -20.8282835, "lon": -49.3961682}, {"type": "node", "id": 9897291799, "lat": -20.8277899, "lon": -49.3943235}, {"type": "node", "id": 9897291800, "lat": -20.827794, "lon": -49.3943367}, {"type": "node", "id": 9897291801, "lat": -20.8278014, "lon": -49.3943472}, {"type": "node", "id": 9897291802, "lat": -20.8287161, "lon": -49.3953585}, {"type": "node", "id": 9897291803, "lat": -20.8287293, "lon": -49.3953564}, {"type": "node", "id": 9897291804, "lat": -20.8287418, "lon": -49.3953503}, {"type": "node", "id": 9897291805, "lat": -20.8292733, "lon": -49.3947166}, {"type": "node", "id": 9897291806, "lat": -20.829277, "lon": -49.3947542}, {"type": "node", "id": 9897291807, "lat": -20.8292766, "lon": -49.3947305}, {"type": "node", "id": 9897291808, "lat": -20.8292676, "lon": -49.3947036}, {"type": "node", "id": 9897291809, "lat": -20.8277901, "lon": -49.3943098}, {"type": "node", "id": 9897291810, "lat": -20.8281158, "lon": -49.3934561}, {"type": "node", "id": 9897291811, "lat": -20.8281219, "lon": -49.3934539}, {"type": "node", "id": 9897291812, "lat": -20.8281259, "lon": -49.3934539}, {"type": "node", "id": 9897291813, "lat": -20.828131, "lon": -49.3934565}, {"type": "node", "id": 9897291814, "lat": -20.8292701, "lon": -49.3947753}, {"type": "node", "id": 9897291815, "lat": -20.8287067, "lon": -49.395355}, {"type": "node", "id": 9897310966, "lat": -20.8277914, "lon": -49.3943305}, {"type": "way", "id": 417430129, "nodes": [4179899562, 4179899563, 4179899561, 4179899560, 4179899562], "tags": {"addr:city": "S\u00e3o Jos\u00e9 do Rio Preto", "addr:housenumber": "5766", "addr:postcode": "15090-000", "addr:street": "Avenida Brigadeiro Faria Lima", "amenity": "bank", "brand": "Ita\u00fa Unibanco", "brand:wikidata": "Q1424293", "brand:wikipedia": "pt:Ita\u00fa Unibanco", "building": "commercial", "name": "Ita\u00fa", "opening_hours": "Mo-Fr 11:00-16:00", "phone": "+55 17 3003 4828", "ref": "Ag\u00eancia 4816"}}, {"type": "way", "id": 417437603, "nodes": [4179979527, 4179979528, 4179979526, 4179979525, 4179979527], "tags": {"addr:city": "S\u00e3o Jos\u00e9 do Rio Preto", "addr:housenumber": "5416", "addr:postcode": "15090-000", "addr:street": "Avenida Brigadeiro Faria Lima", "addr:suburb": "Jardim Universit\u00e1rio", "amenity": "bank", "atm": "yes", "brand": "Bradesco", "brand:wikidata": "Q806181", "brand:wikipedia": "en:Banco Bradesco", "building": "commercial", "email": "3014.gerencia@bradesco.com.br", "name": "Bradesco", "opening_hours": "Mo-Fr 11:00-16:00", "phone": "+55 17 3216 5599", "source": "Bing e website"}}, {"type": "way", "id": 417437608, "nodes": [4179979521, 4179979524, 4179979522, 4179979520, 4179979521], "tags": {"addr:city": "S\u00e3o Jos\u00e9 do Rio Preto", "addr:housenumber": "5788", "addr:postcode": "15090-000", "addr:street": "Avenida Brigadeiro Faria Lima", "addr:suburb": "S\u00e3o Manoel", "amenity": "pharmacy", "brand": "Drogaria S\u00e3o Paulo", "brand:wikidata": "Q5308184", "brand:wikipedia": "en:Grupo DPSP", "building": "commercial", "healthcare": "pharmacy", "name": "Drogaria S\u00e3o Paulo", "opening_hours": "Mo 07:00-23:00", "phone": "+55 17 3922 9857", "wheelchair": "yes"}}, {"type": "way", "id": 544424424, "nodes": [5262799899, 6116869933, 6116869930, 6116869929, 5262799900, 6116869931, 6116869932, 5262799901, 5262799902, 5262799899], "tags": {"addr:city": "S\u00e3o Jos\u00e9 do Rio Preto", "addr:housenumber": "5555", "addr:street": "Avenida Brigadeiro Faria Lima", "addr:suburb": "S\u00e3o Manoel", "amenity": "restaurant", "building": "commercial", "name": "S\u00f3 Suco", "takeaway": "yes"}}, {"type": "way", "id": 544424425, "nodes": [5262799903, 5262799904, 5262799905, 5262799906, 5262799903], "tags": {"addr:city": "S\u00e3o Jos\u00e9 do Rio Preto", "addr:housenumber": "60", "addr:street": "Avenida Jamil Feres Kfouri", "amenity": "hospital", "emergency": "yes", "healthcare": "hospital", "name": "Hospital da Crian\u00e7a e Maternidade", "operator": "Funfarme"}}, {"type": "way", "id": 544424426, "nodes": [5262799907, 5262799908, 5262799909, 5262799910, 5262799911, 5262799912, 5262799907], "tags": {"addr:city": "S\u00e3o Jos\u00e9 do Rio Preto", "addr:housenumber": "40", "addr:postcode": "15091-240", "addr:street": "Avenida Jamil Feres Kfouri", "amenity": "hospital", "healthcare": "hospital", "name": "Instituto de Reabilita\u00e7\u00e3o Lucy Montoro", "operator:ref:vatin": "BR46374500000194", "ref:CNES": "6859186", "ref:vatin": "BR46374500023135"}}, {"type": "way", "id": 558374700, "nodes": [5384575632, 5384575631, 5384575630, 5384575629, 5384575628, 5384575627, 5384575626, 5384575632], "tags": {"access": "private", "amenity": "parking", "name": "Estacionamento da Justi\u00e7a Federal", "parking": "surface", "surface": "asphalt"}}, {"type": "way", "id": 558576228, "nodes": [5387298174, 5387298155, 7780825646, 5387298154, 5387298173, 5387298172, 5387298171, 5387298170, 5387298169, 5387298168, 5387298167, 5387298166, 5387298165, 5387298175, 5387298174], "tags": {"access": "private", "amenity": "parking", "operator": "Med Park", "parking": "surface", "surface": "asphalt"}}, {"type": "way", "id": 558576229, "nodes": [5387298182, 5387298181, 5387298180, 5387298179, 5387298178, 5387298177, 5387298176, 5387298182]}, {"type": "way", "id": 558576230, "nodes": [5387298186, 5387298183, 5387298184, 5387298185, 5387298186], "tags": {"building": "yes"}}, {"type": "way", "id": 558576231, "nodes": [5387298190, 5387298189, 5387298188, 5387298187, 5387298190], "tags": {"leisure": "pitch", "sport": "multi"}}, {"type": "way", "id": 558576232, "nodes": [5387298194, 5387298193, 5387298192, 5387298191, 5387298194], "tags": {"building": "roof"}}, {"type": "way", "id": 558576233, "nodes": [5387298198, 5387298197, 5387298196, 5387298195, 5387298198], "tags": {"addr:city": "S\u00e3o Jos\u00e9 do Rio Preto", "addr:housenumber": "98", "addr:street": "Rua Manoel Pina", "addr:suburb": "S\u00e3o Manoel", "amenity": "restaurant", "building": "commercial", "diet:vegetarian": "yes", "name": "Restaurante Art & Sabor", "phone": "+55 17 3014 4691"}}, {"type": "way", "id": 558576234, "nodes": [5387298202, 5387298201, 5387298200, 5387298199, 5387298202], "tags": {"access": "yes", "amenity": "parking", "parking": "surface", "surface": "asphalt"}}, {"type": "way", "id": 558576236, "nodes": [5387298219, 5387298218, 5387298217, 5387298216, 5387298215, 5387298214, 5387298213, 5387298212, 5387298211, 5387298210, 5387298219], "tags": {"access": "customers", "amenity": "parking", "parking": "surface", "surface": "asphalt"}}, {"type": "way", "id": 558576240, "nodes": [5387299854, 5387299853, 5387299852, 5387299849, 5387299850, 5387299851, 5387299859, 5387299858, 5387299848, 5387299847, 5387299846, 5387299845, 5387299857, 5387299856, 5387299855, 5387299862, 5387299861, 5387299860, 5387299854], "tags": {"addr:city": "S\u00e3o Jos\u00e9 do Rio Preto", "addr:state": "SP", "addr:street": "Pra\u00e7a Cacilda Becker", "addr:suburb": "Ch\u00e1cara Municipal", "amenity": "arts_centre", "building": "yes", "email": "casadeculturariopreto@yahoo.com.br", "name": "Casa de Cultura Dinorath do Valle", "operator": "Prefeitura Municipal", "phone": "+55 17 3226 3366"}}, {"type": "way", "id": 558576241, "nodes": [5387299863, 5387299869, 5387299868, 5387299867, 5387299870, 5387299866, 5387299865, 5387299864, 5387299863], "tags": {"addr:city": "S\u00e3o Jos\u00e9 do Rio Preto", "addr:state": "SP", "addr:street": "Pra\u00e7a Cacilda Becker", "addr:suburb": "Ch\u00e1cara Municipal", "amenity": "theatre", "building": "yes", "name": "Teatro Municipal Humberto Sinibaldi Neto", "operator": "Prefeitura Municipal", "phone": "+55 17 3226 1501", "wheelchair": "yes"}}, {"type": "way", "id": 813270371, "nodes": [7596694414, 7596694413, 7596694412, 7596694411, 7596694410, 7596694409, 7596694414], "tags": {"addr:city": "S\u00e3o Jos\u00e9 do Rio Preto", "addr:postcode": "15090-000", "addr:street": "Avenida Brigadeiro Faria Lima", "amenity": "bank", "atm": "yes", "brand": "Banco Santander", "brand:en": "Santander Bank", "brand:es": "Banco Santander", "brand:wikidata": "Q6496310", "brand:wikipedia": "es:Banco Santander", "building": "commercial", "name": "Banco Santander", "name:en": "Santander Bank", "name:es": "Banco Santander", "official_name": "Santander Group", "wheelchair": "yes"}}, {"type": "way", "id": 833495645, "nodes": [2362602125, 3888450974, 7780754606, 7780754605, 7780754604, 7780750846, 7780754603, 5387298175, 5387298174, 5387298155, 7780825646, 5387298154, 5387298173, 5387298172, 7780754602, 2362602111, 2362602112, 2362602125], "tags": {"addr:country": "BR", "addr:housenumber": "5544", "addr:postcode": "15090-000", "addr:state": "S\u00e3o Paulo", "addr:street": "Avenida Brigadeiro Faria Lima", "amenity": "hospital", "contact:phone": "+55 17 3201 5000", "healthcare": "hospital", "healthcare:speciality": "vaccination", "name": "Hospital de Base de S\u00e3o Jos\u00e9 do Rio Preto", "ref:CNES": "2077396", "ref:vatin": "BR60003761000129", "vaccination": "covid19", "website": "http://www.hospitaldebase.com.br/"}}, {"type": "way", "id": 1078114430, "nodes": [9884356274, 9884356273, 9884356272, 9884356262, 9884356263, 9884356271, 9884356270, 9884356269, 9884356268, 9884356267, 9884426115, 9884356261, 9884356266, 9884356265, 9884356264, 9884356274]}, {"type": "way", "id": 1079744474, "nodes": [9897291815, 9897291802, 9897291803, 9897291804, 9897291814, 9897291806, 9897291807, 9897291805, 9897291808, 9897291813, 9897291812, 9897291811, 9897291810, 9897291809, 9897291799, 9897310966, 9897291800, 9897291801, 3685965272, 9897291815], "tags": {"addr:city": "S\u00e3o Jos\u00e9 do Rio Preto", "addr:housenumber": "5405", "addr:state": "S\u00e3o Paulo", "addr:street": "Rua Ant\u00f4nio de Godoy", "amenity": "college", "ele": "489", "internet_access": "yes", "name": "Escola Senai", "official_name": "Escola Senai Ant\u00f4nio Devisate"}}, {"type": "relation", "id": 7980687, "members": [{"type": "way", "ref": 558576229, "role": "outer"}, {"type": "way", "ref": 558576230, "role": "inner"}, {"type": "way", "ref": 558576231, "role": "inner"}, {"type": "way", "ref": 558576232, "role": "inner"}], "tags": {"addr:city": "S\u00e3o Jos\u00e9 do Rio Preto", "addr:housenumber": "170", "addr:street": "Rua Roberto Mange", "addr:suburb": "Ch\u00e1cara Municipal", "amenity": "school", "name": "Escola Estadual Professor Jos\u00e9 Fel\u00edcio Miziara", "operator": "Governo do Estado de S\u00e3o Paulo", "operator:type": "government", "operator:wikidata": "Q10290787", "phone": "+55 17 3227 2079", "type": "multipolygon"}}, {"type": "relation", "id": 14349059, "members": [{"type": "way", "ref": 1078114430, "role": "outer"}, {"type": "way", "ref": 833495645, "role": "outer"}], "tags": {"addr:city": "S\u00e3o Jos\u00e9 do Rio Preto", "amenity": "hospital", "healthcare": "hospital", "type": "multipolygon"}}]}