{"version": 0.6, "generator": "Overpass API 0.7.61.5 4133829e", "osm3s": {"timestamp_osm_base": "2024-02-26T22:08:15Z", "copyright": "The data included in this document is from www.openstreetmap.org. The data is made available under ODbL."}, "elements": [{"type": "node", "id": 6386094411, "lat": -23.5433465, "lon": -47.4471088}, {"type": "node", "id": 6386094412, "lat": -23.5433292, "lon": -47.4469926}, {"type": "node", "id": 6386094413, "lat": -23.543843, "lon": -47.4469016}, {"type": "node", "id": 6386094414, "lat": -23.5438603, "lon": -47.4470179}, {"type": "node", "id": 8076412536, "lat": -23.544333, "lon": -47.4466505}, {"type": "node", "id": 8076412537, "lat": -23.5441195, "lon": -47.4460149}, {"type": "node", "id": 8076412538, "lat": -23.543859, "lon": -47.4460751}, {"type": "node", "id": 8076412539, "lat": -23.5439838, "lon": -47.4467261}, {"type": "node", "id": 8076412540, "lat": -23.5443683, "lon": -47.4472636}, {"type": "node", "id": 8076412541, "lat": -23.5442697, "lon": -47.4474697}, {"type": "node", "id": 8076412542, "lat": -23.5441234, "lon": -47.4473864}, {"type": "node", "id": 8076412543, "lat": -23.544222, "lon": -47.4471803}, {"type": "node", "id": 8076412545, "lat": -23.545352, "lon": -47.4476843}, {"type": "node", "id": 8076412546, "lat": -23.5452207, "lon": -47.447984}, {"type": "node", "id": 8076412547, "lat": -23.5450827, "lon": -47.4479121}, {"type": "node", "id": 8076412548, "lat": -23.5452139, "lon": -47.4476123}, {"type": "node", "id": 8076412549, "lat": -23.5447588, "lon": -47.4482401}, {"type": "node", "id": 8076412550, "lat": -23.5448639, "lon": -47.4482997}, {"type": "node", "id": 8076412551, "lat": -23.5448931, "lon": -47.4482384}, {"type": "node", "id": 8076412552, "lat": -23.544788, "lon": -47.4481788}, {"type": "node", "id": 8076412553, "lat": -23.5445738, "lon": -47.448464}, {"type": "node", "id": 8076412554, "lat": -23.5447421, "lon": -47.4485626}, {"type": "node", "id": 8076412555, "lat": -23.5448037, "lon": -47.4484377}, {"type": "node", "id": 8076412556, "lat": -23.5446354, "lon": -47.448339}, {"type": "node", "id": 8076412557, "lat": -23.5451585, "lon": -47.4482315}, {"type": "node", "id": 8076412558, "lat": -23.5450255, "lon": -47.448535}, {"type": "node", "id": 8076412559, "lat": -23.5448933, "lon": -47.448466}, {"type": "node", "id": 8076412560, "lat": -23.5450264, "lon": -47.4481626}, {"type": "node", "id": 8076412561, "lat": -23.5452227, "lon": -47.4482711}, {"type": "node", "id": 8076412562, "lat": -23.5451299, "lon": -47.4484962}, {"type": "node", "id": 8076412563, "lat": -23.5450829, "lon": -47.4484732}, {"type": "node", "id": 8076412564, "lat": -23.5451758, "lon": -47.4482481}, {"type": "node", "id": 8076412565, "lat": -23.5455117, "lon": -47.4484774}, {"type": "node", "id": 8076412566, "lat": -23.5452922, "lon": -47.448956}, {"type": "node", "id": 8076412567, "lat": -23.5451668, "lon": -47.4488873}, {"type": "node", "id": 8076412568, "lat": -23.5453881, "lon": -47.4484065}, {"type": "node", "id": 8076412569, "lat": -23.5455766, "lon": -47.4485125}, {"type": "node", "id": 8076412570, "lat": -23.5455135, "lon": -47.4486513}, {"type": "node", "id": 8076412571, "lat": -23.5454487, "lon": -47.4486162}, {"type": "node", "id": 8076412572, "lat": -23.5458021, "lon": -47.4480042}, {"type": "node", "id": 8076412573, "lat": -23.5456892, "lon": -47.4482469}, {"type": "node", "id": 8076412574, "lat": -23.5456161, "lon": -47.4482065}, {"type": "node", "id": 8076412575, "lat": -23.545729, "lon": -47.4479637}, {"type": "node", "id": 8076412577, "lat": -23.5424776, "lon": -47.4476111}, {"type": "node", "id": 8076412578, "lat": -23.5424807, "lon": -47.4478792}, {"type": "node", "id": 8076412579, "lat": -23.5423485, "lon": -47.4478811}, {"type": "node", "id": 8076412580, "lat": -23.5423454, "lon": -47.4476129}, {"type": "node", "id": 8076412581, "lat": -23.542584, "lon": -47.4475796}, {"type": "node", "id": 8076412582, "lat": -23.5425833, "lon": -47.4479149}, {"type": "node", "id": 8076412583, "lat": -23.5424915, "lon": -47.4479147}, {"type": "node", "id": 8076412584, "lat": -23.5424923, "lon": -47.4475794}, {"type": "node", "id": 8447007705, "lat": -23.5441451, "lon": -47.4461543}, {"type": "node", "id": 8447007706, "lat": -23.5442296, "lon": -47.4461346}, {"type": "node", "id": 8447007707, "lat": -23.5442972, "lon": -47.4464745}, {"type": "node", "id": 8447007708, "lat": -23.5444197, "lon": -47.4464445}, {"type": "node", "id": 8447007709, "lat": -23.5442708, "lon": -47.4463309}, {"type": "node", "id": 8447007710, "lat": -23.5443559, "lon": -47.4463076}, {"type": "node", "id": 8447007711, "lat": -23.5439508, "lon": -47.446554}, {"type": "node", "id": 8447007712, "lat": -23.5439422, "lon": -47.4465094}, {"type": "node", "id": 8447007713, "lat": -23.5438988, "lon": -47.4465213}, {"type": "node", "id": 8447007714, "lat": -23.5439081, "lon": -47.4465657}, {"type": "node", "id": 8447007715, "lat": -23.5445162, "lon": -47.4476049}, {"type": "node", "id": 8447007716, "lat": -23.5444026, "lon": -47.4475374}, {"type": "node", "id": 8447007717, "lat": -23.5446271, "lon": -47.4470562}, {"type": "node", "id": 8447007718, "lat": -23.5444545, "lon": -47.4468324}, {"type": "node", "id": 8447007719, "lat": -23.5446054, "lon": -47.4467953}, {"type": "node", "id": 8447007720, "lat": -23.5448686, "lon": -47.447164}, {"type": "node", "id": 8447007721, "lat": -23.5447723, "lon": -47.4472409}, {"type": "node", "id": 8447007722, "lat": -23.5447032, "lon": -47.4471655}, {"type": "node", "id": 8447007728, "lat": -23.5443905, "lon": -47.4474802}, {"type": "node", "id": 8447007729, "lat": -23.5443357, "lon": -47.4474538}, {"type": "node", "id": 8447007730, "lat": -23.5443664, "lon": -47.4473782}, {"type": "node", "id": 8447007731, "lat": -23.5444211, "lon": -47.4474046}, {"type": "node", "id": 8447007732, "lat": -23.5444477, "lon": -47.4474408}, {"type": "node", "id": 8447007733, "lat": -23.5444048, "lon": -47.4474164}, {"type": "node", "id": 8447007734, "lat": -23.5445741, "lon": -47.4470568}, {"type": "node", "id": 8447007735, "lat": -23.5444084, "lon": -47.4468418}, {"type": "node", "id": 8447007741, "lat": -23.5446308, "lon": -47.4502144}, {"type": "node", "id": 8447007742, "lat": -23.5446318, "lon": -47.4501336}, {"type": "node", "id": 8447007743, "lat": -23.5447086, "lon": -47.4501348}, {"type": "node", "id": 8447007744, "lat": -23.5447076, "lon": -47.4502155}, {"type": "node", "id": 8447007750, "lat": -23.5445473, "lon": -47.4503035}, {"type": "node", "id": 8447007751, "lat": -23.5444136, "lon": -47.4503027}, {"type": "node", "id": 8447007752, "lat": -23.5444151, "lon": -47.4501712}, {"type": "node", "id": 8447007753, "lat": -23.5445624, "lon": -47.4503343}, {"type": "node", "id": 8447007754, "lat": -23.5444138, "lon": -47.4503338}, {"type": "node", "id": 8447007755, "lat": -23.5445633, "lon": -47.4503061}, {"type": "node", "id": 8447007756, "lat": -23.5445491, "lon": -47.4503058}, {"type": "node", "id": 8447007759, "lat": -23.5466766, "lon": -47.4487848}, {"type": "node", "id": 8447007760, "lat": -23.5465586, "lon": -47.4487254}, {"type": "node", "id": 8447007761, "lat": -23.5466293, "lon": -47.4485583}, {"type": "node", "id": 8447007762, "lat": -23.5467473, "lon": -47.4486178}, {"type": "node", "id": 9902660161, "lat": -23.5433688, "lon": -47.4477758}, {"type": "node", "id": 9902660162, "lat": -23.5432589, "lon": -47.4477741}, {"type": "node", "id": 9902660163, "lat": -23.5432615, "lon": -47.4475699}, {"type": "node", "id": 9902660164, "lat": -23.5433714, "lon": -47.4475716}, {"type": "node", "id": 9902660165, "lat": -23.5435612, "lon": -47.4477142}, {"type": "node", "id": 9902660166, "lat": -23.5434755, "lon": -47.4477131}, {"type": "node", "id": 9902660167, "lat": -23.5434769, "lon": -47.4475782}, {"type": "node", "id": 9902660168, "lat": -23.5435626, "lon": -47.4475792}, {"type": "node", "id": 9902660171, "lat": -23.5425951, "lon": -47.4477349}, {"type": "node", "id": 9902660172, "lat": -23.5425933, "lon": -47.4475775}, {"type": "node", "id": 9902660173, "lat": -23.5429254, "lon": -47.4475731}, {"type": "node", "id": 9902660174, "lat": -23.5429272, "lon": -47.4477304}, {"type": "way", "id": 681911727, "nodes": [6386094411, 6386094412, 6386094413, 6386094414, 6386094411], "tags": {"building": "grandstand"}}, {"type": "way", "id": 866504263, "nodes": [8076412536, 8447007707, 8447007708, 8447007710, 8447007709, 8447007706, 8447007705, 8076412537, 8076412538, 8447007712, 8447007713, 8447007714, 8447007711, 8076412539, 8076412536], "tags": {"amenity": "bus_station", "building": "roof", "bus": "yes", "name": "Terminal Urbano Jo\u00e3o Souto", "public_transport": "station"}}, {"type": "way", "id": 866504264, "nodes": [8076412540, 8076412541, 8076412542, 8076412543, 8076412540], "tags": {"addr:city": "Votorantim", "addr:housenumber": "675", "addr:street": "Avenida 31 de Mar\u00e7o", "amenity": "bank", "atm": "yes", "brand": "Caixa Econ\u00f4mica Federal", "brand:wikidata": "Q835283", "brand:wikipedia": "pt:Caixa Econ\u00f4mica Federal", "building": "yes", "drive_through": "no", "name": "Caixa Econ\u00f4mica Federal"}}, {"type": "way", "id": 866504265, "nodes": [8076412545, 8076412546, 8076412547, 8076412548, 8076412545], "tags": {"addr:city": "Votorantim", "addr:housenumber": "747", "addr:street": "Avenida 31 de Mar\u00e7o", "brand": "Americanas", "brand:wikidata": "Q3064093", "brand:wikipedia": "en:Lojas Americanas", "building": "yes", "name": "Lojas Americanas Express", "shop": "department_store"}}, {"type": "way", "id": 866504266, "nodes": [8076412549, 8076412550, 8076412551, 8076412552, 8076412549], "tags": {"addr:city": "Votorantim", "addr:housenumber": "724", "addr:street": "Avenida 31 de Mar\u00e7o", "amenity": "pharmacy", "brand": "Drogasil", "brand:wikidata": "Q5308185", "brand:wikipedia": "pt:Drogasil", "building": "yes", "dispensing": "yes", "healthcare": "pharmacy", "name": "Drogasil", "wheelchair": "yes"}}, {"type": "way", "id": 866504267, "nodes": [8076412553, 8076412554, 8076412555, 8076412556, 8076412553], "tags": {"addr:city": "Votorantim", "addr:housenumber": "51", "addr:street": "Rua Jo\u00e3o Walter", "amenity": "post_office", "brand": "Empresa Brasileira de Correios e Tel\u00e9grafos", "brand:short": "Correios", "brand:wikidata": "Q3375004", "brand:wikipedia": "en:Correios", "building": "yes", "name": "Correios"}}, {"type": "way", "id": 866504268, "nodes": [8076412557, 8076412558, 8076412559, 8076412560, 8076412557], "tags": {"addr:city": "Votorantim", "addr:housenumber": "754", "addr:street": "Avenida 31 de Mar\u00e7o", "brand": "Magazine Luiza", "brand:wikidata": "Q6729763", "building": "yes", "name": "Magazine Luiza", "shop": "department_store"}}, {"type": "way", "id": 866504269, "nodes": [8076412561, 8076412562, 8076412563, 8076412564, 8076412561], "tags": {"addr:city": "Votorantim", "addr:housenumber": "772", "addr:street": "Avenida 31 de Mar\u00e7o", "building": "yes", "name": "A Loteca da Sorte", "shop": "lottery"}}, {"type": "way", "id": 866504270, "nodes": [8076412565, 8076412571, 8076412566, 8076412567, 8076412568, 8076412565], "tags": {"addr:city": "Votorantim", "addr:housenumber": "794", "addr:street": "Avenida 31 de Mar\u00e7o", "brand": "Casas Bahia", "brand:wikidata": "Q5048048", "brand:wikipedia": "en:Casas Bahia", "building": "yes", "name": "Casas Bahia", "shop": "department_store"}}, {"type": "way", "id": 866504271, "nodes": [8076412569, 8076412570, 8076412571, 8076412565, 8076412569], "tags": {"addr:city": "Votorantim", "addr:housenumber": "810", "addr:street": "Avenida 31 de Mar\u00e7o", "amenity": "bank", "brand": "Ita\u00fa Unibanco", "brand:wikidata": "Q1424293", "brand:wikipedia": "pt:Ita\u00fa Unibanco", "building": "yes", "name": "Ita\u00fa"}}, {"type": "way", "id": 866504272, "nodes": [8076412572, 8076412573, 8076412574, 8076412575, 8076412572], "tags": {"addr:city": "Votorantim", "addr:housenumber": "805", "addr:street": "Avenida 31 de Mar\u00e7o", "amenity": "bank", "brand": "Bradesco", "brand:wikidata": "Q806181", "brand:wikipedia": "en:Banco Bradesco", "building": "yes", "name": "Bradesco"}}, {"type": "way", "id": 866504273, "nodes": [8076412577, 8076412578, 8076412579, 8076412580, 8076412577], "tags": {"addr:city": "Votorantim", "addr:housenumber": "442", "addr:street": "Avenida 31 de Mar\u00e7o", "amenity": "bank", "brand": "Ita\u00fa Unibanco", "brand:wikidata": "Q1424293", "brand:wikipedia": "pt:Ita\u00fa Unibanco", "building": "yes", "name": "Ita\u00fa"}}, {"type": "way", "id": 866504274, "nodes": [8076412581, 8076412582, 8076412583, 8076412584, 8076412581], "tags": {"addr:city": "Votorantim", "addr:housenumber": "454", "addr:street": "Avenida 31 de Mar\u00e7o", "amenity": "bank", "brand": "Banco Santander", "brand:wikidata": "Q6496310", "brand:wikipedia": "en:Santander Bank", "building": "yes", "name": "Banco Santander", "official_name": "Santander Group"}}, {"type": "way", "id": 909756449, "nodes": [8447007715, 8447007716, 8447007732, 8447007717, 8447007718, 8447007719, 8447007720, 8447007721, 8447007722, 8447007715], "tags": {"building": "yes"}}, {"type": "way", "id": 909756451, "nodes": [8447007728, 8447007729, 8447007730, 8447007731, 8447007728], "tags": {"building": "yes", "layer": "1"}}, {"type": "way", "id": 909756452, "nodes": [8447007732, 8447007733, 8447007734, 8447007735, 8447007718, 8447007717, 8447007732], "tags": {"building": "roof", "layer": "1"}}, {"type": "way", "id": 909756453, "nodes": [8447007741, 8447007742, 8447007743, 8447007744, 8447007741], "tags": {"building": "roof", "layer": "1"}}, {"type": "way", "id": 909756455, "nodes": [8447007750, 8447007751, 8447007752, 8447007750], "tags": {"building": "yes"}}, {"type": "way", "id": 909756456, "nodes": [8447007753, 8447007754, 8447007751, 8447007756, 8447007755, 8447007753], "tags": {"building": "chapel"}}, {"type": "way", "id": 909756457, "nodes": [8447007759, 8447007760, 8447007761, 8447007762, 8447007759], "tags": {"addr:city": "Votorantim", "addr:housenumber": "913", "addr:postcode": "18110-005", "addr:street": "Avenida 31 de Mar\u00e7o", "addr:suburb": "Centro", "amenity": "fuel", "building": "roof", "name": "Auto Posto Santa Isabel", "opening_hours": "24/7", "phone": "+55 15 3247-1580"}}, {"type": "way", "id": 1080375366, "nodes": [9902660161, 9902660162, 9902660163, 9902660164, 9902660161], "tags": {"amenity": "pharmacy", "building": "yes", "dispensing": "yes", "healthcare": "pharmacy", "name": "Farma Ponte"}}, {"type": "way", "id": 1080375367, "nodes": [9902660165, 9902660166, 9902660167, 9902660168, 9902660165], "tags": {"amenity": "pharmacy", "brand": "Farma Conde", "brand:wikidata": "Q100492677", "building": "yes", "dispensing": "yes", "healthcare": "pharmacy", "name": "Farma Conde"}}, {"type": "way", "id": 1080375368, "nodes": [9902660171, 9902660172, 9902660173, 9902660174, 9902660171], "tags": {"building": "yes"}}]}